{"type":"FeatureCollection","features":[{"type":"Feature","properties":{"website":"www.loewencenter.de","shop":"mall","name":"Löwencenter","id":"7973079","version":"9","building":"yes","changeSetId":"0","timestamp":"1382604545000"},"geometry":{"type":"Polygon","coordinates":[[[12.265948900000001,51.347509],[12.2643213,51.347288500000005],[12.2640869,51.3479496],[12.2670426,51.3483669],[12.2670597,51.348321000000006],[12.267619100000001,51.348402500000006],[12.267635100000001,51.348356900000006],[12.268194800000002,51.34843540000001],[12.2682417,51.3483037],[12.2685221,51.348343],[12.268757800000001,51.34768510000001],[12.269037800000001,51.3477243],[12.269164700000001,51.34736710000001],[12.2681839,51.3472297],[12.2682157,51.347142100000006],[12.2677169,51.34707220000001],[12.267629300000001,51.347107],[12.267565900000001,51.3472839],[12.2671384,51.347453400000006],[12.266712,51.3476225],[12.265948900000001,51.347509]]]}},{"type":"Feature","properties":{"website":"http://www.burgerking.de/","amenity":"fast_food","addr:country":"DE","version":"7","addr:postcode":"04430","building":"yes","addr:city":"Leipzig","addr:housenumber":"263","name":"Burger King","opening_hours":"Mo-Fr 00:00-01:00,08:00-24:00; Sa,Su 00:00-04:00,08:00-24:00","id":"35241099","addr:street":"Merseburger Straße","changeSetId":"0","timestamp":"1386577647000"},"geometry":{"type":"Polygon","coordinates":[[[12.263170700000002,51.345933],[12.263173,51.3459434],[12.263245300000001,51.345936900000005],[12.2632428,51.345925900000005],[12.263361600000001,51.3459152],[12.2633357,51.345801900000005],[12.262971,51.345834700000005],[12.262997100000002,51.3459486],[12.263155800000002,51.3459343],[12.263170700000002,51.345933]]]}},{"type":"Feature","properties":{"addr:housename":"EuroEddy´s FamilyFunCenter","addr:housenumber":"1","addr:country":"DE","id":"46648943","addr:street":"Kastanienweg","version":"4","addr:postcode":"04178","building":"yes","changeSetId":"0","timestamp":"1292981011000","addr:city":"Leipzig"},"geometry":{"type":"Polygon","coordinates":[[[12.2682237,51.3454004],[12.2686925,51.3453613],[12.268687400000001,51.3453371],[12.2689909,51.345311800000005],[12.2688933,51.3448526],[12.268223800000001,51.3449084],[12.2682745,51.3451473],[12.2681717,51.3451558],[12.2681862,51.345224],[12.2682237,51.3454004]]]}},{"type":"Feature","properties":{"roof:shape":"flat","building:levels":"1","id":"80506172","version":"2","building":"yes","changeSetId":"0","timestamp":"1354280913000","height":"4"},"geometry":{"type":"Polygon","coordinates":[[[12.264834400000002,51.3455615],[12.2656019,51.3454933],[12.2655651,51.3453339],[12.265469300000001,51.3452873],[12.265295100000001,51.345302700000005],[12.265221200000001,51.345364000000004],[12.2647978,51.3454015],[12.264834400000002,51.3455615]]]}},{"type":"Feature","properties":{"roof:shape":"flat","building:levels":"1","id":"80506175","version":"2","building":"yes","changeSetId":"0","timestamp":"1354280913000","height":"4"},"geometry":{"type":"Polygon","coordinates":[[[12.265580600000002,51.345598700000004],[12.265610800000001,51.3457324],[12.2647562,51.345809800000005],[12.264725,51.3456756],[12.265580600000002,51.345598700000004]]]}},{"type":"Feature","properties":{"website":"http://www.reno.de/","shop":"shoes","addr:country":"DE","roof:shape":"flat","name":"Reno","building:levels":"1","id":"80506177","version":"3","building":"yes","changeSetId":"0","timestamp":"1380395851000","height":"4"},"geometry":{"type":"Polygon","coordinates":[[[12.2645809,51.345685100000004],[12.264612900000001,51.3458191],[12.2637596,51.3458965],[12.263727800000002,51.3457628],[12.2645809,51.345685100000004]]]}},{"type":"Feature","properties":{"shop":"car_repair","roof:shape":"flat","name":"ATU","building:levels":"1","id":"80506178","version":"4","building":"yes","changeSetId":"0","timestamp":"1354280913000","height":"4"},"geometry":{"type":"Polygon","coordinates":[[[12.264508000000001,51.3455821],[12.264463300000001,51.345386600000005],[12.264123300000001,51.3454172],[12.264114300000001,51.345378100000005],[12.263815200000002,51.3454053],[12.2638692,51.3456399],[12.264508000000001,51.3455821]]]}},{"type":"Feature","properties":{"roof:shape":"flat","building:levels":"1","id":"80506181","version":"5","building":"yes","changeSetId":"0","timestamp":"1354280913000","height":"4"},"geometry":{"type":"Polygon","coordinates":[[[12.2666322,51.3453962],[12.2658614,51.3454648],[12.265822700000001,51.3452957],[12.2658971,51.345233],[12.266585000000001,51.345172500000004],[12.2666322,51.3453962]]]}},{"type":"Feature","properties":{"id":"80506182","version":"2","building":"yes","changeSetId":"0","timestamp":"1384785360000"},"geometry":{"type":"Polygon","coordinates":[[[12.2893469,51.344497800000006],[12.2887435,51.3445454],[12.2886919,51.344290400000006],[12.2886609,51.3441375],[12.289264300000001,51.3440899],[12.2893469,51.344497800000006]]]}},{"type":"Feature","properties":{"roof:shape":"flat","building:levels":"1","id":"80506188","version":"3","building":"yes","changeSetId":"0","timestamp":"1354280913000","height":"4"},"geometry":{"type":"Polygon","coordinates":[[[12.266672900000001,51.345678400000004],[12.266605,51.345683900000004],[12.2665687,51.345666900000005],[12.266565,51.3456509],[12.265827600000001,51.3457172],[12.265795200000001,51.345575100000005],[12.2666312,51.3455005],[12.266672900000001,51.345678400000004]]]}},{"type":"Feature","properties":{"roof:shape":"flat","building:levels":"1","id":"80506202","version":"2","building":"yes","changeSetId":"0","timestamp":"1354280913000","height":"4"},"geometry":{"type":"Polygon","coordinates":[[[12.267713800000001,51.345279100000006],[12.2676446,51.344964000000004],[12.2671998,51.345006500000004],[12.267214800000001,51.345094800000005],[12.2670464,51.3451083],[12.266894,51.3452344],[12.266920200000001,51.3453509],[12.267713800000001,51.345279100000006]]]}},{"type":"Feature","properties":{"id":"84690393","source":"Yahoo","version":"1","building":"yes","changeSetId":"0","timestamp":"1289339202000"},"geometry":{"type":"Polygon","coordinates":[[[12.256097200000001,51.3462125],[12.256791300000001,51.3461495],[12.2567801,51.346101100000006],[12.256086000000002,51.346164],[12.256097200000001,51.3462125]]]}},{"type":"Feature","properties":{"id":"84837370","source":"Yahoo","version":"2","building":"yes","changeSetId":"0","timestamp":"1291647487000"},"geometry":{"type":"Polygon","coordinates":[[[12.2652365,51.34510220000001],[12.265319600000002,51.3451426],[12.265424000000001,51.345134200000004],[12.2654663,51.3451001],[12.2654948,51.345113700000006],[12.2656133,51.3451041],[12.2656337,51.345085600000004],[12.265690300000001,51.345112900000004],[12.2657944,51.3451047],[12.2658591,51.345052800000005],[12.2658459,51.3449874],[12.265763000000002,51.344947000000005],[12.2656585,51.3449552],[12.265614800000002,51.3449904],[12.2655879,51.344975500000004],[12.265468700000001,51.344985300000005],[12.265446500000001,51.345003000000005],[12.265392,51.3449766],[12.265287500000001,51.3449849],[12.2652228,51.345037100000006],[12.2652365,51.34510220000001]]]}},{"type":"Feature","properties":{"roof:shape":"flat","building:levels":"1","id":"85817220","source":"Yahoo","version":"4","building":"yes","changeSetId":"0","timestamp":"1354280915000","height":"4"},"geometry":{"type":"Polygon","coordinates":[[[12.2641557,51.344872800000005],[12.2648376,51.3448106],[12.2647878,51.344597400000005],[12.2641059,51.3446596],[12.2641557,51.344872800000005]]]}},{"type":"Feature","properties":{"roof:shape":"flat","building:levels":"1","id":"85818294","source":"Yahoo","version":"3","building":"yes","changeSetId":"0","timestamp":"1354280915000","height":"4"},"geometry":{"type":"Polygon","coordinates":[[[12.2651032,51.344492],[12.265152200000001,51.3447055],[12.265237500000001,51.344697800000006],[12.2652414,51.344716000000005],[12.2657527,51.344669700000004],[12.2657485,51.344652],[12.2658337,51.344644300000006],[12.2657849,51.3444311],[12.2651032,51.344492]]]}},{"type":"Feature","properties":{"roof:shape":"flat","building:levels":"1","id":"85818565","source":"Yahoo","version":"3","building":"yes","changeSetId":"0","timestamp":"1354280912000","height":"4"},"geometry":{"type":"Polygon","coordinates":[[[12.2668265,51.3443363],[12.2660581,51.3444057],[12.2661256,51.3446969],[12.2662957,51.3446815],[12.2662901,51.3446572],[12.2666316,51.3446263],[12.2666372,51.3446507],[12.2667281,51.344642500000006],[12.2667227,51.344619300000005],[12.266888600000001,51.3446043],[12.2668265,51.3443363]]]}},{"type":"Feature","properties":{"building:part":"yes","roof:shape":"flat","building:levels":"1","id":"85818745","source":"Yahoo","version":"2","building":"yes","changeSetId":"0","timestamp":"1354280914000","height":"4"},"geometry":{"type":"Polygon","coordinates":[[[12.267847000000002,51.344259400000006],[12.2671474,51.3443223],[12.2672231,51.3446225],[12.267325300000001,51.3446135],[12.2673188,51.344584000000005],[12.2675534,51.344564600000005],[12.267561500000001,51.3445898],[12.267589000000001,51.3445867],[12.2676528,51.344615100000006],[12.267927100000001,51.3445917],[12.267897300000001,51.3444682],[12.267847000000002,51.344259400000006]]]}},{"type":"Feature","properties":{"website":"http://www.multipolster.de/","shop":"furniture","addr:country":"DE","name":"Multipolster","id":"88219791","version":"4","building":"yes","changeSetId":"0","timestamp":"1380395168000"},"geometry":{"type":"Polygon","coordinates":[[[12.2741278,51.344951800000004],[12.2744815,51.3449181],[12.2743566,51.3443814],[12.2732618,51.344479500000006],[12.2732747,51.344535400000005],[12.273372700000001,51.3445814],[12.2735213,51.344567700000006],[12.2735473,51.34467840000001],[12.273632500000001,51.344670300000004],[12.2741158,51.3448968],[12.2741278,51.344951800000004]]]}},{"type":"Feature","properties":{"website":"http://www.toyota-partner.de/saxe-leipzig/8181/8181/8181/home.html","shop":"car","addr:country":"DE","version":"5","building":"yes","operator":"Auto Weller GmbH & Co. KG","addr:city":"Leipzig","addr:housenumber":"59","name":"Autohaus Saxe","id":"88219803","addr:street":"Sandberg","brand":"Toyota;Lexus","changeSetId":"0","timestamp":"1380710555000"},"geometry":{"type":"Polygon","coordinates":[[[12.262094800000002,51.346719],[12.2611868,51.3468001],[12.260966000000002,51.346696],[12.2608282,51.3468114],[12.2607037,51.3467533],[12.260003900000001,51.346816700000005],[12.2600949,51.347243000000006],[12.2609928,51.34716220000001],[12.2610109,51.347246600000005],[12.261119800000001,51.3472378],[12.2611769,51.3474869],[12.262087800000002,51.347405200000004],[12.2621932,51.3474553],[12.262261400000002,51.347398000000005],[12.262147700000002,51.3473447],[12.262224600000001,51.3472804],[12.262094800000002,51.346719]]]}},{"type":"Feature","properties":{"roof:shape":"flat","building:levels":"1","id":"88220300","version":"2","building":"yes","changeSetId":"0","timestamp":"1354280914000","height":"4"},"geometry":{"type":"Polygon","coordinates":[[[12.2667938,51.3454856],[12.267650900000001,51.345409100000005],[12.267683300000002,51.3455506],[12.266946200000001,51.3456167],[12.2669498,51.3456325],[12.266922600000001,51.345655300000004],[12.266835500000001,51.3456635],[12.2667938,51.3454856]]]}},{"type":"Feature","properties":{"min_height":"3.5","building:part":"yes","roof:shape":"flat","building:levels":"1","id":"88220306","version":"3","building":"yes","changeSetId":"0","timestamp":"1354280914000","height":"4"},"geometry":{"type":"Polygon","coordinates":[[[12.266835500000001,51.3456635],[12.2667529,51.345671100000004],[12.266672900000001,51.345678400000004],[12.2666312,51.3455005],[12.266711500000001,51.3454932],[12.2667938,51.3454856],[12.266835500000001,51.3456635]]]}},{"type":"Feature","properties":{"area":"yes","source:ref":"survey","ref":"1009","source:name":"survey","name":"Rückmarsdorf, Bürgeramt","id":"90952137","public_transport":"platform","version":"1","building":"yes","changeSetId":"0","timestamp":"1292980989000","network":"MDV"},"geometry":{"type":"Polygon","coordinates":[[[12.2579831,51.346582700000006],[12.258140500000001,51.3465513],[12.258134,51.3465385],[12.258127400000001,51.3465256],[12.257965100000002,51.346559600000006],[12.2578525,51.34657],[12.257855600000001,51.3465834],[12.2578587,51.346596700000006],[12.2579831,51.346582700000006]]]}},{"type":"Feature","properties":{"area":"yes","source:ref":"survey","bus":"yes","source:name":"survey","shelter":"yes","bin":"yes","public_transport":"platform","version":"2","seats":"3","building":"yes","network":"MDV","ref":"1009","name":"Rückmarsdorf, Bürgeramt","id":"90952178","highway":"bus_stop","changeSetId":"0","timestamp":"1331478634000"},"geometry":{"type":"Polygon","coordinates":[[[12.258741700000002,51.346519900000004],[12.2589643,51.3465002],[12.258961300000001,51.3464869],[12.258958300000002,51.3464735],[12.2587405,51.3464928],[12.2584616,51.346477300000004],[12.258238,51.34649700000001],[12.2582415,51.346512600000004],[12.2582451,51.3465282],[12.258488000000002,51.346506700000006],[12.258741700000002,51.346519900000004]]]}},{"type":"Feature","properties":{"wheelchair":"yes","amenity":"fast_food","addr:country":"DE","cuisine":"burger","source":"Bing","version":"2","addr:postcode":"04178","building":"yes","addr:city":"Leipzig","addr:housenumber":"13","name":"McDonald's","id":"99353921","addr:street":"Miltitzerstraße","changeSetId":"0","timestamp":"1380007515000"},"geometry":{"type":"Polygon","coordinates":[[[12.263014100000001,51.347302600000006],[12.263296100000002,51.347298300000006],[12.263283300000001,51.3469721],[12.2630013,51.3469764],[12.263014100000001,51.347302600000006]]]}},{"type":"Feature","properties":{"addr:housenumber":"264","addr:country":"DE","id":"99353929","addr:street":"Merseburger Straße","version":"1","building":"yes","changeSetId":"0","timestamp":"1297525817000","addr:city":"Leipzig"},"geometry":{"type":"Polygon","coordinates":[[[12.2716911,51.345728300000005],[12.271713100000001,51.3458149],[12.2715309,51.345833000000006],[12.271508800000001,51.3457464],[12.2716911,51.345728300000005]]]}},{"type":"Feature","properties":{"id":"106529728","version":"1","building":"roof","changeSetId":"0","timestamp":"1301502452000"},"geometry":{"type":"Polygon","coordinates":[[[12.260936500000001,51.3461605],[12.2608829,51.3459203],[12.2610594,51.345905],[12.261113,51.3461452],[12.260936500000001,51.3461605]]]}},{"type":"Feature","properties":{"website":"http://www.auto-freydank.de/","shop":"car","addr:country":"DE","version":"3","building":"yes","operator":"Auto Freydank GmbH & Co. KG","addr:city":"Leipzig","addr:housenumber":"30","name":"Autohaus Freydank","id":"106529729","addr:street":"Sandberg","brand":"Mazda;Hyundai","changeSetId":"0","timestamp":"1380710555000"},"geometry":{"type":"Polygon","coordinates":[[[12.2617797,51.3458005],[12.2617074,51.345806200000006],[12.261703800000001,51.345788600000006],[12.261352800000001,51.345818300000005],[12.261311500000001,51.345628100000006],[12.2612982,51.3455668],[12.261821300000001,51.3455225],[12.2618346,51.3455839],[12.262174400000001,51.345555100000006],[12.262333,51.34554120000001],[12.262374600000001,51.345731400000005],[12.2622631,51.345775100000004],[12.262227000000001,51.3458039],[12.2623783,51.34587440000001],[12.262224300000002,51.3460034],[12.2620158,51.3459063],[12.2620094,51.3459118],[12.2619614,51.345953],[12.261799900000002,51.3458765],[12.2617797,51.3458005]]]}},{"type":"Feature","properties":{"amenity":"fuel","addr:country":"DE","name":"Total","id":"106529731","version":"2","brand":"Total","building":"yes","operator":"Total","changeSetId":"0","timestamp":"1380710556000","addr:city":"Leipzig"},"geometry":{"type":"Polygon","coordinates":[[[12.2607379,51.345933900000006],[12.2607154,51.345836600000005],[12.261098700000002,51.3458021],[12.261121200000002,51.3458994],[12.2610594,51.345905],[12.2608829,51.3459203],[12.2607379,51.345933900000006]]]}},{"type":"Feature","properties":{"website":"http://handel.suzuki.de/mueller/index.html","shop":"car","addr:country":"DE","version":"2","building":"yes","operator":"Siegfried Müller & Söhne OHG","addr:city":"Leipzig","addr:housenumber":"28a","name":"Suzuki Autohaus Müller","id":"106530580","addr:street":"Sandberg","brand":"Suzuki","changeSetId":"0","timestamp":"1380710556000"},"geometry":{"type":"Polygon","coordinates":[[[12.2601498,51.346079100000004],[12.26012,51.345935000000004],[12.2603197,51.3459188],[12.260268,51.3456685],[12.2605672,51.345644300000004],[12.260588700000001,51.345748300000004],[12.2605172,51.3457541],[12.2605772,51.3460447],[12.2601498,51.346079100000004]]]}},{"type":"Feature","properties":{"id":"108246980","version":"1","building":"yes","changeSetId":"0","timestamp":"1302633828000"},"geometry":{"type":"Polygon","coordinates":[[[12.2504693,51.346697500000005],[12.249967700000001,51.3466942],[12.250163500000001,51.3465585],[12.250134000000001,51.3465367],[12.250128700000001,51.346499800000004],[12.2499999,51.346478000000005],[12.2499838,51.346424400000004],[12.2505337,51.3462083],[12.2505605,51.346211700000005],[12.250557800000001,51.346273700000005],[12.2503942,51.3463373],[12.2504559,51.346401],[12.250345900000001,51.3464663],[12.2503647,51.3464881],[12.2503647,51.346519900000004],[12.250528300000001,51.3465518],[12.2504693,51.346697500000005]]]}},{"type":"Feature","properties":{"website":"http://www.hotel3linden.de/","addr:country":"DE","tourism":"hotel","version":"1","addr:postcode":"04178","building":"yes","addr:city":"Leipzig","addr:housenumber":"11","name":"Drei Linden","id":"108246981","addr:street":"Kastanienweg","changeSetId":"0","timestamp":"1302633828000"},"geometry":{"type":"Polygon","coordinates":[[[12.272404400000001,51.34485110000001],[12.2723423,51.344856400000005],[12.272324000000001,51.344785800000004],[12.272251500000001,51.3447455],[12.2724259,51.344591400000006],[12.272670000000002,51.344708700000005],[12.2726056,51.3447606],[12.272615400000001,51.3448037],[12.2725541,51.344810300000006],[12.2725603,51.3448373],[12.272643100000002,51.3448293],[12.272704800000001,51.3451007],[12.2724712,51.3451218],[12.272404400000001,51.34485110000001]]]}},{"type":"Feature","properties":{"id":"131399677","version":"2","building":"yes","changeSetId":"0","timestamp":"1366324864000"},"geometry":{"type":"Polygon","coordinates":[[[12.2641334,51.357275300000005],[12.264428500000001,51.3573389],[12.2644392,51.357315500000006],[12.264868400000001,51.3574126],[12.264932700000001,51.357295400000005],[12.264246100000001,51.3571547],[12.2641334,51.357275300000005]]]}},{"type":"Feature","properties":{"website":"www.kurhaus-bienitz.de","amenity":"restaurant","name":"Kurhaus Bienitz","id":"132668405","version":"3","building":"yes","changeSetId":"0","timestamp":"1373932046000"},"geometry":{"type":"Polygon","coordinates":[[[12.252312300000002,51.3523555],[12.252342500000001,51.3523282],[12.2523057,51.3523123],[12.2523253,51.352294500000006],[12.2523472,51.352304000000004],[12.2524242,51.3522344],[12.2525268,51.3522788],[12.252521100000001,51.3522839],[12.252567800000001,51.352304000000004],[12.2526028,51.352272400000004],[12.2526858,51.3523082],[12.2526629,51.3523289],[12.252697900000001,51.352344],[12.2526138,51.3524199],[12.2525764,51.3524037],[12.252527,51.352448300000006],[12.252312300000002,51.3523555]]]}},{"type":"Feature","properties":{"id":"135522588","version":"1","building":"yes","changeSetId":"0","timestamp":"1320151702000"},"geometry":{"type":"Polygon","coordinates":[[[12.2528745,51.3395135],[12.252999800000001,51.3394241],[12.2528799,51.3393585],[12.2527545,51.3394478],[12.2528745,51.3395135]]]}},{"type":"Feature","properties":{"id":"135522589","version":"1","building":"yes","changeSetId":"0","timestamp":"1320151702000"},"geometry":{"type":"Polygon","coordinates":[[[12.2532317,51.339268800000006],[12.253399900000002,51.3391559],[12.2532952,51.3390951],[12.2531271,51.339207900000005],[12.2532317,51.339268800000006]]]}},{"type":"Feature","properties":{"image":"https://commons.wikimedia.org/wiki/File%3ARueckmarsdorf_Wasserturm.jpg","website":"http://www.wasserturm-leipzig.de/html/rueckmars.htm","historic":"yes","man_made":"water_tower","addr:country":"DE","description":"Wasserturm in Leipzig-Rückmarsdorf","version":"3","building":"tower","addr:city":"Rückmarsdorf","name:de":"Wasserturm Rückmarsdorf","name":"Wasserturm Rückmarsdorf","name:en":"water tower Rückmarsdorf","id":"141139424","addr:street":"Wachberg","changeSetId":"0","timestamp":"1387735720000","height":"23","start_date":"1915"},"geometry":{"type":"Polygon","coordinates":[[[12.2550246,51.342178200000006],[12.2549956,51.342172100000006],[12.2549796,51.3421631],[12.2549667,51.3421454],[12.2549673,51.342128800000005],[12.254981500000001,51.3421115],[12.254999900000001,51.3421024],[12.255025300000002,51.342097800000005],[12.2550474,51.342099100000006],[12.255067200000001,51.3421049],[12.255086400000001,51.3421181],[12.2550948,51.3421371],[12.2550886,51.3421554],[12.255075300000001,51.342167],[12.255052000000001,51.342176],[12.2550246,51.342178200000006]]]}},{"type":"Feature","properties":{"id":"147881789","version":"1","building":"yes","changeSetId":"0","timestamp":"1327841755000"},"geometry":{"type":"Polygon","coordinates":[[[12.2945129,51.3412644],[12.2944747,51.3410997],[12.2936119,51.3411776],[12.293613200000001,51.3411831],[12.2932971,51.3412116],[12.293339000000001,51.3413928],[12.293655300000001,51.3413642],[12.2936502,51.3413423],[12.294041,51.341307],[12.2940546,51.341365800000005],[12.294066800000001,51.3414183],[12.2943162,51.3413958],[12.294304200000001,51.3413437],[12.294290400000001,51.3412845],[12.2945129,51.3412644]]]}},{"type":"Feature","properties":{"id":"147881833","version":"1","building":"yes","changeSetId":"0","timestamp":"1327841758000"},"geometry":{"type":"Polygon","coordinates":[[[12.290413800000001,51.343397800000005],[12.2902839,51.3428277],[12.2910316,51.342761200000005],[12.2911601,51.3433295],[12.291077300000001,51.343355200000005],[12.290973900000001,51.3433745],[12.2908778,51.34337420000001],[12.290782,51.343363200000006],[12.2906942,51.3433902],[12.290595900000001,51.34340460000001],[12.290502100000001,51.3434055],[12.290413800000001,51.343397800000005]]]}},{"type":"Feature","properties":{"id":"147881864","version":"1","building":"yes","changeSetId":"0","timestamp":"1327841762000"},"geometry":{"type":"Polygon","coordinates":[[[12.2929107,51.342173300000006],[12.292761800000001,51.3415388],[12.294066800000001,51.3414183],[12.2943162,51.3413958],[12.2959771,51.3412444],[12.296126000000001,51.341878900000005],[12.294277200000002,51.3420482],[12.2942753,51.34204020000001],[12.293780700000001,51.3420855],[12.2937826,51.342093500000004],[12.2929107,51.342173300000006]]]}},{"type":"Feature","properties":{"id":"161971377","version":"1","building":"yes","changeSetId":"0","timestamp":"1336052434000"},"geometry":{"type":"Polygon","coordinates":[[[12.2965227,51.341916000000005],[12.2967788,51.341892400000006],[12.2967534,51.3417735],[12.2965093,51.3418707],[12.2965227,51.341916000000005]]]}},{"type":"Feature","properties":{"id":"161971378","version":"1","building":"yes","changeSetId":"0","timestamp":"1336052434000"},"geometry":{"type":"Polygon","coordinates":[[[12.2968714,51.34178360000001],[12.2970377,51.3417115],[12.297255000000002,51.341579200000005],[12.2972067,51.341545700000005],[12.296996,51.341672900000006],[12.2968285,51.3417551],[12.2968714,51.34178360000001]]]}},{"type":"Feature","properties":{"id":"164473255","version":"1","building":"yes","changeSetId":"0","timestamp":"1337618537000"},"geometry":{"type":"Polygon","coordinates":[[[12.252545900000001,51.3535112],[12.252386900000001,51.353440000000006],[12.2524739,51.353363200000004],[12.2526329,51.353434400000005],[12.252545900000001,51.3535112]]]}},{"type":"Feature","properties":{"id":"164473256","version":"1","building":"yes","changeSetId":"0","timestamp":"1337618537000"},"geometry":{"type":"Polygon","coordinates":[[[12.2532388,51.353417500000006],[12.2530289,51.3533313],[12.2531189,51.3532452],[12.2533288,51.3533332],[12.2532388,51.353417500000006]]]}},{"type":"Feature","properties":{"id":"200409837","version":"1","building":"roof","changeSetId":"0","timestamp":"1357814149000"},"geometry":{"type":"Polygon","coordinates":[[[12.2822843,51.341705700000006],[12.2822584,51.341718],[12.2822423,51.3417289],[12.282376300000001,51.3418119],[12.2823895,51.341802200000004],[12.282409000000001,51.341787800000006],[12.2822843,51.341705700000006]]]}},{"type":"Feature","properties":{"id":"200409842","version":"1","building":"roof","changeSetId":"0","timestamp":"1357814149000"},"geometry":{"type":"Polygon","coordinates":[[[12.2824544,51.3416039],[12.2824086,51.341630900000006],[12.2825418,51.341714100000004],[12.282573300000001,51.3416963],[12.282591100000001,51.341684400000005],[12.2824544,51.3416039]]]}},{"type":"Feature","properties":{"id":"206903111","version":"2","building":"yes","changeSetId":"0","timestamp":"1361656882000"},"geometry":{"type":"Polygon","coordinates":[[[12.281640900000001,51.340197800000006],[12.2818058,51.340197800000006],[12.2818059,51.340331600000006],[12.281648700000002,51.3403317],[12.281648700000002,51.3402849],[12.2816053,51.3402849],[12.281605200000001,51.340206300000006],[12.281640900000001,51.340206300000006],[12.281640900000001,51.340197800000006]]]}},{"type":"Feature","properties":{"id":"206903112","version":"2","building":"yes","changeSetId":"0","timestamp":"1361656888000"},"geometry":{"type":"Polygon","coordinates":[[[12.281141700000001,51.339308],[12.281741100000001,51.339255200000004],[12.2817921,51.339466300000005],[12.281191300000001,51.3395183],[12.281141700000001,51.339308]]]}},{"type":"Feature","properties":{"id":"206903113","version":"2","building":"yes","changeSetId":"0","timestamp":"1361656876000"},"geometry":{"type":"Polygon","coordinates":[[[12.2816717,51.3411277],[12.281741100000001,51.3410814],[12.2817748,51.3411011],[12.281758600000002,51.3411119],[12.2818292,51.3411531],[12.281776,51.341188700000004],[12.2816717,51.3411277]]]}},{"type":"Feature","properties":{"id":"206903114","version":"2","building":"yes","changeSetId":"0","timestamp":"1361656880000"},"geometry":{"type":"Polygon","coordinates":[[[12.2806589,51.3399531],[12.2810249,51.339955100000005],[12.2810196,51.340122300000004],[12.2807326,51.3401215],[12.2806589,51.340082100000004],[12.2806589,51.3399531]]]}},{"type":"Feature","properties":{"id":"206903115","version":"2","building":"yes","changeSetId":"0","timestamp":"1366324864000"},"geometry":{"type":"Polygon","coordinates":[[[12.280138500000001,51.339275300000004],[12.2801117,51.33917640000001],[12.281539800000001,51.339043600000004],[12.281562800000001,51.339142900000006],[12.280138500000001,51.339275300000004]]]}},{"type":"Feature","properties":{"id":"206903116","version":"2","building":"yes","changeSetId":"0","timestamp":"1361656885000"},"geometry":{"type":"Polygon","coordinates":[[[12.2803222,51.3396758],[12.2807873,51.3396314],[12.2807353,51.339392600000004],[12.280548900000001,51.3394102],[12.280548900000001,51.339426100000004],[12.2802713,51.3394546],[12.2803222,51.3396758]]]}},{"type":"Feature","properties":{"id":"206903117","version":"2","building":"yes","changeSetId":"0","timestamp":"1361656872000"},"geometry":{"type":"Polygon","coordinates":[[[12.2820044,51.341776900000006],[12.282007400000001,51.34166140000001],[12.2821113,51.341662400000004],[12.282109100000001,51.341745],[12.2820736,51.341744600000006],[12.2820728,51.3417776],[12.2820044,51.341776900000006]]]}},{"type":"Feature","properties":{"id":"209788992","version":"1","building":"yes","changeSetId":"0","timestamp":"1363184433000"},"geometry":{"type":"Polygon","coordinates":[[[12.245111300000001,51.3564622],[12.24512,51.3564066],[12.245018400000001,51.356400400000005],[12.2450097,51.356456],[12.245111300000001,51.3564622]]]}},{"type":"Feature","properties":{"id":"238034760","source":"Bing","version":"1","building":"yes","changeSetId":"0","timestamp":"1379233079000"},"geometry":{"type":"Polygon","coordinates":[[[12.2847155,51.339452800000004],[12.284594700000001,51.3394661],[12.284636500000001,51.339614100000006],[12.2847573,51.33960080000001],[12.2847155,51.339452800000004]]]}},{"type":"Feature","properties":{"id":"240252089","version":"1","building":"yes","changeSetId":"0","timestamp":"1380710554000"},"geometry":{"type":"Polygon","coordinates":[[[12.2613236,51.345295],[12.2613,51.345192600000004],[12.2619904,51.3451303],[12.2619848,51.345106],[12.261918000000001,51.345080200000005],[12.262005700000001,51.3450003],[12.262072400000001,51.3450295],[12.2621511,51.345022400000005],[12.262109200000001,51.344841],[12.2623444,51.3448198],[12.2624101,51.3451043],[12.262269000000002,51.345117],[12.262311400000002,51.345300400000006],[12.261515900000001,51.345372100000006],[12.261494500000001,51.345279600000005],[12.2613236,51.345295]]]}},{"type":"Feature","properties":{"id":"240252090","version":"1","building":"yes","changeSetId":"0","timestamp":"1380710555000"},"geometry":{"type":"Polygon","coordinates":[[[12.2607566,51.345694800000004],[12.2609939,51.345672500000006],[12.2609691,51.3455693],[12.2607318,51.345591600000006],[12.2607566,51.345694800000004]]]}},{"type":"Feature","properties":{"id":"240252240","version":"1","building":"yes","changeSetId":"0","timestamp":"1380710673000"},"geometry":{"type":"Polygon","coordinates":[[[12.2582146,51.346336300000004],[12.2584324,51.3463142],[12.258420500000001,51.34626840000001],[12.258396300000001,51.346270800000006],[12.2583748,51.3461883],[12.2584107,51.3461846],[12.2583997,51.346142400000005],[12.2582009,51.34616260000001],[12.2582328,51.346285300000005],[12.2582021,51.346288400000006],[12.2582146,51.346336300000004]]]}},{"type":"Feature","properties":{"id":"240252241","version":"1","building":"yes","changeSetId":"0","timestamp":"1380710673000"},"geometry":{"type":"Polygon","coordinates":[[[12.258617300000001,51.346360600000004],[12.2585668,51.346118000000004],[12.2587434,51.3461037],[12.258768400000001,51.34622400000001],[12.258859800000002,51.346216500000004],[12.2588852,51.346338800000005],[12.258617300000001,51.346360600000004]]]}},{"type":"Feature","properties":{"id":"246624818","source":"bing","version":"1","building":"yes","changeSetId":"0","timestamp":"1384693466000"},"geometry":{"type":"Polygon","coordinates":[[[12.274927100000001,51.3370948],[12.274989900000001,51.3370545],[12.2748866,51.3369918],[12.2748238,51.3370321],[12.274927100000001,51.3370948]]]}},{"type":"Feature","properties":{"id":"249674536","version":"1","building":"yes","changeSetId":"0","timestamp":"1386059884000"},"geometry":{"type":"Polygon","coordinates":[[[12.2630517,51.345772700000005],[12.2630134,51.3455972],[12.2631017,51.345589700000005],[12.2630782,51.345482100000005],[12.2634219,51.345452800000004],[12.263451700000001,51.3455895],[12.2634003,51.345593900000004],[12.2634322,51.3457402],[12.2630517,51.345772700000005]]]}}]}