{"type":"FeatureCollection","features":[{"type":"Feature","properties":{"website":"www.loewencenter.de","shop":"mall","name":"Löwencenter","id":"7973079","version":"21","building":"yes","changeSetId":"0","timestamp":"1389703541000"},"geometry":{"type":"Polygon","coordinates":[[[12.267240000000001,51.347373100000006],[12.2672574,51.3473659],[12.267244400000001,51.347353700000006],[12.267227,51.347360900000005],[12.267132700000001,51.347400300000004],[12.267098,51.3474147],[12.267038000000001,51.3474396],[12.2670206,51.3474468],[12.267033600000001,51.347459],[12.267051,51.3474518],[12.2670753,51.347474600000005],[12.2667342,51.3476081],[12.2660394,51.3475094],[12.266045700000001,51.347493400000005],[12.2660067,51.347487400000006],[12.265971700000001,51.34748200000001],[12.2659654,51.347498],[12.265895400000002,51.347489100000004],[12.265482400000002,51.3474337],[12.265490000000002,51.3474129],[12.2653677,51.3473953],[12.265059500000001,51.347351100000004],[12.2650518,51.347371900000006],[12.2646256,51.3473118],[12.2643369,51.3472707],[12.2643138,51.347337200000005],[12.264290800000001,51.3474036],[12.264267700000001,51.3474701],[12.264244600000001,51.347536500000004],[12.2642216,51.34760300000001],[12.264198500000001,51.3476694],[12.264175400000001,51.3477359],[12.264152300000001,51.347802300000005],[12.2641293,51.3478688],[12.2641062,51.3479352],[12.264387500000002,51.3479753],[12.265798,51.3481765],[12.267058800000001,51.348354900000004],[12.267076600000001,51.348306],[12.2674626,51.34836060000001],[12.267641000000001,51.348385900000004],[12.2676569,51.3483421],[12.268070600000001,51.348400600000005],[12.2682163,51.3484217],[12.268264,51.348288000000004],[12.268343100000001,51.34829920000001],[12.2685451,51.3483315],[12.2686489,51.3480367],[12.2686831,51.347939600000004],[12.2687518,51.3477449],[12.268777100000001,51.347673],[12.269057100000001,51.347712800000004],[12.269111500000001,51.3475576],[12.269161100000002,51.347416200000005],[12.269184000000001,51.347351],[12.2684951,51.347256300000005],[12.2681988,51.3472142],[12.2682295,51.347124900000004],[12.267739,51.347053800000005],[12.267642200000001,51.347090900000005],[12.2675815,51.347266100000006],[12.267491000000001,51.3473034],[12.267407700000001,51.347337700000004],[12.2672646,51.347396100000005],[12.267240000000001,51.347373100000006]]]}},{"type":"Feature","properties":{"website":"http://www.burgerking.de/","amenity":"fast_food","addr:country":"DE","version":"9","addr:postcode":"04178","building":"yes","addr:city":"Leipzig","addr:housenumber":"263","name":"Burger King","opening_hours":"Mo-Fr 00:00-01:00,08:00-24:00; Sa,Su 00:00-04:00,08:00-24:00","id":"35241099","addr:street":"Merseburger Straße","changeSetId":"0","timestamp":"1403293492000"},"geometry":{"type":"Polygon","coordinates":[[[12.263171000000002,51.3459353],[12.2631727,51.3459432],[12.2632461,51.345937000000006],[12.263244400000001,51.345929100000006],[12.263369500000001,51.3459185],[12.263344400000001,51.3458027],[12.262966700000002,51.345834700000005],[12.2629918,51.3459505],[12.263171000000002,51.3459353]]]}},{"type":"Feature","properties":{"website":"http://www.euroeddy-leipzig.de/","addr:housename":"EuroEddy´s FamilyFunCenter","addr:housenumber":"1","addr:country":"DE","id":"46648943","addr:street":"Kastanienweg","version":"5","addr:postcode":"04178","building":"yes","changeSetId":"0","timestamp":"1444584873000","addr:city":"Leipzig"},"geometry":{"type":"Polygon","coordinates":[[[12.2682237,51.3454004],[12.2686925,51.3453613],[12.268687400000001,51.3453371],[12.2689909,51.345311800000005],[12.2688933,51.3448526],[12.268223800000001,51.3449084],[12.2682745,51.3451473],[12.2681717,51.3451558],[12.2681862,51.345224],[12.2682237,51.3454004]]]}},{"type":"Feature","properties":{"roof:shape":"flat","roof:colour":"lightgray","building:levels":"1","id":"80506172","building:colour":"white","version":"4","building":"yes","changeSetId":"0","timestamp":"1389773668000","height":"5"},"geometry":{"type":"Polygon","coordinates":[[[12.2648358,51.3455651],[12.2656033,51.3454969],[12.2655665,51.34533750000001],[12.265470700000002,51.3452909],[12.2653852,51.345298500000006],[12.265296500000002,51.345306300000004],[12.265222600000001,51.3453676],[12.2647992,51.3454051],[12.2648358,51.3455651]]]}},{"type":"Feature","properties":{"id":"80506175","version":"3","building":"yes","changeSetId":"0","timestamp":"1389687600000"},"geometry":{"type":"Polygon","coordinates":[[[12.2653023,51.345765300000004],[12.2653058,51.3457809],[12.2652791,51.3457833],[12.2652485,51.345786000000004],[12.265221200000001,51.345788500000005],[12.2651927,51.345791000000006],[12.2651891,51.3457754],[12.264767,51.3458131],[12.264736300000001,51.345679200000006],[12.265591500000001,51.3456027],[12.265622200000001,51.3457367],[12.2653023,51.345765300000004]]]}},{"type":"Feature","properties":{"website":"http://www.reno.de/","addr:housenumber":"261","shop":"shoes","addr:country":"DE","name":"Reno","id":"80506177","addr:street":"Merseburger Straße","version":"5","building":"yes","changeSetId":"0","timestamp":"1433875260000","addr:city":"Leipzig"},"geometry":{"type":"Polygon","coordinates":[[[12.2645917,51.3456896],[12.2646233,51.345823700000004],[12.2642012,51.3458625],[12.264204900000001,51.3458783],[12.264148,51.3458836],[12.264092600000001,51.3458886],[12.2640889,51.3458728],[12.263770300000001,51.3459021],[12.263738700000001,51.34576800000001],[12.2645917,51.3456896]]]}},{"type":"Feature","properties":{"shop":"car_repair","roof:shape":"flat","addr:country":"DE","roof:colour":"lightgray","building:levels":"1","version":"7","building":"yes","operator":"A.T.U Auto-Teile-Unger GmbH & Co. KG","addr:city":"Leipzig","name":"A.T.U","id":"80506178","addr:street":"Großer Marktweg","building:colour":"white","name_short":"ATU","changeSetId":"0","timestamp":"1416423036000","height":"5"},"geometry":{"type":"Polygon","coordinates":[[[12.264518,51.3455919],[12.2644733,51.345396400000006],[12.264133300000001,51.345427],[12.2641243,51.345387900000006],[12.264019900000001,51.3453974],[12.263825200000001,51.345415100000004],[12.263879200000002,51.3456497],[12.264518,51.3455919]]]}},{"type":"Feature","properties":{"roof:shape":"flat","roof:colour":"lightgray","building:levels":"1","id":"80506181","building:colour":"white","version":"7","building":"yes","changeSetId":"0","timestamp":"1389773668000","height":"5"},"geometry":{"type":"Polygon","coordinates":[[[12.266645,51.345407800000004],[12.2658742,51.3454764],[12.265835500000001,51.3453073],[12.2659099,51.3452446],[12.266040400000001,51.3452331],[12.2665781,51.3451858],[12.266597800000001,51.345184100000004],[12.266645,51.345407800000004]]]}},{"type":"Feature","properties":{"id":"80506182","version":"2","building":"yes","changeSetId":"0","timestamp":"1384785360000"},"geometry":{"type":"Polygon","coordinates":[[[12.2893469,51.344497800000006],[12.2887435,51.3445454],[12.2886919,51.344290400000006],[12.2886609,51.3441375],[12.289264300000001,51.3440899],[12.2893469,51.344497800000006]]]}},{"type":"Feature","properties":{"roof:shape":"flat","roof:colour":"lightgray","building:levels":"1","id":"80506188","building:colour":"white","version":"6","building":"yes","changeSetId":"0","timestamp":"1389773669000","height":"5"},"geometry":{"type":"Polygon","coordinates":[[[12.266672900000001,51.345678400000004],[12.266605,51.345683900000004],[12.2665687,51.345666900000005],[12.266565,51.3456509],[12.266139800000001,51.3456891],[12.265827600000001,51.3457172],[12.265795200000001,51.345575100000005],[12.2666312,51.3455005],[12.266672900000001,51.345678400000004]]]}},{"type":"Feature","properties":{"roof:shape":"flat","roof:colour":"lightgray","building:levels":"1","id":"80506202","building:colour":"white","version":"4","building":"yes","changeSetId":"0","timestamp":"1389773669000","height":"5"},"geometry":{"type":"Polygon","coordinates":[[[12.267718100000002,51.3452951],[12.267648900000001,51.34498000000001],[12.2672041,51.345022500000006],[12.267206700000001,51.345038100000004],[12.2672191,51.3451108],[12.2670507,51.3451243],[12.266898300000001,51.345250400000005],[12.2669245,51.3453669],[12.267718100000002,51.3452951]]]}},{"type":"Feature","properties":{"id":"84690393","source":"Yahoo","version":"1","building":"yes","changeSetId":"0","timestamp":"1289339202000"},"geometry":{"type":"Polygon","coordinates":[[[12.256097200000001,51.3462125],[12.256791300000001,51.3461495],[12.2567801,51.346101100000006],[12.256086000000002,51.346164],[12.256097200000001,51.3462125]]]}},{"type":"Feature","properties":{"id":"84837370","version":"4","building":"yes","changeSetId":"0","timestamp":"1389688868000"},"geometry":{"type":"Polygon","coordinates":[[[12.265253600000001,51.3451144],[12.265336900000001,51.3451547],[12.2654422,51.3451462],[12.265484500000001,51.3451121],[12.265513,51.345125700000004],[12.265631500000001,51.345116100000006],[12.265652000000001,51.3450974],[12.2657082,51.345124600000005],[12.265812500000001,51.3451164],[12.2658772,51.34506450000001],[12.265864,51.3449989],[12.2657808,51.344958600000005],[12.265676500000001,51.3449668],[12.2656325,51.3450021],[12.265606100000001,51.3449875],[12.2654869,51.3449973],[12.2654647,51.345015000000004],[12.265409400000001,51.3449888],[12.2653057,51.344996900000005],[12.265240400000001,51.3450488],[12.265253600000001,51.3451144]]]}},{"type":"Feature","properties":{"roof:shape":"flat","roof:colour":"lightgray","building:levels":"1","id":"85817220","source":"Bing","building:colour":"white","version":"7","building":"yes","changeSetId":"0","timestamp":"1420437406000","height":"5"},"geometry":{"type":"Polygon","coordinates":[[[12.264162800000001,51.3448822],[12.2645496,51.3448469],[12.2646498,51.3448378],[12.264844700000001,51.344820000000006],[12.2647949,51.3446068],[12.264113,51.344669],[12.264162800000001,51.3448822]]]}},{"type":"Feature","properties":{"roof:shape":"flat","roof:colour":"lightgray","building:levels":"1","id":"85818294","building:colour":"white","version":"5","building":"yes","changeSetId":"0","timestamp":"1389773669000","height":"5"},"geometry":{"type":"Polygon","coordinates":[[[12.2651289,51.3445071],[12.265177900000001,51.3447206],[12.265263200000001,51.344712900000005],[12.2652671,51.344731100000004],[12.2655332,51.344707],[12.2657784,51.3446848],[12.265774200000001,51.3446671],[12.2658594,51.344659400000005],[12.2658106,51.3444462],[12.2651289,51.3445071]]]}},{"type":"Feature","properties":{"roof:shape":"flat","roof:colour":"lightgray","building:levels":"1","id":"85818565","source":"Bing","building:colour":"white","version":"6","building":"yes","changeSetId":"0","timestamp":"1420437405000","height":"5"},"geometry":{"type":"Polygon","coordinates":[[[12.2668479,51.34434340000001],[12.2660795,51.3444128],[12.266147,51.344704],[12.26628,51.344692],[12.2663171,51.344688600000005],[12.2663115,51.344664300000005],[12.266653000000002,51.344633400000006],[12.266658600000001,51.3446578],[12.2667037,51.3446537],[12.266749500000001,51.344649600000004],[12.2667441,51.3446264],[12.266910000000001,51.344611400000005],[12.2668479,51.34434340000001]]]}},{"type":"Feature","properties":{"building:part":"yes","roof:shape":"flat","roof:colour":"lightgray","building:levels":"1","id":"85818745","source":"Bing","building:colour":"white","version":"5","building":"yes","changeSetId":"0","timestamp":"1420437406000","height":"5"},"geometry":{"type":"Polygon","coordinates":[[[12.2678627,51.3442701],[12.267163100000001,51.344333000000006],[12.267238800000001,51.344633200000004],[12.2672942,51.344628300000004],[12.267341,51.344624200000005],[12.2673345,51.3445947],[12.2675731,51.3445753],[12.2675754,51.344589400000004],[12.267577200000002,51.344600500000006],[12.267604700000001,51.344597400000005],[12.267668500000001,51.3446258],[12.2679428,51.34460240000001],[12.267913,51.344478900000006],[12.2678627,51.3442701]]]}},{"type":"Feature","properties":{"website":"http://www.multipolster.de/","shop":"furniture","addr:country":"DE","name":"Multipolster","id":"88219791","version":"4","building":"yes","changeSetId":"0","timestamp":"1380395168000"},"geometry":{"type":"Polygon","coordinates":[[[12.2741278,51.344951800000004],[12.2744815,51.3449181],[12.2743566,51.3443814],[12.2732618,51.344479500000006],[12.2732747,51.344535400000005],[12.273372700000001,51.3445814],[12.2735213,51.344567700000006],[12.2735473,51.34467840000001],[12.273632500000001,51.344670300000004],[12.2741158,51.3448968],[12.2741278,51.344951800000004]]]}},{"type":"Feature","properties":{"website":"http://www.toyota-partner.de/saxe-leipzig/8181/8181/8181/home.html","shop":"car","addr:country":"DE","version":"7","building":"yes","operator":"Auto Weller GmbH & Co. KG","addr:city":"Leipzig","addr:housenumber":"59","name":"Autohaus Saxe","id":"88219803","addr:street":"Sandberg","brand":"Toyota;Lexus","changeSetId":"0","timestamp":"1389379090000"},"geometry":{"type":"Polygon","coordinates":[[[12.262094800000002,51.346719],[12.2611868,51.3468001],[12.260966000000002,51.346696],[12.260892700000001,51.3467574],[12.260821,51.3468165],[12.260693700000001,51.3467544],[12.260203200000001,51.3467987],[12.2601861,51.3467276],[12.2599885,51.3467464],[12.260003900000001,51.346816700000005],[12.2600949,51.347243000000006],[12.260674400000001,51.3471909],[12.2606882,51.3472595],[12.260838000000001,51.3472476],[12.2608238,51.34717740000001],[12.2609928,51.34716220000001],[12.2610109,51.347246600000005],[12.261036500000001,51.347245],[12.2611044,51.347539000000005],[12.262098100000001,51.347448],[12.2620871,51.347414900000004],[12.2621836,51.347461300000006],[12.262259100000001,51.347399900000006],[12.2621464,51.34734580000001],[12.2622137,51.3472896],[12.262224600000001,51.3472804],[12.262094800000002,51.346719]]]}},{"type":"Feature","properties":{"roof:shape":"flat","roof:colour":"lightgray","building:levels":"1","id":"88220300","building:colour":"white","version":"6","building":"yes","changeSetId":"0","timestamp":"1400434995000","height":"5"},"geometry":{"type":"Polygon","coordinates":[[[12.2667938,51.3454856],[12.267650900000001,51.345409100000005],[12.267683300000002,51.3455506],[12.266946200000001,51.3456167],[12.2669498,51.3456325],[12.266922600000001,51.345655300000004],[12.266835500000001,51.3456635],[12.2667938,51.3454856]]]}},{"type":"Feature","properties":{"min_height":"4.5","building:part":"yes","roof:shape":"flat","roof:colour":"lightgray","building:levels":"1","id":"88220306","building:colour":"white","version":"5","building":"yes","changeSetId":"0","timestamp":"1389687626000","height":"5"},"geometry":{"type":"Polygon","coordinates":[[[12.266835500000001,51.3456635],[12.2667529,51.345671100000004],[12.266672900000001,51.345678400000004],[12.2666312,51.3455005],[12.266711500000001,51.3454932],[12.2667938,51.3454856],[12.266835500000001,51.3456635]]]}},{"type":"Feature","properties":{"wheelchair":"yes","amenity":"fast_food","addr:country":"DE","cuisine":"burger","source":"Bing","version":"5","addr:postcode":"04178","building":"yes","addr:city":"Leipzig","addr:housenumber":"13","name":"McDonald's","id":"99353921","addr:street":"Miltitzer Straße","changeSetId":"0","timestamp":"1448567704000"},"geometry":{"type":"Polygon","coordinates":[[[12.263014100000001,51.347302600000006],[12.263296100000002,51.347298300000006],[12.263283300000001,51.3469721],[12.2630013,51.3469764],[12.263014100000001,51.347302600000006]]]}},{"type":"Feature","properties":{"addr:housenumber":"264","addr:country":"DE","id":"99353929","addr:street":"Merseburger Straße","version":"1","building":"yes","changeSetId":"0","timestamp":"1297525817000","addr:city":"Leipzig"},"geometry":{"type":"Polygon","coordinates":[[[12.2716911,51.345728300000005],[12.271713100000001,51.3458149],[12.2715309,51.345833000000006],[12.271508800000001,51.3457464],[12.2716911,51.345728300000005]]]}},{"type":"Feature","properties":{"website":"http://www.auto-freydank.de/","shop":"car","addr:country":"DE","version":"6","building":"yes","operator":"Auto Freydank GmbH & Co. KG","addr:city":"Leipzig","addr:housenumber":"30","name":"Autohaus Freydank","id":"106529729","addr:street":"Sandberg","brand":"Mazda;Hyundai","changeSetId":"0","timestamp":"1389353142000"},"geometry":{"type":"Polygon","coordinates":[[[12.2617797,51.3458005],[12.2617074,51.345806200000006],[12.261703800000001,51.3457884],[12.261353100000001,51.345818300000005],[12.261311500000001,51.3456284],[12.261298100000001,51.3455669],[12.2614196,51.3455566],[12.2618212,51.345522300000006],[12.2618346,51.345583700000006],[12.2621734,51.3455548],[12.262333,51.34554120000001],[12.2623557,51.345645000000005],[12.2623735,51.345652400000006],[12.262386000000001,51.34570900000001],[12.2623718,51.3457188],[12.262374600000001,51.345731400000005],[12.2622692,51.345770400000006],[12.262239300000001,51.345794700000006],[12.2622207,51.345809800000005],[12.262260900000001,51.345828600000004],[12.2623724,51.3458807],[12.262218,51.3460095],[12.2620103,51.3459124],[12.2619614,51.345953],[12.261799900000002,51.3458765],[12.2617797,51.3458005]]]}},{"type":"Feature","properties":{"website":"http://handel.suzuki.de/mueller/index.html","shop":"car","addr:country":"DE","version":"2","building":"yes","operator":"Siegfried Müller & Söhne OHG","addr:city":"Leipzig","addr:housenumber":"28a","name":"Suzuki Autohaus Müller","id":"106530580","addr:street":"Sandberg","brand":"Suzuki","changeSetId":"0","timestamp":"1380710556000"},"geometry":{"type":"Polygon","coordinates":[[[12.2601498,51.346079100000004],[12.26012,51.345935000000004],[12.2603197,51.3459188],[12.260268,51.3456685],[12.2605672,51.345644300000004],[12.260588700000001,51.345748300000004],[12.2605172,51.3457541],[12.2605772,51.3460447],[12.2601498,51.346079100000004]]]}},{"type":"Feature","properties":{"id":"108246980","version":"1","building":"yes","changeSetId":"0","timestamp":"1302633828000"},"geometry":{"type":"Polygon","coordinates":[[[12.2504693,51.346697500000005],[12.249967700000001,51.3466942],[12.250163500000001,51.3465585],[12.250134000000001,51.3465367],[12.250128700000001,51.346499800000004],[12.2499999,51.346478000000005],[12.2499838,51.346424400000004],[12.2505337,51.3462083],[12.2505605,51.346211700000005],[12.250557800000001,51.346273700000005],[12.2503942,51.3463373],[12.2504559,51.346401],[12.250345900000001,51.3464663],[12.2503647,51.3464881],[12.2503647,51.346519900000004],[12.250528300000001,51.3465518],[12.2504693,51.346697500000005]]]}},{"type":"Feature","properties":{"website":"http://www.hotel3linden.de/","addr:country":"DE","tourism":"hotel","version":"1","addr:postcode":"04178","building":"yes","addr:city":"Leipzig","addr:housenumber":"11","name":"Drei Linden","id":"108246981","addr:street":"Kastanienweg","changeSetId":"0","timestamp":"1302633828000"},"geometry":{"type":"Polygon","coordinates":[[[12.2724293,51.34483650000001],[12.272367200000001,51.344841800000005],[12.2723489,51.344771200000004],[12.2722764,51.3447309],[12.272450800000001,51.344576800000006],[12.272694900000001,51.344694100000005],[12.2726305,51.344746],[12.2726403,51.3447891],[12.272579,51.344795700000006],[12.2725852,51.3448227],[12.272668000000001,51.3448147],[12.272729700000001,51.3450861],[12.272496100000001,51.3451072],[12.2724293,51.34483650000001]]]}},{"type":"Feature","properties":{"id":"131399677","version":"2","building":"yes","changeSetId":"0","timestamp":"1366324864000"},"geometry":{"type":"Polygon","coordinates":[[[12.2641334,51.357275300000005],[12.264428500000001,51.3573389],[12.2644392,51.357315500000006],[12.264868400000001,51.3574126],[12.264932700000001,51.357295400000005],[12.264246100000001,51.3571547],[12.2641334,51.357275300000005]]]}},{"type":"Feature","properties":{"website":"www.kurhaus-bienitz.de","amenity":"restaurant","name":"Kurhaus Bienitz","id":"132668405","version":"3","building":"yes","changeSetId":"0","timestamp":"1373932046000"},"geometry":{"type":"Polygon","coordinates":[[[12.252312300000002,51.3523555],[12.252342500000001,51.3523282],[12.2523057,51.3523123],[12.2523253,51.352294500000006],[12.2523472,51.352304000000004],[12.2524242,51.3522344],[12.2525268,51.3522788],[12.252521100000001,51.3522839],[12.252567800000001,51.352304000000004],[12.2526028,51.352272400000004],[12.2526858,51.3523082],[12.2526629,51.3523289],[12.252697900000001,51.352344],[12.2526138,51.3524199],[12.2525764,51.3524037],[12.252527,51.352448300000006],[12.252312300000002,51.3523555]]]}},{"type":"Feature","properties":{"id":"135522588","version":"1","building":"yes","changeSetId":"0","timestamp":"1320151702000"},"geometry":{"type":"Polygon","coordinates":[[[12.2528745,51.3395135],[12.252999800000001,51.3394241],[12.2528799,51.3393585],[12.2527545,51.3394478],[12.2528745,51.3395135]]]}},{"type":"Feature","properties":{"id":"135522589","version":"1","building":"yes","changeSetId":"0","timestamp":"1320151702000"},"geometry":{"type":"Polygon","coordinates":[[[12.2532317,51.339268800000006],[12.253399900000002,51.3391559],[12.2532952,51.3390951],[12.2531271,51.339207900000005],[12.2532317,51.339268800000006]]]}},{"type":"Feature","properties":{"image":"https://commons.wikimedia.org/wiki/File%3ARueckmarsdorf_Wasserturm-1.jpg","website":"http://www.wasserturm-leipzig.de/html/rueckmars.htm","historic":"yes","man_made":"water_tower","addr:country":"DE","description":"Wasserturm in Leipzig-Rückmarsdorf","version":"4","building":"tower","addr:city":"Rückmarsdorf","name:de":"Wasserturm Rückmarsdorf","name":"Wasserturm Rückmarsdorf","name:en":"water tower Rückmarsdorf","id":"141139424","addr:street":"Wachberg","changeSetId":"0","timestamp":"1429559618000","height":"23","start_date":"1915"},"geometry":{"type":"Polygon","coordinates":[[[12.2550246,51.342178200000006],[12.2549956,51.342172100000006],[12.2549796,51.3421631],[12.2549667,51.3421454],[12.2549673,51.342128800000005],[12.254981500000001,51.3421115],[12.254999900000001,51.3421024],[12.255025300000002,51.342097800000005],[12.2550474,51.342099100000006],[12.255067200000001,51.3421049],[12.255086400000001,51.3421181],[12.2550948,51.3421371],[12.2550886,51.3421554],[12.255075300000001,51.342167],[12.255052000000001,51.342176],[12.2550246,51.342178200000006]]]}},{"type":"Feature","properties":{"id":"147881789","version":"1","building":"yes","changeSetId":"0","timestamp":"1327841755000"},"geometry":{"type":"Polygon","coordinates":[[[12.2945129,51.3412644],[12.2944747,51.3410997],[12.2936119,51.3411776],[12.293613200000001,51.3411831],[12.2932971,51.3412116],[12.293339000000001,51.3413928],[12.293655300000001,51.3413642],[12.2936502,51.3413423],[12.294041,51.341307],[12.2940546,51.341365800000005],[12.294066800000001,51.3414183],[12.2943162,51.3413958],[12.294304200000001,51.3413437],[12.294290400000001,51.3412845],[12.2945129,51.3412644]]]}},{"type":"Feature","properties":{"id":"147881833","version":"1","building":"yes","changeSetId":"0","timestamp":"1327841758000"},"geometry":{"type":"Polygon","coordinates":[[[12.290413800000001,51.343397800000005],[12.2902839,51.3428277],[12.2910316,51.342761200000005],[12.2911601,51.3433295],[12.291077300000001,51.343355200000005],[12.290973900000001,51.3433745],[12.2908778,51.34337420000001],[12.290782,51.343363200000006],[12.2906942,51.3433902],[12.290595900000001,51.34340460000001],[12.290502100000001,51.3434055],[12.290413800000001,51.343397800000005]]]}},{"type":"Feature","properties":{"id":"147881864","version":"1","building":"yes","changeSetId":"0","timestamp":"1327841762000"},"geometry":{"type":"Polygon","coordinates":[[[12.2929107,51.342173300000006],[12.292761800000001,51.3415388],[12.294066800000001,51.3414183],[12.2943162,51.3413958],[12.2959771,51.3412444],[12.296126000000001,51.341878900000005],[12.294277200000002,51.3420482],[12.2942753,51.34204020000001],[12.293780700000001,51.3420855],[12.2937826,51.342093500000004],[12.2929107,51.342173300000006]]]}},{"type":"Feature","properties":{"id":"161971377","version":"1","building":"yes","changeSetId":"0","timestamp":"1336052434000"},"geometry":{"type":"Polygon","coordinates":[[[12.2965227,51.341916000000005],[12.2967788,51.341892400000006],[12.2967534,51.3417735],[12.2965093,51.3418707],[12.2965227,51.341916000000005]]]}},{"type":"Feature","properties":{"id":"161971378","version":"1","building":"yes","changeSetId":"0","timestamp":"1336052434000"},"geometry":{"type":"Polygon","coordinates":[[[12.2968714,51.34178360000001],[12.2970377,51.3417115],[12.297255000000002,51.341579200000005],[12.2972067,51.341545700000005],[12.296996,51.341672900000006],[12.2968285,51.3417551],[12.2968714,51.34178360000001]]]}},{"type":"Feature","properties":{"id":"164473255","version":"1","building":"yes","changeSetId":"0","timestamp":"1337618537000"},"geometry":{"type":"Polygon","coordinates":[[[12.252545900000001,51.3535112],[12.252386900000001,51.353440000000006],[12.2524739,51.353363200000004],[12.2526329,51.353434400000005],[12.252545900000001,51.3535112]]]}},{"type":"Feature","properties":{"id":"164473256","version":"1","building":"yes","changeSetId":"0","timestamp":"1337618537000"},"geometry":{"type":"Polygon","coordinates":[[[12.2532388,51.353417500000006],[12.2530289,51.3533313],[12.2531189,51.3532452],[12.2533288,51.3533332],[12.2532388,51.353417500000006]]]}},{"type":"Feature","properties":{"id":"200409837","version":"1","building":"roof","changeSetId":"0","timestamp":"1357814149000"},"geometry":{"type":"Polygon","coordinates":[[[12.2822843,51.341705700000006],[12.2822584,51.341718],[12.2822423,51.3417289],[12.282376300000001,51.3418119],[12.2823895,51.341802200000004],[12.282409000000001,51.341787800000006],[12.2822843,51.341705700000006]]]}},{"type":"Feature","properties":{"id":"200409842","version":"1","building":"roof","changeSetId":"0","timestamp":"1357814149000"},"geometry":{"type":"Polygon","coordinates":[[[12.2824544,51.3416039],[12.2824086,51.341630900000006],[12.2825418,51.341714100000004],[12.282573300000001,51.3416963],[12.282591100000001,51.341684400000005],[12.2824544,51.3416039]]]}},{"type":"Feature","properties":{"id":"206903111","version":"2","building":"yes","changeSetId":"0","timestamp":"1361656882000"},"geometry":{"type":"Polygon","coordinates":[[[12.281640900000001,51.340197800000006],[12.2818058,51.340197800000006],[12.2818059,51.340331600000006],[12.281648700000002,51.3403317],[12.281648700000002,51.3402849],[12.2816053,51.3402849],[12.281605200000001,51.340206300000006],[12.281640900000001,51.340206300000006],[12.281640900000001,51.340197800000006]]]}},{"type":"Feature","properties":{"id":"206903112","version":"2","building":"yes","changeSetId":"0","timestamp":"1361656888000"},"geometry":{"type":"Polygon","coordinates":[[[12.281141700000001,51.339308],[12.281741100000001,51.339255200000004],[12.2817921,51.339466300000005],[12.281191300000001,51.3395183],[12.281141700000001,51.339308]]]}},{"type":"Feature","properties":{"id":"206903114","version":"2","building":"yes","changeSetId":"0","timestamp":"1361656880000"},"geometry":{"type":"Polygon","coordinates":[[[12.2806589,51.3399531],[12.2810249,51.339955100000005],[12.2810196,51.340122300000004],[12.2807326,51.3401215],[12.2806589,51.340082100000004],[12.2806589,51.3399531]]]}},{"type":"Feature","properties":{"id":"206903115","version":"2","building":"yes","changeSetId":"0","timestamp":"1366324864000"},"geometry":{"type":"Polygon","coordinates":[[[12.280138500000001,51.339275300000004],[12.2801117,51.33917640000001],[12.281539800000001,51.339043600000004],[12.281562800000001,51.339142900000006],[12.280138500000001,51.339275300000004]]]}},{"type":"Feature","properties":{"id":"206903116","version":"2","building":"yes","changeSetId":"0","timestamp":"1361656885000"},"geometry":{"type":"Polygon","coordinates":[[[12.2803222,51.3396758],[12.2807873,51.3396314],[12.2807353,51.339392600000004],[12.280548900000001,51.3394102],[12.280548900000001,51.339426100000004],[12.2802713,51.3394546],[12.2803222,51.3396758]]]}},{"type":"Feature","properties":{"id":"206903117","version":"2","building":"yes","changeSetId":"0","timestamp":"1361656872000"},"geometry":{"type":"Polygon","coordinates":[[[12.2820044,51.341776900000006],[12.282007400000001,51.34166140000001],[12.2821113,51.341662400000004],[12.282109100000001,51.341745],[12.2820736,51.341744600000006],[12.2820728,51.3417776],[12.2820044,51.341776900000006]]]}},{"type":"Feature","properties":{"historic":"technical_monument","name":"Sperrtor Burghausen","id":"209788992","version":"2","building":"yes","changeSetId":"0","timestamp":"1405076662000"},"geometry":{"type":"Polygon","coordinates":[[[12.245111300000001,51.3564622],[12.24512,51.3564066],[12.245018400000001,51.356400400000005],[12.2450097,51.356456],[12.245111300000001,51.3564622]]]}},{"type":"Feature","properties":{"id":"238034760","source":"Bing","version":"1","building":"yes","changeSetId":"0","timestamp":"1379233079000"},"geometry":{"type":"Polygon","coordinates":[[[12.2847155,51.339452800000004],[12.284594700000001,51.3394661],[12.284636500000001,51.339614100000006],[12.2847573,51.33960080000001],[12.2847155,51.339452800000004]]]}},{"type":"Feature","properties":{"id":"240252089","version":"1","building":"yes","changeSetId":"0","timestamp":"1380710554000"},"geometry":{"type":"Polygon","coordinates":[[[12.2613236,51.345295],[12.2613,51.345192600000004],[12.2619904,51.3451303],[12.2619848,51.345106],[12.261918000000001,51.345080200000005],[12.262005700000001,51.3450003],[12.262072400000001,51.3450295],[12.2621511,51.345022400000005],[12.262109200000001,51.344841],[12.2623444,51.3448198],[12.2624101,51.3451043],[12.262269000000002,51.345117],[12.262311400000002,51.345300400000006],[12.261515900000001,51.345372100000006],[12.261494500000001,51.345279600000005],[12.2613236,51.345295]]]}},{"type":"Feature","properties":{"roof:shape":"flat","id":"240252090","building:colour":"white","version":"2","roof:material":"concrete","building":"yes","changeSetId":"0","timestamp":"1389701143000","height":"4"},"geometry":{"type":"Polygon","coordinates":[[[12.2607587,51.345701500000004],[12.260996,51.345679200000006],[12.2609712,51.345576],[12.2607339,51.345598300000006],[12.2607587,51.345701500000004]]]}},{"type":"Feature","properties":{"addr:housenumber":"24","id":"240252240","addr:street":"Sandberg","version":"4","addr:postcode":"04178","building":"residential","changeSetId":"0","timestamp":"1442519911000","addr:city":"Leipzig"},"geometry":{"type":"Polygon","coordinates":[[[12.2582146,51.346336300000004],[12.2584324,51.3463142],[12.258420500000001,51.34626840000001],[12.258396300000001,51.346270800000006],[12.2583748,51.3461883],[12.2584107,51.3461846],[12.2583997,51.346142400000005],[12.2582009,51.34616260000001],[12.2582328,51.346285300000005],[12.2582021,51.346288400000006],[12.2582146,51.346336300000004]]]}},{"type":"Feature","properties":{"addr:housenumber":"26","id":"240252241","addr:street":"Sandberg","version":"2","building":"yes","changeSetId":"0","timestamp":"1433875245000"},"geometry":{"type":"Polygon","coordinates":[[[12.258617300000001,51.346360600000004],[12.2585668,51.346118000000004],[12.2587434,51.3461037],[12.258768400000001,51.34622400000001],[12.258859800000002,51.346216500000004],[12.2588852,51.346338800000005],[12.258617300000001,51.346360600000004]]]}},{"type":"Feature","properties":{"description":"ehemaliges Stellwerk","id":"246624818","source":"bing","railway":"signal_box","disused":"yes","version":"4","building":"yes","changeSetId":"0","timestamp":"1403174217000"},"geometry":{"type":"Polygon","coordinates":[[[12.274927100000001,51.3370948],[12.274989900000001,51.3370545],[12.2748866,51.3369918],[12.2748238,51.3370321],[12.274927100000001,51.3370948]]]}},{"type":"Feature","properties":{"id":"249674536","version":"1","building":"yes","changeSetId":"0","timestamp":"1386059884000"},"geometry":{"type":"Polygon","coordinates":[[[12.2630517,51.345772700000005],[12.2630134,51.3455972],[12.2631017,51.345589700000005],[12.2630782,51.345482100000005],[12.2634219,51.345452800000004],[12.263451700000001,51.3455895],[12.2634003,51.345593900000004],[12.2634322,51.3457402],[12.2630517,51.345772700000005]]]}},{"type":"Feature","properties":{"id":"256077577","version":"1","building":"yes","changeSetId":"0","timestamp":"1389380768000"},"geometry":{"type":"Polygon","coordinates":[[[12.271722200000001,51.3478628],[12.271940200000001,51.3479079],[12.271991100000001,51.3478119],[12.2717731,51.3477668],[12.271722200000001,51.3478628]]]}},{"type":"Feature","properties":{"id":"256077579","version":"1","building":"yes","changeSetId":"0","timestamp":"1389380768000"},"geometry":{"type":"Polygon","coordinates":[[[12.270983600000001,51.347447],[12.270992300000001,51.347382],[12.270917500000001,51.3473781],[12.2709088,51.34744310000001],[12.270983600000001,51.347447]]]}},{"type":"Feature","properties":{"id":"256077580","version":"1","building":"yes","changeSetId":"0","timestamp":"1389380768000"},"geometry":{"type":"Polygon","coordinates":[[[12.272345000000001,51.347043000000006],[12.272534400000001,51.347029600000006],[12.272515100000001,51.346923200000006],[12.272325700000001,51.34693660000001],[12.272345000000001,51.347043000000006]]]}},{"type":"Feature","properties":{"id":"256077581","version":"1","building":"yes","changeSetId":"0","timestamp":"1389380768000"},"geometry":{"type":"Polygon","coordinates":[[[12.269437400000001,51.3466432],[12.2696421,51.346635500000005],[12.2696333,51.346543200000006],[12.269428600000001,51.3465508],[12.269437400000001,51.3466432]]]}},{"type":"Feature","properties":{"id":"256077582","version":"1","building":"yes","changeSetId":"0","timestamp":"1389380769000"},"geometry":{"type":"Polygon","coordinates":[[[12.270220400000001,51.3484307],[12.2703208,51.3484496],[12.270343500000001,51.348402300000004],[12.2702431,51.348383500000004],[12.270220400000001,51.3484307]]]}},{"type":"Feature","properties":{"id":"256077583","version":"1","building":"yes","changeSetId":"0","timestamp":"1389380769000"},"geometry":{"type":"Polygon","coordinates":[[[12.272275700000002,51.347336500000004],[12.272288600000001,51.3472652],[12.2721418,51.3472548],[12.2721289,51.347326100000004],[12.272275700000002,51.347336500000004]]]}},{"type":"Feature","properties":{"id":"256077584","version":"1","building":"yes","changeSetId":"0","timestamp":"1389380769000"},"geometry":{"type":"Polygon","coordinates":[[[12.274210100000001,51.3467684],[12.2743766,51.346757100000005],[12.2743593,51.346658000000005],[12.274192800000002,51.3466694],[12.274210100000001,51.3467684]]]}},{"type":"Feature","properties":{"id":"256077585","version":"1","building":"yes","changeSetId":"0","timestamp":"1389380769000"},"geometry":{"type":"Polygon","coordinates":[[[12.2739574,51.345721100000006],[12.2739376,51.345628600000005],[12.273778700000001,51.3456418],[12.273798500000002,51.345734300000004],[12.2739574,51.345721100000006]]]}},{"type":"Feature","properties":{"id":"256077586","version":"1","building":"yes","changeSetId":"0","timestamp":"1389380769000"},"geometry":{"type":"Polygon","coordinates":[[[12.2711325,51.3480256],[12.271196900000001,51.347909900000005],[12.2710234,51.347872300000006],[12.270959000000001,51.347988],[12.2711325,51.3480256]]]}},{"type":"Feature","properties":{"id":"256077587","version":"1","building":"yes","changeSetId":"0","timestamp":"1389380769000"},"geometry":{"type":"Polygon","coordinates":[[[12.2737982,51.346602100000005],[12.2738969,51.346595900000004],[12.273867000000001,51.3464101],[12.273768200000001,51.3464163],[12.2737982,51.346602100000005]]]}},{"type":"Feature","properties":{"id":"256077588","version":"1","building":"yes","changeSetId":"0","timestamp":"1389380769000"},"geometry":{"type":"Polygon","coordinates":[[[12.2737963,51.3468327],[12.273776000000002,51.3467331],[12.2736044,51.346746700000004],[12.273624700000001,51.3468463],[12.2737963,51.3468327]]]}},{"type":"Feature","properties":{"id":"256077589","version":"1","building":"yes","changeSetId":"0","timestamp":"1389380769000"},"geometry":{"type":"Polygon","coordinates":[[[12.2696699,51.346482800000004],[12.269783200000001,51.3464729],[12.269761,51.3463743],[12.269647800000001,51.3463842],[12.2696699,51.346482800000004]]]}},{"type":"Feature","properties":{"id":"256077590","version":"1","building":"yes","changeSetId":"0","timestamp":"1389380769000"},"geometry":{"type":"Polygon","coordinates":[[[12.2678936,51.346417100000004],[12.2680331,51.34640580000001],[12.268012500000001,51.34630670000001],[12.267873000000002,51.346318000000004],[12.2678936,51.346417100000004]]]}},{"type":"Feature","properties":{"id":"256077591","version":"1","building":"yes","changeSetId":"0","timestamp":"1389380769000"},"geometry":{"type":"Polygon","coordinates":[[[12.2713669,51.3481042],[12.2715461,51.348139800000006],[12.271597000000002,51.3480399],[12.2714178,51.34800430000001],[12.2713669,51.3481042]]]}},{"type":"Feature","properties":{"id":"256077592","version":"1","building":"yes","changeSetId":"0","timestamp":"1389380769000"},"geometry":{"type":"Polygon","coordinates":[[[12.2731235,51.346664200000006],[12.2731484,51.3467865],[12.273306900000001,51.346774],[12.273282100000001,51.3466516],[12.2731235,51.346664200000006]]]}},{"type":"Feature","properties":{"id":"256077593","version":"1","building":"yes","changeSetId":"0","timestamp":"1389380769000"},"geometry":{"type":"Polygon","coordinates":[[[12.271482800000001,51.346045700000005],[12.271587700000001,51.346037300000006],[12.2715759,51.3459799],[12.271471,51.3459883],[12.271482800000001,51.346045700000005]]]}},{"type":"Feature","properties":{"id":"256077594","version":"1","building":"yes","changeSetId":"0","timestamp":"1389380769000"},"geometry":{"type":"Polygon","coordinates":[[[12.2706862,51.348362900000005],[12.270842,51.3483968],[12.2708908,51.3483092],[12.270735100000001,51.348275400000006],[12.2706862,51.348362900000005]]]}},{"type":"Feature","properties":{"id":"256077595","version":"1","building":"yes","changeSetId":"0","timestamp":"1389380769000"},"geometry":{"type":"Polygon","coordinates":[[[12.2716796,51.347646100000006],[12.271699,51.3475485],[12.271548300000001,51.3475369],[12.271528900000002,51.347634400000004],[12.2716796,51.347646100000006]]]}},{"type":"Feature","properties":{"id":"256077596","version":"1","building":"yes","changeSetId":"0","timestamp":"1389380769000"},"geometry":{"type":"Polygon","coordinates":[[[12.2731781,51.3471301],[12.2732048,51.346996700000005],[12.272973700000001,51.3469786],[12.272947,51.347112100000004],[12.2731781,51.3471301]]]}},{"type":"Feature","properties":{"id":"256077597","version":"1","building":"yes","changeSetId":"0","timestamp":"1389380769000"},"geometry":{"type":"Polygon","coordinates":[[[12.2734819,51.3459334],[12.2736339,51.345916300000006],[12.2736006,51.345801],[12.2734486,51.3458181],[12.2734819,51.3459334]]]}},{"type":"Feature","properties":{"id":"256077598","version":"1","building":"yes","changeSetId":"0","timestamp":"1389380769000"},"geometry":{"type":"Polygon","coordinates":[[[12.271617200000001,51.3459451],[12.271880300000001,51.3459196],[12.271861000000001,51.345842000000005],[12.271597900000002,51.345867500000004],[12.271617200000001,51.3459451]]]}},{"type":"Feature","properties":{"id":"256077599","version":"1","building":"yes","changeSetId":"0","timestamp":"1389380769000"},"geometry":{"type":"Polygon","coordinates":[[[12.2691165,51.3463031],[12.269245000000002,51.3462929],[12.2692274,51.3462061],[12.269098900000001,51.3462162],[12.2691165,51.3463031]]]}},{"type":"Feature","properties":{"id":"256077600","version":"1","building":"yes","changeSetId":"0","timestamp":"1389380770000"},"geometry":{"type":"Polygon","coordinates":[[[12.271125000000001,51.3471648],[12.271324400000001,51.3471697],[12.271330800000001,51.3470681],[12.271131500000001,51.3470632],[12.271125000000001,51.3471648]]]}},{"type":"Feature","properties":{"id":"256077601","version":"1","building":"yes","changeSetId":"0","timestamp":"1389380770000"},"geometry":{"type":"Polygon","coordinates":[[[12.2700542,51.346118000000004],[12.2702398,51.346121200000006],[12.270246,51.3459797],[12.2700604,51.345976500000006],[12.2700542,51.346118000000004]]]}},{"type":"Feature","properties":{"id":"256077602","version":"1","building":"yes","changeSetId":"0","timestamp":"1389380770000"},"geometry":{"type":"Polygon","coordinates":[[[12.268046,51.3461579],[12.268028600000001,51.346070700000006],[12.2678954,51.346081000000005],[12.2679129,51.3461683],[12.268046,51.3461579]]]}},{"type":"Feature","properties":{"id":"256077603","version":"1","building":"yes","changeSetId":"0","timestamp":"1389380770000"},"geometry":{"type":"Polygon","coordinates":[[[12.2735129,51.347432600000005],[12.2736651,51.3474415],[12.273678700000001,51.3473508],[12.2735266,51.3473419],[12.2735129,51.347432600000005]]]}},{"type":"Feature","properties":{"id":"256077604","version":"1","building":"yes","changeSetId":"0","timestamp":"1389380770000"},"geometry":{"type":"Polygon","coordinates":[[[12.271052300000001,51.3458862],[12.2711906,51.34587560000001],[12.271172900000002,51.345785400000004],[12.2710346,51.345796],[12.271052300000001,51.3458862]]]}},{"type":"Feature","properties":{"id":"256077605","version":"1","building":"yes","changeSetId":"0","timestamp":"1389380770000"},"geometry":{"type":"Polygon","coordinates":[[[12.269698400000001,51.345958],[12.2698389,51.345962400000005],[12.2698526,51.3457918],[12.269712100000001,51.345787400000006],[12.269698400000001,51.345958]]]}},{"type":"Feature","properties":{"id":"256077606","version":"1","building":"yes","changeSetId":"0","timestamp":"1389380770000"},"geometry":{"type":"Polygon","coordinates":[[[12.2720952,51.3486794],[12.2721569,51.34852050000001],[12.272011500000001,51.348498500000005],[12.271949800000002,51.3486574],[12.2720952,51.3486794]]]}},{"type":"Feature","properties":{"id":"256077607","version":"1","building":"yes","changeSetId":"0","timestamp":"1389380770000"},"geometry":{"type":"Polygon","coordinates":[[[12.2729309,51.347389400000004],[12.2730872,51.3473989],[12.273102100000001,51.347301900000005],[12.272945900000002,51.3472925],[12.2729309,51.347389400000004]]]}},{"type":"Feature","properties":{"id":"256077608","version":"1","building":"yes","changeSetId":"0","timestamp":"1389380770000"},"geometry":{"type":"Polygon","coordinates":[[[12.2707741,51.3481541],[12.2709466,51.348193],[12.2709974,51.348105200000006],[12.270824900000001,51.348066300000006],[12.2707741,51.3481541]]]}},{"type":"Feature","properties":{"id":"256077609","version":"1","building":"yes","changeSetId":"0","timestamp":"1389380770000"},"geometry":{"type":"Polygon","coordinates":[[[12.272734300000002,51.3460021],[12.272837800000001,51.345989800000005],[12.2728105,51.3459],[12.272707,51.3459123],[12.272734300000002,51.3460021]]]}},{"type":"Feature","properties":{"id":"256077610","version":"1","building":"yes","changeSetId":"0","timestamp":"1389380770000"},"geometry":{"type":"Polygon","coordinates":[[[12.2710875,51.3475775],[12.271261200000001,51.347584700000006],[12.271268500000001,51.347516600000006],[12.2710948,51.347509300000006],[12.2710875,51.3475775]]]}},{"type":"Feature","properties":{"id":"256077611","version":"1","building":"yes","changeSetId":"0","timestamp":"1389380770000"},"geometry":{"type":"Polygon","coordinates":[[[12.269619400000002,51.3468929],[12.269774100000001,51.346898100000004],[12.2697824,51.3468012],[12.2696278,51.346796100000006],[12.269619400000002,51.3468929]]]}},{"type":"Feature","properties":{"id":"256077612","version":"1","building":"yes","changeSetId":"0","timestamp":"1389380771000"},"geometry":{"type":"Polygon","coordinates":[[[12.2720017,51.347171100000004],[12.2720108,51.3470936],[12.271876500000001,51.34708740000001],[12.271867400000001,51.3471649],[12.2720017,51.347171100000004]]]}},{"type":"Feature","properties":{"id":"256077613","version":"1","building":"yes","changeSetId":"0","timestamp":"1389380771000"},"geometry":{"type":"Polygon","coordinates":[[[12.2677651,51.3461793],[12.267746500000001,51.346093700000004],[12.2676227,51.346104200000006],[12.267641300000001,51.346189800000005],[12.2677651,51.3461793]]]}},{"type":"Feature","properties":{"id":"256077614","version":"1","building":"yes","changeSetId":"0","timestamp":"1389380771000"},"geometry":{"type":"Polygon","coordinates":[[[12.2741821,51.3474669],[12.274370500000002,51.347477000000005],[12.274381,51.347400500000006],[12.2741927,51.3473903],[12.2741821,51.3474669]]]}},{"type":"Feature","properties":{"id":"256077615","version":"1","building":"yes","changeSetId":"0","timestamp":"1389380771000"},"geometry":{"type":"Polygon","coordinates":[[[12.2676829,51.346461700000006],[12.2678089,51.3464496],[12.267787,51.3463604],[12.267660900000001,51.3463725],[12.2676829,51.346461700000006]]]}},{"type":"Feature","properties":{"id":"256077616","version":"1","building":"yes","changeSetId":"0","timestamp":"1389380771000"},"geometry":{"type":"Polygon","coordinates":[[[12.2720006,51.348030300000005],[12.272110000000001,51.348048600000006],[12.272136000000001,51.347988300000004],[12.2720266,51.3479699],[12.2720006,51.348030300000005]]]}},{"type":"Feature","properties":{"id":"256077617","version":"1","building":"yes","changeSetId":"0","timestamp":"1389380771000"},"geometry":{"type":"Polygon","coordinates":[[[12.2710837,51.3481048],[12.2711179,51.3480465],[12.270985000000001,51.348016],[12.2709507,51.3480743],[12.2710837,51.3481048]]]}},{"type":"Feature","properties":{"id":"256077618","version":"1","building":"yes","changeSetId":"0","timestamp":"1389380771000"},"geometry":{"type":"Polygon","coordinates":[[[12.274033000000001,51.34594980000001],[12.2741728,51.3459349],[12.2741334,51.3457912],[12.2739937,51.345806200000006],[12.274033000000001,51.34594980000001]]]}},{"type":"Feature","properties":{"id":"256077619","version":"1","building":"yes","changeSetId":"0","timestamp":"1389380771000"},"geometry":{"type":"Polygon","coordinates":[[[12.2708578,51.347798000000004],[12.271075000000002,51.347809700000006],[12.271091100000001,51.347692200000004],[12.270873900000002,51.347680600000004],[12.2708578,51.347798000000004]]]}},{"type":"Feature","properties":{"id":"256077620","version":"1","building":"yes","changeSetId":"0","timestamp":"1389380771000"},"geometry":{"type":"Polygon","coordinates":[[[12.2699788,51.3480074],[12.2701106,51.3480068],[12.270109600000001,51.3479218],[12.2699777,51.3479224],[12.2699788,51.3480074]]]}},{"type":"Feature","properties":{"id":"256077621","version":"1","building":"yes","changeSetId":"0","timestamp":"1389380771000"},"geometry":{"type":"Polygon","coordinates":[[[12.2735596,51.346558],[12.2736847,51.3465481],[12.2736654,51.346453200000006],[12.2735403,51.3464631],[12.2735596,51.346558]]]}},{"type":"Feature","properties":{"id":"256077622","version":"1","building":"yes","changeSetId":"0","timestamp":"1389380771000"},"geometry":{"type":"Polygon","coordinates":[[[12.274242600000001,51.3472164],[12.274241100000001,51.347117100000006],[12.274039700000001,51.347118300000005],[12.274041200000001,51.3472176],[12.274242600000001,51.3472164]]]}},{"type":"Feature","properties":{"id":"256077623","version":"1","building":"yes","changeSetId":"0","timestamp":"1389380771000"},"geometry":{"type":"Polygon","coordinates":[[[12.2717945,51.346705500000006],[12.271805400000002,51.3467835],[12.271952200000001,51.346775400000006],[12.2719413,51.346697500000005],[12.2717945,51.346705500000006]]]}},{"type":"Feature","properties":{"id":"256077624","version":"1","building":"yes","changeSetId":"0","timestamp":"1389380771000"},"geometry":{"type":"Polygon","coordinates":[[[12.268654900000001,51.3465627],[12.268641700000002,51.3464923],[12.268500000000001,51.3465026],[12.268513100000002,51.3465731],[12.268654900000001,51.3465627]]]}},{"type":"Feature","properties":{"id":"256077625","version":"1","building":"yes","changeSetId":"0","timestamp":"1389380771000"},"geometry":{"type":"Polygon","coordinates":[[[12.274057200000001,51.3464177],[12.2742161,51.3464047],[12.2741903,51.3462827],[12.274031500000001,51.3462958],[12.274057200000001,51.3464177]]]}},{"type":"Feature","properties":{"id":"256077626","version":"1","building":"yes","changeSetId":"0","timestamp":"1389380771000"},"geometry":{"type":"Polygon","coordinates":[[[12.2716051,51.346989],[12.2717618,51.346975400000005],[12.2717316,51.3468394],[12.271574800000002,51.346853],[12.2716051,51.346989]]]}},{"type":"Feature","properties":{"id":"256077627","version":"1","building":"yes","changeSetId":"0","timestamp":"1389380771000"},"geometry":{"type":"Polygon","coordinates":[[[12.2712497,51.3473016],[12.271352700000001,51.3473066],[12.2713631,51.34722360000001],[12.271260100000001,51.347218600000005],[12.2712497,51.3473016]]]}},{"type":"Feature","properties":{"id":"256077628","version":"1","building":"yes","changeSetId":"0","timestamp":"1389380771000"},"geometry":{"type":"Polygon","coordinates":[[[12.269232,51.3459767],[12.269396400000002,51.345961],[12.2693715,51.345859000000004],[12.269207100000001,51.3458746],[12.269232,51.3459767]]]}},{"type":"Feature","properties":{"id":"256077629","version":"1","building":"yes","changeSetId":"0","timestamp":"1389380771000"},"geometry":{"type":"Polygon","coordinates":[[[12.272703900000002,51.347370500000004],[12.272719100000002,51.3472372],[12.272560200000001,51.347230200000006],[12.2725451,51.3473635],[12.272703900000002,51.347370500000004]]]}},{"type":"Feature","properties":{"id":"256077630","version":"1","building":"yes","changeSetId":"0","timestamp":"1389380772000"},"geometry":{"type":"Polygon","coordinates":[[[12.2706592,51.3485128],[12.270863700000001,51.3485554],[12.270914600000001,51.34846],[12.2707101,51.3484174],[12.2706592,51.3485128]]]}},{"type":"Feature","properties":{"id":"256077631","version":"1","building":"yes","changeSetId":"0","timestamp":"1389380772000"},"geometry":{"type":"Polygon","coordinates":[[[12.2712719,51.348259500000005],[12.271443600000001,51.3482969],[12.271500900000001,51.3481941],[12.2713292,51.348156800000005],[12.2712719,51.348259500000005]]]}},{"type":"Feature","properties":{"id":"256077632","version":"1","building":"yes","changeSetId":"0","timestamp":"1389380772000"},"geometry":{"type":"Polygon","coordinates":[[[12.2730127,51.34638210000001],[12.273186800000001,51.3463652],[12.273162600000001,51.3462678],[12.2729885,51.346284700000005],[12.2730127,51.34638210000001]]]}},{"type":"Feature","properties":{"id":"256077633","version":"1","building":"yes","changeSetId":"0","timestamp":"1389380772000"},"geometry":{"type":"Polygon","coordinates":[[[12.271457300000002,51.3462971],[12.2714656,51.3461774],[12.271362700000001,51.346174700000006],[12.271354500000001,51.346294300000004],[12.271457300000002,51.3462971]]]}},{"type":"Feature","properties":{"id":"256077634","version":"1","building":"yes","changeSetId":"0","timestamp":"1389380772000"},"geometry":{"type":"Polygon","coordinates":[[[12.271878000000001,51.3476714],[12.2718953,51.347568700000004],[12.2717571,51.347559600000004],[12.2717398,51.3476623],[12.271878000000001,51.3476714]]]}},{"type":"Feature","properties":{"id":"256077635","version":"1","building":"yes","changeSetId":"0","timestamp":"1389380772000"},"geometry":{"type":"Polygon","coordinates":[[[12.2717875,51.3462686],[12.271947800000001,51.346256600000004],[12.2719318,51.3461724],[12.271771500000002,51.346184300000004],[12.2717875,51.3462686]]]}},{"type":"Feature","properties":{"id":"256077636","version":"1","building":"yes","changeSetId":"0","timestamp":"1389380772000"},"geometry":{"type":"Polygon","coordinates":[[[12.270618800000001,51.347688100000006],[12.2704851,51.347678],[12.2704605,51.3478052],[12.2705941,51.3478153],[12.270618800000001,51.347688100000006]]]}},{"type":"Feature","properties":{"id":"256077637","version":"1","building":"yes","changeSetId":"0","timestamp":"1389380772000"},"geometry":{"type":"Polygon","coordinates":[[[12.271164500000001,51.3469908],[12.271178500000001,51.3469014],[12.270924,51.3468858],[12.27091,51.3469752],[12.271164500000001,51.3469908]]]}},{"type":"Feature","properties":{"id":"256077638","version":"1","building":"yes","changeSetId":"0","timestamp":"1389380772000"},"geometry":{"type":"Polygon","coordinates":[[[12.268904800000001,51.3460802],[12.2688836,51.345964],[12.2687632,51.3459726],[12.268784400000001,51.346088800000004],[12.268904800000001,51.3460802]]]}},{"type":"Feature","properties":{"id":"256077639","version":"1","building":"yes","changeSetId":"0","timestamp":"1389380772000"},"geometry":{"type":"Polygon","coordinates":[[[12.2699402,51.348581300000006],[12.270001500000001,51.348473600000005],[12.2698535,51.348440800000006],[12.269792200000001,51.3485485],[12.2699402,51.348581300000006]]]}},{"type":"Feature","properties":{"id":"256077640","version":"1","building":"yes","changeSetId":"0","timestamp":"1389380772000"},"geometry":{"type":"Polygon","coordinates":[[[12.2693884,51.3462819],[12.269507800000001,51.346274400000006],[12.269494,51.3461888],[12.2693746,51.3461963],[12.2693884,51.3462819]]]}},{"type":"Feature","properties":{"id":"256077641","version":"1","building":"yes","changeSetId":"0","timestamp":"1389380772000"},"geometry":{"type":"Polygon","coordinates":[[[12.2732057,51.3472511],[12.2734035,51.347263000000005],[12.273415600000002,51.347184600000006],[12.273217800000001,51.3471727],[12.2732057,51.3472511]]]}},{"type":"Feature","properties":{"id":"256077642","version":"1","building":"yes","changeSetId":"0","timestamp":"1389380772000"},"geometry":{"type":"Polygon","coordinates":[[[12.2699715,51.3482001],[12.270096200000001,51.3482008],[12.2700972,51.348119700000005],[12.269972500000002,51.348119000000004],[12.2699715,51.3482001]]]}},{"type":"Feature","properties":{"id":"256077643","version":"1","building":"yes","changeSetId":"0","timestamp":"1389380772000"},"geometry":{"type":"Polygon","coordinates":[[[12.271507300000001,51.3462503],[12.271656,51.346237300000006],[12.271626600000001,51.346106000000006],[12.2714779,51.346119],[12.271507300000001,51.3462503]]]}},{"type":"Feature","properties":{"id":"256077644","version":"1","building":"yes","changeSetId":"0","timestamp":"1389380772000"},"geometry":{"type":"Polygon","coordinates":[[[12.2712309,51.3461172],[12.2714067,51.346119400000006],[12.2714098,51.346022700000006],[12.271234100000001,51.3460205],[12.2712309,51.3461172]]]}},{"type":"Feature","properties":{"id":"256077645","version":"1","building":"yes","changeSetId":"0","timestamp":"1389380772000"},"geometry":{"type":"Polygon","coordinates":[[[12.270415000000002,51.346444000000005],[12.270425900000001,51.346308900000004],[12.270183000000001,51.3463013],[12.270180100000001,51.34633770000001],[12.270076300000001,51.3463344],[12.2700683,51.346433000000005],[12.270415000000002,51.346444000000005]]]}},{"type":"Feature","properties":{"id":"256077646","version":"1","building":"yes","changeSetId":"0","timestamp":"1389380772000"},"geometry":{"type":"Polygon","coordinates":[[[12.2681482,51.3463736],[12.2681657,51.3464553],[12.268322900000001,51.346442100000004],[12.2683034,51.3463508],[12.268244000000001,51.346355800000005],[12.268229300000002,51.3462873],[12.2681091,51.3462973],[12.2681258,51.3463755],[12.2681482,51.3463736]]]}},{"type":"Feature","properties":{"id":"256078075","version":"1","building":"yes","changeSetId":"0","timestamp":"1389380893000"},"geometry":{"type":"Polygon","coordinates":[[[12.2687991,51.3463058],[12.2690058,51.3462869],[12.2689915,51.346225700000005],[12.2687848,51.346244500000005],[12.2687991,51.3463058]]]}},{"type":"Feature","properties":{"id":"256078076","version":"1","building":"yes","changeSetId":"0","timestamp":"1389380893000"},"geometry":{"type":"Polygon","coordinates":[[[12.270172700000002,51.3480859],[12.270323900000001,51.348089300000005],[12.2703276,51.34802680000001],[12.270176300000001,51.3480234],[12.270172700000002,51.3480859]]]}},{"type":"Feature","properties":{"id":"256078077","version":"1","building":"yes","changeSetId":"0","timestamp":"1389380893000"},"geometry":{"type":"Polygon","coordinates":[[[12.2710609,51.345096100000006],[12.271516,51.3450561],[12.271441000000001,51.3447229],[12.270985900000001,51.344762800000005],[12.2710609,51.345096100000006]]]}},{"type":"Feature","properties":{"id":"256078768","version":"1","building":"yes","changeSetId":"0","timestamp":"1389381233000"},"geometry":{"type":"Polygon","coordinates":[[[12.2739826,51.347189900000004],[12.273840400000001,51.3471891],[12.273840600000002,51.3471703],[12.273755900000001,51.3471698],[12.273756700000002,51.347106100000005],[12.2739837,51.347107400000006],[12.2739826,51.347189900000004]]]}},{"type":"Feature","properties":{"id":"256078770","version":"1","building":"yes","changeSetId":"0","timestamp":"1389381233000"},"geometry":{"type":"Polygon","coordinates":[[[12.273436100000001,51.3457],[12.2734292,51.3456607],[12.273360700000001,51.3456654],[12.273351400000001,51.3456114],[12.2735579,51.3455974],[12.273574,51.345690700000006],[12.273436100000001,51.3457]]]}},{"type":"Feature","properties":{"id":"256078771","version":"1","building":"yes","changeSetId":"0","timestamp":"1389381233000"},"geometry":{"type":"Polygon","coordinates":[[[12.273214300000001,51.3461057],[12.273184800000001,51.345962400000005],[12.273336100000002,51.345950200000004],[12.273348700000001,51.3460115],[12.2733793,51.3460091],[12.2733962,51.3460911],[12.273214300000001,51.3461057]]]}},{"type":"Feature","properties":{"id":"256078772","version":"1","building":"yes","changeSetId":"0","timestamp":"1389381233000"},"geometry":{"type":"Polygon","coordinates":[[[12.2739048,51.3474494],[12.273921300000001,51.347360900000005],[12.2740022,51.3473667],[12.2740053,51.3473502],[12.274107500000001,51.3473576],[12.274093800000001,51.3474312],[12.2740548,51.347428300000004],[12.274049000000002,51.3474598],[12.2739048,51.3474494]]]}},{"type":"Feature","properties":{"id":"256078773","version":"1","building":"yes","changeSetId":"0","timestamp":"1389381233000"},"geometry":{"type":"Polygon","coordinates":[[[12.2725422,51.3457237],[12.2725185,51.345612200000005],[12.272777600000001,51.3455907],[12.2727693,51.345551400000005],[12.272989200000001,51.345533200000006],[12.273009700000001,51.345629900000006],[12.272794200000002,51.3456477],[12.272805700000001,51.3457019],[12.2725422,51.3457237]]]}},{"type":"Feature","properties":{"amenity":"fuel","addr:country":"DE","name":"Total","id":"256560553","version":"1","brand":"Total","building":"yes","operator":"Total","changeSetId":"0","timestamp":"1389700642000","addr:city":"Leipzig"},"geometry":{"type":"Polygon","coordinates":[[[12.2609378,51.3461651],[12.2608847,51.3459232],[12.260747400000001,51.3459349],[12.2607268,51.345841400000005],[12.2611065,51.3458088],[12.261127,51.3459024],[12.261068700000001,51.3459074],[12.261121800000002,51.3461494],[12.2609378,51.3461651]]]}},{"type":"Feature","properties":{"id":"257620119","version":"1","building":"yes","changeSetId":"0","timestamp":"1390309176000"},"geometry":{"type":"Polygon","coordinates":[[[12.2972517,51.3398228],[12.2974458,51.339797000000004],[12.2973721,51.339581200000005],[12.297178,51.3396071],[12.2972517,51.3398228]]]}},{"type":"Feature","properties":{"id":"257620121","version":"1","building":"yes","changeSetId":"0","timestamp":"1390309176000"},"geometry":{"type":"Polygon","coordinates":[[[12.2965525,51.3399676],[12.296710200000001,51.340065300000006],[12.296958700000001,51.3399087],[12.296801,51.339811000000005],[12.2965525,51.3399676]]]}},{"type":"Feature","properties":{"id":"257620124","version":"1","building":"yes","changeSetId":"0","timestamp":"1390309176000"},"geometry":{"type":"Polygon","coordinates":[[[12.2969126,51.339612300000006],[12.297085200000001,51.33959230000001],[12.296996700000001,51.339294900000006],[12.296824200000001,51.339314900000005],[12.2968466,51.339390400000006],[12.2968677,51.339461400000005],[12.296891700000002,51.3395421],[12.2969126,51.339612300000006]]]}},{"type":"Feature","properties":{"id":"263228954","source":"Bing","version":"1","building":"yes","changeSetId":"0","timestamp":"1393258287000"},"geometry":{"type":"Polygon","coordinates":[[[12.2567765,51.3570432],[12.256549900000001,51.356816200000004],[12.256686100000001,51.3567632],[12.2569127,51.356990100000004],[12.2567765,51.3570432]]]}},{"type":"Feature","properties":{"id":"263228955","source":"Bing","version":"1","building":"yes","changeSetId":"0","timestamp":"1393258287000"},"geometry":{"type":"Polygon","coordinates":[[[12.2566114,51.3566038],[12.256564800000001,51.356557200000005],[12.256867600000001,51.356439300000005],[12.2570496,51.356621600000004],[12.256746900000001,51.3567395],[12.2566114,51.3566038]]]}},{"type":"Feature","properties":{"id":"263228956","source":"Bing","version":"1","building":"yes","changeSetId":"0","timestamp":"1393258287000"},"geometry":{"type":"Polygon","coordinates":[[[12.256549900000001,51.356816200000004],[12.2565086,51.356774900000005],[12.256457000000001,51.356795000000005],[12.256362800000002,51.356700700000005],[12.2566114,51.3566038],[12.256746900000001,51.3567395],[12.256686100000001,51.3567632],[12.256549900000001,51.356816200000004]]]}},{"type":"Feature","properties":{"id":"274764286","version":"1","building":"yes","changeSetId":"0","timestamp":"1397643516000"},"geometry":{"type":"Polygon","coordinates":[[[12.285884900000001,51.3449442],[12.286205500000001,51.344914900000006],[12.286166600000001,51.3447491],[12.285846000000001,51.344778500000004],[12.285884900000001,51.3449442]]]}},{"type":"Feature","properties":{"roof:shape":"gabled","roof:colour":"red","building:levels":"2","id":"277274754","addr:street":"Bussardweg","version":"3","addr:postcode":"04178","building":"residential","changeSetId":"0","timestamp":"1399834606000","addr:city":"Leipzig"},"geometry":{"type":"Polygon","coordinates":[[[12.262744900000001,51.3410379],[12.262621800000002,51.341035700000006],[12.2626228,51.340961400000005],[12.2627483,51.3409648],[12.2627454,51.341021600000005],[12.262744900000001,51.3410379]]]}},{"type":"Feature","properties":{"roof:shape":"gabled","roof:colour":"black","building:levels":"2","id":"277274755","roof:levels":"1","version":"3","building":"residential","changeSetId":"0","timestamp":"1431085197000"},"geometry":{"type":"Polygon","coordinates":[[[12.2622181,51.3408803],[12.262361100000001,51.3408828],[12.262357100000001,51.340971200000006],[12.2622852,51.340969900000005],[12.262256500000001,51.340969400000006],[12.262194500000001,51.3409683],[12.2621964,51.340926],[12.262216,51.34092630000001],[12.2622181,51.3408803]]]}},{"type":"Feature","properties":{"roof:shape":"gabled","roof:colour":"black","building:levels":"2","id":"277274756","addr:street":"Bussardweg","version":"3","addr:postcode":"04178","building":"residential","changeSetId":"0","timestamp":"1400228222000","addr:city":"Leipzig"},"geometry":{"type":"Polygon","coordinates":[[[12.2623557,51.3411046],[12.2622832,51.341103200000006],[12.262268200000001,51.341096500000006],[12.262246900000001,51.341095800000005],[12.2622298,51.341102500000005],[12.2622178,51.3411022],[12.2622122,51.3411996],[12.262351500000001,51.341202],[12.262353000000001,51.3411692],[12.2623557,51.3411046]]]}},{"type":"Feature","properties":{"roof:shape":"flat","roof:colour":"black","id":"277274757","version":"3","building":"garage","changeSetId":"0","timestamp":"1431085199000","capacity":"2"},"geometry":{"type":"Polygon","coordinates":[[[12.262160300000001,51.3410182],[12.2622546,51.3410195],[12.262255600000001,51.340994300000006],[12.262256500000001,51.340969400000006],[12.262194500000001,51.3409683],[12.262162100000001,51.340968000000004],[12.262160300000001,51.3410182]]]}},{"type":"Feature","properties":{"roof:orientation":"along","roof:shape":"gabled","roof:colour":"black","building:levels":"2","version":"2","addr:postcode":"04178","building":"residential","addr:city":"Leipzig","id":"277274758","addr:street":"Wachbergallee","roof:levels":"1","changeSetId":"0","timestamp":"1398531415000"},"geometry":{"type":"Polygon","coordinates":[[[12.261871900000001,51.34090380000001],[12.261922100000001,51.3408936],[12.2619199,51.3408893],[12.2619527,51.3408826],[12.2619821,51.3408766],[12.2619843,51.34088130000001],[12.2620375,51.340871],[12.2620851,51.3409623],[12.2619199,51.3409959],[12.261871900000001,51.34090380000001]]]}},{"type":"Feature","properties":{"roof:shape":"flat","roof:colour":"black","id":"277274759","version":"2","building":"garage","changeSetId":"0","timestamp":"1398531415000"},"geometry":{"type":"Polygon","coordinates":[[[12.2622122,51.3411996],[12.262351500000001,51.341202],[12.2623498,51.3412407],[12.2622105,51.3412383],[12.2622122,51.3411996]]]}},{"type":"Feature","properties":{"roof:shape":"flat","roof:colour":"black","id":"277323914","building:colour":"white","version":"2","building":"shed","changeSetId":"0","timestamp":"1431085197000","building:material":"wood"},"geometry":{"type":"Polygon","coordinates":[[[12.262193600000002,51.3408621],[12.2622435,51.340862300000005],[12.2622438,51.340833100000005],[12.262194000000001,51.3408329],[12.262193600000002,51.3408621]]]}},{"type":"Feature","properties":{"roof:shape":"flat","building:levels":"1","id":"277323915","version":"1","building":"shed","changeSetId":"0","timestamp":"1398531414000"},"geometry":{"type":"Polygon","coordinates":[[[12.262178800000001,51.341051400000005],[12.262179900000001,51.3410242],[12.262225800000001,51.3410249],[12.2622247,51.341052100000006],[12.262178800000001,51.341051400000005]]]}},{"type":"Feature","properties":{"roof:orientation":"along","roof:shape":"gabled","roof:colour":"black","id":"277323916","addr:street":"Wachbergallee","version":"1","addr:postcode":"04178","building":"residential","changeSetId":"0","timestamp":"1398531414000","addr:city":"Leipzig"},"geometry":{"type":"Polygon","coordinates":[[[12.261637700000001,51.3409532],[12.261689700000002,51.340942600000005],[12.261761300000002,51.340928000000005],[12.261802600000001,51.3410073],[12.261679,51.3410324],[12.261637700000001,51.3409532]]]}},{"type":"Feature","properties":{"addr:housenumber":"9","id":"281146007","addr:street":"Wachbergallee","version":"1","addr:postcode":"04178","building":"residential","changeSetId":"0","timestamp":"1399834605000","addr:city":"Leipzig"},"geometry":{"type":"Polygon","coordinates":[[[12.261517000000001,51.3407532],[12.2616536,51.340726000000004],[12.2616063,51.340628300000006],[12.261538100000001,51.3406431],[12.261545,51.340658000000005],[12.2614792,51.340670700000004],[12.261517000000001,51.3407532]]]}},{"type":"Feature","properties":{"id":"281146008","version":"2","building":"residential","changeSetId":"0","timestamp":"1400228222000"},"geometry":{"type":"Polygon","coordinates":[[[12.261964,51.340571800000006],[12.262078500000001,51.340548000000005],[12.2621204,51.340626900000004],[12.2620658,51.3406384],[12.262007200000001,51.340650200000006],[12.261964,51.340571800000006]]]}},{"type":"Feature","properties":{"id":"281146009","version":"2","building":"garages","changeSetId":"0","timestamp":"1431085198000"},"geometry":{"type":"Polygon","coordinates":[[[12.2618544,51.3417314],[12.2618995,51.342039500000006],[12.2618249,51.342043800000006],[12.2617799,51.3417357],[12.2618544,51.3417314]]]}},{"type":"Feature","properties":{"addr:housenumber":"7","id":"281146010","addr:street":"Wachbergallee","version":"1","addr:postcode":"04178","building":"residential","changeSetId":"0","timestamp":"1399834605000","addr:city":"Leipzig"},"geometry":{"type":"Polygon","coordinates":[[[12.2617512,51.340707300000005],[12.261866900000001,51.3406831],[12.2618171,51.340587600000006],[12.2617048,51.3406071],[12.2617512,51.340707300000005]]]}},{"type":"Feature","properties":{"id":"281146011","version":"2","building":"garages","changeSetId":"0","timestamp":"1439464812000"},"geometry":{"type":"Polygon","coordinates":[[[12.262521300000001,51.341935600000006],[12.262523400000001,51.341891600000004],[12.2628456,51.3418938],[12.2628453,51.3418817],[12.2630064,51.341884300000004],[12.2630093,51.341930700000006],[12.262851600000001,51.3419304],[12.262851900000001,51.34194170000001],[12.262521300000001,51.341935600000006]]]}},{"type":"Feature","properties":{"id":"281146015","version":"2","building":"residential","changeSetId":"0","timestamp":"1400228222000"},"geometry":{"type":"Polygon","coordinates":[[[12.2621988,51.3413814],[12.2621993,51.341300100000005],[12.2623441,51.3413005],[12.262343900000001,51.3413362],[12.262343600000001,51.3413818],[12.2621988,51.3413814]]]}},{"type":"Feature","properties":{"addr:housenumber":"3","name":"Musterhaus","building:levels":"2","id":"281146016","source":"local_knowledge","addr:street":"Wachbergallee","version":"2","addr:postcode":"04178","building":"residential","changeSetId":"0","timestamp":"1443868564000","addr:city":"Leipzig"},"geometry":{"type":"Polygon","coordinates":[[[12.2622604,51.340602100000005],[12.262394100000002,51.340573400000004],[12.262349,51.3404766],[12.2622882,51.3404874],[12.2622947,51.340504100000004],[12.2622221,51.34051830000001],[12.2622604,51.340602100000005]]]}},{"type":"Feature","properties":{"historic":"technical_monument","name":"Sperrtor Burghausen","id":"292291359","version":"3","building":"yes","changeSetId":"0","timestamp":"1405076658000"},"geometry":{"type":"Polygon","coordinates":[[[12.245080100000001,51.356083100000006],[12.2450869,51.356020400000006],[12.2452023,51.3560254],[12.2451954,51.3560881],[12.245080100000001,51.356083100000006]]]}},{"type":"Feature","properties":{"id":"296902423","power":"substation","version":"2","building":"yes","changeSetId":"0","timestamp":"1451324460000"},"geometry":{"type":"Polygon","coordinates":[[[12.2820961,51.339454],[12.282093000000001,51.3394199],[12.282129300000001,51.3394186],[12.2821324,51.3394527],[12.2820961,51.339454]]]}},{"type":"Feature","properties":{"id":"296902424","power":"substation","version":"2","building":"yes","changeSetId":"0","timestamp":"1451324460000"},"geometry":{"type":"Polygon","coordinates":[[[12.282095900000002,51.3394994],[12.282096000000001,51.3394685],[12.282129600000001,51.339468600000004],[12.2821294,51.3394994],[12.282095900000002,51.3394994]]]}},{"type":"Feature","properties":{"ref":"8096","id":"296902425","power":"sub_station","version":"2","building":"yes","changeSetId":"0","timestamp":"1409496561000"},"geometry":{"type":"Polygon","coordinates":[[[12.2817865,51.3424288],[12.2817842,51.3423974],[12.2818204,51.342396400000005],[12.281822700000001,51.3424277],[12.2817865,51.3424288]]]}},{"type":"Feature","properties":{"ref":"8092","id":"301086705","power":"sub_station","version":"1","building":"yes","changeSetId":"0","timestamp":"1409496561000"},"geometry":{"type":"Polygon","coordinates":[[[12.2745542,51.342258300000005],[12.274628300000002,51.3422537],[12.274640900000001,51.3423322],[12.2745669,51.342336800000005],[12.2745542,51.342258300000005]]]}},{"type":"Feature","properties":{"id":"307452090","power":"sub_station","version":"1","building":"yes","changeSetId":"0","timestamp":"1413126003000"},"geometry":{"type":"Polygon","coordinates":[[[12.25304,51.3451278],[12.2530228,51.3451085],[12.2530642,51.345094100000004],[12.253081400000001,51.345113500000004],[12.25304,51.3451278]]]}},{"type":"Feature","properties":{"id":"307452673","power":"sub_station","version":"1","building":"yes","changeSetId":"0","timestamp":"1413126361000"},"geometry":{"type":"Polygon","coordinates":[[[12.265500800000002,51.3569496],[12.2655787,51.356963900000004],[12.2655984,51.35692220000001],[12.265520500000001,51.3569079],[12.265500800000002,51.3569496]]]}},{"type":"Feature","properties":{"id":"307452674","power":"sub_station","version":"1","building":"yes","changeSetId":"0","timestamp":"1413126361000"},"geometry":{"type":"Polygon","coordinates":[[[12.2619161,51.3566536],[12.261977400000001,51.356673400000005],[12.2620006,51.356645500000006],[12.261939300000002,51.3566256],[12.2619161,51.3566536]]]}},{"type":"Feature","properties":{"addr:housenumber":"22","id":"309878057","addr:street":"An der Vogelweide","version":"1","addr:postcode":"04178","building":"house","changeSetId":"0","timestamp":"1414402429000","addr:city":"Leipzig"},"geometry":{"type":"Polygon","coordinates":[[[12.2654554,51.342507100000006],[12.265440700000001,51.3424234],[12.265579,51.3424138],[12.265593800000001,51.3424976],[12.2654554,51.342507100000006]]]}},{"type":"Feature","properties":{"addr:housenumber":"24","id":"309878058","addr:street":"An der Vogelweide","version":"1","addr:postcode":"04178","building":"house","changeSetId":"0","timestamp":"1414402429000","addr:city":"Leipzig"},"geometry":{"type":"Polygon","coordinates":[[[12.2656699,51.342503400000005],[12.265659300000001,51.342449800000004],[12.265796700000001,51.3424392],[12.2658073,51.3424928],[12.2656699,51.342503400000005]]]}},{"type":"Feature","properties":{"addr:housenumber":"26","id":"309878060","addr:street":"An der Vogelweide","version":"1","addr:postcode":"04178","building":"house","changeSetId":"0","timestamp":"1414402429000","addr:city":"Leipzig"},"geometry":{"type":"Polygon","coordinates":[[[12.2658941,51.34245670000001],[12.2658743,51.342384700000004],[12.2659835,51.3423731],[12.2660032,51.342445000000005],[12.2658941,51.34245670000001]]]}},{"type":"Feature","properties":{"addr:housenumber":"34","id":"309878062","addr:street":"An der Vogelweide","version":"1","addr:postcode":"04178","building":"house","changeSetId":"0","timestamp":"1414402429000","addr:city":"Leipzig"},"geometry":{"type":"Polygon","coordinates":[[[12.2667377,51.342414100000006],[12.2667221,51.3423219],[12.266845700000001,51.3423129],[12.2668601,51.3424051],[12.2667377,51.342414100000006]]]}},{"type":"Feature","properties":{"addr:housenumber":"10","id":"319954283","addr:street":"Sandberg","version":"1","addr:postcode":"04178","building":"commercial","changeSetId":"0","timestamp":"1420155695000","addr:city":"Leipzig"},"geometry":{"type":"Polygon","coordinates":[[[12.255683600000001,51.3466947],[12.2556531,51.3465482],[12.2553619,51.3465719],[12.2549284,51.3466048],[12.2549465,51.346671],[12.2549215,51.3466947],[12.254926800000002,51.346729100000005],[12.254964800000002,51.3467537],[12.2549685,51.3467793],[12.2553999,51.346744300000005],[12.2553934,51.346718700000004],[12.255683600000001,51.3466947]]]}},{"type":"Feature","properties":{"id":"319954284","version":"1","building":"house","changeSetId":"0","timestamp":"1420155695000"},"geometry":{"type":"Polygon","coordinates":[[[12.2556551,51.3463901],[12.255619600000001,51.3462918],[12.255371700000001,51.346327800000005],[12.2553757,51.3463409],[12.2552996,51.346354000000005],[12.2553271,51.346436000000004],[12.2556551,51.3463901]]]}},{"type":"Feature","properties":{"shop":"car","name":"Automobile Panzer","id":"334182801","version":"2","building":"yes","changeSetId":"0","timestamp":"1433875243000"},"geometry":{"type":"Polygon","coordinates":[[[12.2693761,51.3452952],[12.269734000000001,51.3452665],[12.269658600000001,51.344899100000006],[12.269370200000001,51.344922200000006],[12.269417500000001,51.345152600000006],[12.269348,51.345158100000006],[12.2693761,51.3452952]]]}},{"type":"Feature","properties":{"id":"342096790","power":"sub_station","version":"1","building":"yes","changeSetId":"0","timestamp":"1430494673000"},"geometry":{"type":"Polygon","coordinates":[[[12.2440347,51.356672700000004],[12.2440443,51.3566183],[12.2441651,51.356626600000006],[12.244155600000001,51.3566809],[12.2440347,51.356672700000004]]]}},{"type":"Feature","properties":{"id":"343683818","version":"1","building":"apartments","changeSetId":"0","timestamp":"1431085182000"},"geometry":{"type":"Polygon","coordinates":[[[12.2620646,51.3422926],[12.262030900000001,51.3421521],[12.262280500000001,51.3421287],[12.2623142,51.342269300000005],[12.2620646,51.3422926]]]}},{"type":"Feature","properties":{"id":"343683819","version":"1","building":"residential","changeSetId":"0","timestamp":"1431085182000"},"geometry":{"type":"Polygon","coordinates":[[[12.262175200000001,51.341992000000005],[12.2621599,51.3418931],[12.2623118,51.341883900000006],[12.2623271,51.341982900000005],[12.262175200000001,51.341992000000005]]]}},{"type":"Feature","properties":{"id":"343683820","version":"1","building":"residential","changeSetId":"0","timestamp":"1431085182000"},"geometry":{"type":"Polygon","coordinates":[[[12.2619717,51.3416432],[12.2619576,51.3415259],[12.2621204,51.341518300000004],[12.2621345,51.341635600000004],[12.2619717,51.3416432]]]}},{"type":"Feature","properties":{"id":"343683821","version":"1","building":"residential","changeSetId":"0","timestamp":"1431085182000"},"geometry":{"type":"Polygon","coordinates":[[[12.261695900000001,51.341663800000006],[12.2616785,51.3415471],[12.261857000000001,51.341536700000006],[12.2618744,51.341653400000006],[12.261695900000001,51.341663800000006]]]}},{"type":"Feature","properties":{"id":"343683822","version":"2","building":"residential","changeSetId":"0","timestamp":"1442519918000"},"geometry":{"type":"Polygon","coordinates":[[[12.2614639,51.3410796],[12.2614181,51.3409945],[12.2615434,51.340968200000006],[12.2615639,51.3410066],[12.2615887,51.341053900000006],[12.2614639,51.3410796]]]}},{"type":"Feature","properties":{"id":"343683823","version":"1","building":"residential","changeSetId":"0","timestamp":"1431085182000"},"geometry":{"type":"Polygon","coordinates":[[[12.2610349,51.341168800000005],[12.260985000000002,51.341070900000005],[12.2611266,51.3410427],[12.261176500000001,51.3411406],[12.2610349,51.341168800000005]]]}},{"type":"Feature","properties":{"id":"343683824","version":"1","building":"residential","changeSetId":"0","timestamp":"1431085182000"},"geometry":{"type":"Polygon","coordinates":[[[12.261254300000001,51.340809500000006],[12.2611901,51.34069280000001],[12.2613362,51.3406614],[12.2614003,51.3407781],[12.261254300000001,51.340809500000006]]]}},{"type":"Feature","properties":{"roof:shape":"gabled","id":"343683825","addr:street":"Wachbergallee","version":"1","addr:postcode":"04178","building":"residential","changeSetId":"0","timestamp":"1431085182000","addr:city":"Leipzig"},"geometry":{"type":"Polygon","coordinates":[[[12.260773,51.3412214],[12.2607215,51.34112450000001],[12.2608128,51.341105600000006],[12.260863,51.341095100000004],[12.2609145,51.3411921],[12.260773,51.3412214]]]}},{"type":"Feature","properties":{"id":"343683826","version":"1","building":"residential","changeSetId":"0","timestamp":"1431085182000"},"geometry":{"type":"Polygon","coordinates":[[[12.260841000000001,51.3408953],[12.260792400000001,51.3408035],[12.260935700000001,51.3407739],[12.2609843,51.3408656],[12.260841000000001,51.3408953]]]}},{"type":"Feature","properties":{"id":"343683827","addr:street":"Wachbergallee","version":"1","addr:postcode":"04178","building":"residential","changeSetId":"0","timestamp":"1431085182000","addr:city":"Leipzig"},"geometry":{"type":"Polygon","coordinates":[[[12.2606129,51.3409406],[12.260564200000001,51.3408372],[12.2607142,51.3408096],[12.260762900000001,51.340913],[12.260699,51.3409247],[12.2606129,51.3409406]]]}},{"type":"Feature","properties":{"roof:shape":"gabled","id":"343683829","addr:street":"Wachbergallee","version":"1","addr:postcode":"04178","building":"residential","changeSetId":"0","timestamp":"1431085183000","addr:city":"Leipzig"},"geometry":{"type":"Polygon","coordinates":[[[12.2590213,51.3412628],[12.258980800000002,51.3411814],[12.259035800000001,51.341170700000006],[12.259029900000002,51.3411589],[12.259102500000001,51.3411448],[12.259148900000001,51.341238000000004],[12.2590213,51.3412628]]]}},{"type":"Feature","properties":{"roof:shape":"gabled","id":"343683830","addr:street":"Wachbergallee","version":"1","addr:postcode":"04178","building":"residential","changeSetId":"0","timestamp":"1431085183000","addr:city":"Leipzig"},"geometry":{"type":"Polygon","coordinates":[[[12.259240400000001,51.3412196],[12.2591903,51.341118300000005],[12.259350300000001,51.341087400000006],[12.2594004,51.341188700000004],[12.259240400000001,51.3412196]]]}},{"type":"Feature","properties":{"addr:housenumber":"7","id":"343683845","addr:street":"An den Linden","version":"1","addr:postcode":"04178","building":"apartments","changeSetId":"0","timestamp":"1431085184000","addr:city":"Leipzig"},"geometry":{"type":"Polygon","coordinates":[[[12.265056000000001,51.3438153],[12.265028500000001,51.343696],[12.2652312,51.3436778],[12.2652479,51.3437506],[12.265258600000001,51.343797200000004],[12.265118800000002,51.3438097],[12.265056000000001,51.3438153]]]}},{"type":"Feature","properties":{"id":"352648061","source":"bing","version":"1","building":"yes","changeSetId":"0","timestamp":"1433875238000"},"geometry":{"type":"Polygon","coordinates":[[[12.2934026,51.3431292],[12.2933616,51.3429604],[12.293187300000001,51.342976900000004],[12.2932283,51.3431457],[12.2934026,51.3431292]]]}},{"type":"Feature","properties":{"id":"352648063","source":"bing","version":"1","building":"yes","changeSetId":"0","timestamp":"1433875239000"},"geometry":{"type":"Polygon","coordinates":[[[12.2510635,51.346515800000006],[12.2512538,51.3465697],[12.251467,51.3462802],[12.251608000000001,51.346318700000005],[12.251347200000001,51.346679800000004],[12.2510618,51.34667760000001],[12.2510635,51.346515800000006]]]}},{"type":"Feature","properties":{"addr:housenumber":"217","id":"352648064","source":"bing","addr:street":"Merseburger Straße","version":"1","building":"yes","changeSetId":"0","timestamp":"1433875239000","addr:city":"Leipzig"},"geometry":{"type":"Polygon","coordinates":[[[12.2932532,51.3432584],[12.2932357,51.3431836],[12.293414400000001,51.343167300000005],[12.2934318,51.343242200000006],[12.2932532,51.3432584]]]}},{"type":"Feature","properties":{"id":"353438035","power":"sub_station","version":"1","building":"yes","changeSetId":"0","timestamp":"1434201641000"},"geometry":{"type":"Polygon","coordinates":[[[12.26778,51.3441817],[12.2678328,51.344176600000004],[12.2678381,51.344198000000006],[12.2677853,51.3442031],[12.26778,51.3441817]]]}},{"type":"Feature","properties":{"id":"365973208","power":"sub_station","version":"1","building":"yes","changeSetId":"0","timestamp":"1439727178000"},"geometry":{"type":"Polygon","coordinates":[[[12.260624,51.3447587],[12.260602500000001,51.3447315],[12.2606307,51.34472280000001],[12.260652200000001,51.344750000000005],[12.260624,51.3447587]]]}},{"type":"Feature","properties":{"id":"369924279","version":"1","building":"house","changeSetId":"0","timestamp":"1441831866000"},"geometry":{"type":"Polygon","coordinates":[[[12.2837388,51.3432885],[12.283759000000002,51.3433651],[12.2835692,51.3433846],[12.283549,51.343308],[12.2837388,51.3432885]]]}},{"type":"Feature","properties":{"id":"369924280","version":"1","building":"house","changeSetId":"0","timestamp":"1441831866000"},"geometry":{"type":"Polygon","coordinates":[[[12.2832355,51.343401],[12.283057300000001,51.343415400000005],[12.2830358,51.3433111],[12.283214000000001,51.343296800000005],[12.2832355,51.343401]]]}},{"type":"Feature","properties":{"id":"369924281","version":"1","building":"house","changeSetId":"0","timestamp":"1441831866000"},"geometry":{"type":"Polygon","coordinates":[[[12.2830265,51.3434953],[12.28317,51.3434837],[12.283156100000001,51.343417],[12.283012600000001,51.343428700000004],[12.2830265,51.3434953]]]}},{"type":"Feature","properties":{"id":"369924282","version":"1","building":"house","changeSetId":"0","timestamp":"1441831867000"},"geometry":{"type":"Polygon","coordinates":[[[12.2833682,51.3431288],[12.2835447,51.3431124],[12.2835186,51.3430023],[12.283342000000001,51.3430187],[12.2833682,51.3431288]]]}},{"type":"Feature","properties":{"id":"369924283","version":"1","building":"house","changeSetId":"0","timestamp":"1441831867000"},"geometry":{"type":"Polygon","coordinates":[[[12.283243,51.34316140000001],[12.283217700000002,51.343051200000005],[12.2830843,51.3430631],[12.2830803,51.343074200000004],[12.2830156,51.34308],[12.283012000000001,51.3430643],[12.282862300000001,51.3430777],[12.2828897,51.3431975],[12.283025,51.3431854],[12.283019600000001,51.3431617],[12.283082400000001,51.3431561],[12.283086800000001,51.3431754],[12.283243,51.34316140000001]]]}},{"type":"Feature","properties":{"id":"370324117","power":"sub_station","version":"1","building":"yes","changeSetId":"0","timestamp":"1442073442000"},"geometry":{"type":"Polygon","coordinates":[[[12.252191600000002,51.3525635],[12.252236900000002,51.352522],[12.2523201,51.3525575],[12.2522748,51.352598900000004],[12.252191600000002,51.3525635]]]}},{"type":"Feature","properties":{"id":"370686634","version":"1","building":"house","changeSetId":"0","timestamp":"1442304546000"},"geometry":{"type":"Polygon","coordinates":[[[12.2603798,51.340982200000006],[12.260336700000002,51.340898300000006],[12.2604932,51.3408669],[12.2605363,51.3409508],[12.2603798,51.340982200000006]]]}},{"type":"Feature","properties":{"addr:housenumber":"24a","id":"371256789","addr:street":"Sandberg","version":"1","addr:postcode":"04178","building":"residential","changeSetId":"0","timestamp":"1442519901000","addr:city":"Leipzig"},"geometry":{"type":"Polygon","coordinates":[[[12.2582331,51.346033600000005],[12.258212400000001,51.345949100000006],[12.2583254,51.3459383],[12.2583461,51.3460228],[12.2582331,51.346033600000005]]]}},{"type":"Feature","properties":{"id":"371256790","addr:street":"Sandberg","version":"1","addr:postcode":"04178","building":"residential","changeSetId":"0","timestamp":"1442519901000","addr:city":"Leipzig"},"geometry":{"type":"Polygon","coordinates":[[[12.2578224,51.346209],[12.2577917,51.3460703],[12.2579352,51.346058000000006],[12.2579659,51.3461967],[12.2578224,51.346209]]]}},{"type":"Feature","properties":{"id":"371256791","addr:street":"Sandberg","version":"1","addr:postcode":"04178","building":"residential","changeSetId":"0","timestamp":"1442519901000","addr:city":"Leipzig"},"geometry":{"type":"Polygon","coordinates":[[[12.257873400000001,51.346461100000006],[12.257841800000001,51.3463148],[12.257996200000001,51.346301800000006],[12.258027700000001,51.346448200000005],[12.257873400000001,51.346461100000006]]]}},{"type":"Feature","properties":{"addr:housenumber":"24b","id":"371256792","addr:street":"Sandberg","version":"1","addr:postcode":"04178","building":"residential","changeSetId":"0","timestamp":"1442519901000","addr:city":"Leipzig"},"geometry":{"type":"Polygon","coordinates":[[[12.258158600000002,51.345893100000005],[12.2581375,51.345802600000006],[12.2583354,51.3457845],[12.258356500000001,51.3458751],[12.258158600000002,51.345893100000005]]]}},{"type":"Feature","properties":{"id":"371256793","version":"1","building":"residential","changeSetId":"0","timestamp":"1442519901000"},"geometry":{"type":"Polygon","coordinates":[[[12.258336600000002,51.345635900000005],[12.2583184,51.3455335],[12.2584838,51.345522],[12.258502,51.34562450000001],[12.258336600000002,51.345635900000005]]]}},{"type":"Feature","properties":{"id":"371256794","version":"1","building":"residential","changeSetId":"0","timestamp":"1442519902000"},"geometry":{"type":"Polygon","coordinates":[[[12.2583085,51.3454222],[12.2582882,51.345310000000005],[12.258550600000001,51.3452914],[12.2585709,51.345403600000004],[12.2583085,51.3454222]]]}},{"type":"Feature","properties":{"id":"371256795","version":"1","building":"residential","changeSetId":"0","timestamp":"1442519902000"},"geometry":{"type":"Polygon","coordinates":[[[12.2578774,51.345480800000004],[12.2578568,51.345383000000005],[12.2580244,51.3453692],[12.258045000000001,51.3454671],[12.2578774,51.345480800000004]]]}},{"type":"Feature","properties":{"id":"371256797","version":"1","building":"residential","changeSetId":"0","timestamp":"1442519902000"},"geometry":{"type":"Polygon","coordinates":[[[12.2577057,51.345166400000004],[12.2576877,51.34507240000001],[12.257839200000001,51.345061],[12.2578572,51.34515510000001],[12.2577057,51.345166400000004]]]}},{"type":"Feature","properties":{"id":"371256798","version":"1","building":"residential","changeSetId":"0","timestamp":"1442519902000"},"geometry":{"type":"Polygon","coordinates":[[[12.2579986,51.3451449],[12.2579787,51.3450545],[12.2581346,51.3450411],[12.2581544,51.3451316],[12.2579986,51.3451449]]]}},{"type":"Feature","properties":{"id":"371256799","version":"1","building":"residential","changeSetId":"0","timestamp":"1442519902000"},"geometry":{"type":"Polygon","coordinates":[[[12.2582941,51.3451236],[12.258280000000001,51.345036400000005],[12.2584166,51.345027900000005],[12.2584306,51.3451151],[12.2582941,51.3451236]]]}},{"type":"Feature","properties":{"id":"371256800","version":"1","building":"terrace","changeSetId":"0","timestamp":"1442519902000"},"geometry":{"type":"Polygon","coordinates":[[[12.258726300000001,51.345390900000005],[12.258704700000001,51.3452859],[12.258911900000001,51.345269300000005],[12.258933500000001,51.3453743],[12.258726300000001,51.345390900000005]]]}},{"type":"Feature","properties":{"id":"371256831","version":"1","building":"garage","changeSetId":"0","timestamp":"1442519904000"},"geometry":{"type":"Polygon","coordinates":[[[12.261822700000002,51.341024000000004],[12.2617954,51.3409714],[12.2618662,51.340957100000004],[12.261893500000001,51.3410097],[12.261822700000002,51.341024000000004]]]}},{"type":"Feature","properties":{"id":"371256832","version":"1","building":"garage","changeSetId":"0","timestamp":"1442519904000"},"geometry":{"type":"Polygon","coordinates":[[[12.2615887,51.341053900000006],[12.2615639,51.3410066],[12.2616107,51.3409971],[12.261635400000001,51.3410444],[12.2615887,51.341053900000006]]]}},{"type":"Feature","properties":{"id":"371256833","version":"1","building":"terrace","changeSetId":"0","timestamp":"1442519904000"},"geometry":{"type":"Polygon","coordinates":[[[12.262543500000001,51.3417742],[12.262549400000001,51.3416665],[12.262998900000001,51.3416761],[12.2629929,51.3417838],[12.262543500000001,51.3417742]]]}},{"type":"Feature","properties":{"id":"371256834","version":"1","building":"terrace","changeSetId":"0","timestamp":"1442519904000"},"geometry":{"type":"Polygon","coordinates":[[[12.262559600000001,51.341550100000006],[12.262566000000001,51.3414463],[12.2630013,51.3414568],[12.2629949,51.3415606],[12.262559600000001,51.341550100000006]]]}},{"type":"Feature","properties":{"id":"371256836","version":"1","building":"residential","changeSetId":"0","timestamp":"1442519904000"},"geometry":{"type":"Polygon","coordinates":[[[12.259204,51.341542700000005],[12.2591578,51.341453400000006],[12.2593048,51.3414238],[12.259350900000001,51.3415131],[12.259204,51.341542700000005]]]}},{"type":"Feature","properties":{"id":"371256837","version":"1","building":"residential","changeSetId":"0","timestamp":"1442519904000"},"geometry":{"type":"Polygon","coordinates":[[[12.259416000000002,51.3415059],[12.2593692,51.341407600000004],[12.259517500000001,51.3413801],[12.259564300000001,51.3414784],[12.259416000000002,51.3415059]]]}},{"type":"Feature","properties":{"id":"371256838","version":"1","building":"residential","changeSetId":"0","timestamp":"1442519904000"},"geometry":{"type":"Polygon","coordinates":[[[12.259628900000001,51.3414659],[12.2595807,51.341360200000004],[12.2597301,51.341333600000006],[12.2597783,51.341439400000006],[12.259628900000001,51.3414659]]]}},{"type":"Feature","properties":{"id":"371256839","version":"1","building":"residential","changeSetId":"0","timestamp":"1442519904000"},"geometry":{"type":"Polygon","coordinates":[[[12.259994800000001,51.3413704],[12.2599567,51.341289800000006],[12.259825500000002,51.341314000000004],[12.259863600000001,51.3413946],[12.259994800000001,51.3413704]]]}},{"type":"Feature","properties":{"id":"371256840","version":"1","building":"residential","changeSetId":"0","timestamp":"1442519904000"},"geometry":{"type":"Polygon","coordinates":[[[12.2594764,51.341170000000005],[12.2594373,51.341089200000006],[12.259586800000001,51.341061],[12.259625900000001,51.3411418],[12.2594764,51.341170000000005]]]}},{"type":"Feature","properties":{"id":"371256841","version":"1","building":"residential","changeSetId":"0","timestamp":"1442519904000"},"geometry":{"type":"Polygon","coordinates":[[[12.2597219,51.3411236],[12.2596789,51.341034900000004],[12.259800100000001,51.341012000000006],[12.259843100000001,51.341100700000005],[12.2597219,51.3411236]]]}},{"type":"Feature","properties":{"id":"371256842","version":"1","building":"residential","changeSetId":"0","timestamp":"1442519904000"},"geometry":{"type":"Polygon","coordinates":[[[12.259928700000001,51.3410772],[12.2598751,51.3409654],[12.260021400000001,51.3409381],[12.260074900000001,51.3410499],[12.259928700000001,51.3410772]]]}},{"type":"Feature","properties":{"id":"371256843","version":"1","building":"residential","changeSetId":"0","timestamp":"1442519904000"},"geometry":{"type":"Polygon","coordinates":[[[12.2600937,51.341372400000004],[12.26004,51.3412646],[12.260192700000001,51.3412349],[12.2602592,51.3413685],[12.2601306,51.3413934],[12.260117800000002,51.341367700000006],[12.2600937,51.341372400000004]]]}},{"type":"Feature","properties":{"id":"371256844","version":"1","building":"residential","changeSetId":"0","timestamp":"1442519905000"},"geometry":{"type":"Polygon","coordinates":[[[12.2603199,51.3413179],[12.260269500000001,51.3412153],[12.260412800000001,51.3411878],[12.260463300000001,51.341290400000005],[12.2603199,51.3413179]]]}},{"type":"Feature","properties":{"id":"371256845","version":"1","building":"residential","changeSetId":"0","timestamp":"1442519905000"},"geometry":{"type":"Polygon","coordinates":[[[12.2601592,51.341039200000004],[12.2601109,51.3409471],[12.2601826,51.3409324],[12.2601882,51.340920800000006],[12.2602436,51.3409095],[12.2602968,51.341011],[12.2601592,51.341039200000004]]]}},{"type":"Feature","properties":{"id":"371256846","version":"1","building":"residential","changeSetId":"0","timestamp":"1442519905000"},"geometry":{"type":"Polygon","coordinates":[[[12.260546100000001,51.341259900000004],[12.2605026,51.341171200000005],[12.2606356,51.341145700000006],[12.2606791,51.341234500000006],[12.260546100000001,51.341259900000004]]]}},{"type":"Feature","properties":{"id":"371256847","version":"1","building":"garages","changeSetId":"0","timestamp":"1442519905000"},"geometry":{"type":"Polygon","coordinates":[[[12.260598400000001,51.3420998],[12.2605617,51.3418191],[12.260641000000001,51.341815000000004],[12.260677600000001,51.3420957],[12.260598400000001,51.3420998]]]}},{"type":"Feature","properties":{"id":"371256848","version":"1","building":"garages","changeSetId":"0","timestamp":"1442519905000"},"geometry":{"type":"Polygon","coordinates":[[[12.260767300000001,51.3420994],[12.2607367,51.3418092],[12.260804400000001,51.3418064],[12.260835,51.342096700000006],[12.260767300000001,51.3420994]]]}},{"type":"Feature","properties":{"id":"381752978","power":"sub_station","version":"1","building":"yes","changeSetId":"0","timestamp":"1448121562000"},"geometry":{"type":"Polygon","coordinates":[[[12.2684218,51.343779500000004],[12.2684745,51.3437861],[12.2684683,51.3438055],[12.2684156,51.3437989],[12.2684218,51.343779500000004]]]}},{"type":"Feature","properties":{"addr:housenumber":"18","id":"384865653","addr:street":"An der Merseburger Straße","version":"1","building":"residential","changeSetId":"0","timestamp":"1449511889000"},"geometry":{"type":"Polygon","coordinates":[[[12.2892031,51.3435174],[12.289190300000001,51.343455000000006],[12.288953600000001,51.343478100000006],[12.288970200000001,51.343539],[12.2892031,51.3435174]]]}},{"type":"Feature","properties":{"id":"385561724","version":"1","building":"yes","changeSetId":"0","timestamp":"1449924703000"},"geometry":{"type":"Polygon","coordinates":[[[12.2593723,51.3417724],[12.2593618,51.341689300000006],[12.2595369,51.341681300000005],[12.2595486,51.3417644],[12.2593723,51.3417724]]]}},{"type":"Feature","properties":{"id":"385561725","version":"1","building":"yes","changeSetId":"0","timestamp":"1449924703000"},"geometry":{"type":"Polygon","coordinates":[[[12.259792200000001,51.341753600000004],[12.259782000000001,51.341670900000004],[12.2599291,51.341663800000006],[12.259939300000001,51.341746500000006],[12.259792200000001,51.341753600000004]]]}},{"type":"Feature","properties":{"id":"385561726","version":"1","building":"yes","changeSetId":"0","timestamp":"1449924703000"},"geometry":{"type":"Polygon","coordinates":[[[12.2601916,51.341624200000005],[12.2604219,51.3416118],[12.2604401,51.341742800000006],[12.2602098,51.3417553],[12.2601916,51.341624200000005]]]}}]}