{"type":"FeatureCollection","features":[{"type":"Feature","properties":{"parking":"multi-storey","amenity":"parking","fee":"0","id":"17262207","version":"5","building":"yes","changeSetId":"0","timestamp":"1386939867000"},"geometry":{"type":"Polygon","coordinates":[[[12.41374,51.3767475],[12.414060800000001,51.37668],[12.413980100000002,51.3765621],[12.414272,51.376495500000004],[12.4138183,51.3757779],[12.4135506,51.3757183],[12.4132314,51.3757816],[12.413306700000001,51.3759245],[12.41374,51.3767475]]]}},{"type":"Feature","properties":{"roof:shape":"flat","building:levels":"1","id":"24508202","version":"3","building":"garages","changeSetId":"0","timestamp":"1352218431000"},"geometry":{"type":"Polygon","coordinates":[[[12.398932100000001,51.378113400000004],[12.3990264,51.378104500000006],[12.3988957,51.3775653],[12.3988014,51.377574200000005],[12.398932100000001,51.378113400000004]]]}},{"type":"Feature","properties":{"roof:shape":"flat","building:levels":"1","id":"24508222","version":"2","building":"garages","changeSetId":"0","timestamp":"1352218431000"},"geometry":{"type":"Polygon","coordinates":[[[12.399724200000001,51.3780404],[12.399909300000001,51.3780226],[12.399776200000002,51.3774834],[12.3995911,51.377501200000005],[12.399724200000001,51.3780404]]]}},{"type":"Feature","properties":{"roof:shape":"flat","building:levels":"1","id":"24508224","version":"5","building":"garages","changeSetId":"0","timestamp":"1352218430000"},"geometry":{"type":"Polygon","coordinates":[[[12.4000137,51.378013100000004],[12.4001005,51.3780049],[12.3999634,51.37744360000001],[12.3998767,51.377451900000004],[12.4000137,51.378013100000004]]]}},{"type":"Feature","properties":{"roof:shape":"flat","building:levels":"1","id":"24508229","version":"3","building":"garages","changeSetId":"0","timestamp":"1352218431000"},"geometry":{"type":"Polygon","coordinates":[[[12.3988089,51.3775301],[12.3999457,51.3774163],[12.3999263,51.3773411],[12.398789500000001,51.377454900000004],[12.3988089,51.3775301]]]}},{"type":"Feature","properties":{"id":"24553468","source":"Yahoo","version":"1","created_by":"Potlatch 0.9a","building":"yes","changeSetId":"0","timestamp":"1211814484000"},"geometry":{"type":"Polygon","coordinates":[[[12.3953664,51.3878052],[12.396786700000002,51.3876599],[12.396714900000001,51.387386600000006],[12.395294600000001,51.387531900000006],[12.3953664,51.3878052]]]}},{"type":"Feature","properties":{"id":"24566120","source":"Yahoo","version":"2","created_by":"Potlatch 0.9b","building":"yes","changeSetId":"0","timestamp":"1211891384000"},"geometry":{"type":"Polygon","coordinates":[[[12.399583400000001,51.3771921],[12.399926200000001,51.3771695],[12.399815100000001,51.376512700000006],[12.3996098,51.3765262],[12.3996939,51.377023400000006],[12.399556400000002,51.377032500000006],[12.399583400000001,51.3771921]]]}},{"type":"Feature","properties":{"id":"25827412","addr:street":"Essener Straße","source":"Yahoo","version":"4","addr:postcode":"04357","building":"yes","changeSetId":"0","timestamp":"1261013249000"},"geometry":{"type":"Polygon","coordinates":[[[12.410980200000001,51.3751564],[12.411083600000001,51.3751467],[12.411090000000002,51.375173100000005],[12.411158400000001,51.3751667],[12.4111524,51.3751419],[12.411244700000001,51.3751333],[12.4112095,51.3749869],[12.410945400000001,51.3750116],[12.410980200000001,51.3751564]]]}},{"type":"Feature","properties":{"id":"25829883","addr:street":"Essener Straße","source":"Yahoo","version":"5","addr:postcode":"04357","building":"yes","changeSetId":"0","timestamp":"1261013250000"},"geometry":{"type":"Polygon","coordinates":[[[12.411354600000001,51.3751211],[12.4115993,51.3750961],[12.4115938,51.375075300000006],[12.411676400000001,51.3750669],[12.411683100000001,51.375092300000006],[12.411931500000001,51.3750669],[12.4118898,51.3749078],[12.411646800000002,51.3749327],[12.411650900000001,51.3749486],[12.4115604,51.374957800000004],[12.4115543,51.374934700000004],[12.411312200000001,51.3749594],[12.411354600000001,51.3751211]]]}},{"type":"Feature","properties":{"id":"25847971","version":"1","created_by":"Potlatch 0.10","building":"yes","changeSetId":"0","timestamp":"1217338155000"},"geometry":{"type":"Polygon","coordinates":[[[12.409372900000001,51.375277000000004],[12.410339200000001,51.375187700000005],[12.410316400000001,51.3750913],[12.409350000000002,51.3751806],[12.409372900000001,51.375277000000004]]]}},{"type":"Feature","properties":{"id":"25847973","version":"1","created_by":"Potlatch 0.10","building":"yes","changeSetId":"0","timestamp":"1217338169000"},"geometry":{"type":"Polygon","coordinates":[[[12.4081858,51.3753874],[12.409137600000001,51.3753046],[12.409114,51.3752074],[12.408160700000002,51.3752967],[12.4081858,51.3753874]]]}},{"type":"Feature","properties":{"id":"25848021","addr:street":"Essener Straße","source":"Yahoo","version":"5","addr:postcode":"04357","building":"yes","changeSetId":"0","timestamp":"1254225384000"},"geometry":{"type":"Polygon","coordinates":[[[12.4106576,51.3752044],[12.4108225,51.375189400000004],[12.410798300000002,51.3750864],[12.4106327,51.3751016],[12.4106576,51.3752044]]]}},{"type":"Feature","properties":{"addr:housenumber":"113","addr:country":"DE","id":"25848051","addr:street":"Essener Straße","source":"Yahoo","version":"6","addr:postcode":"04357","building":"yes","changeSetId":"0","timestamp":"1352068149000","addr:city":"Leipzig"},"geometry":{"type":"Polygon","coordinates":[[[12.4112489,51.375517900000006],[12.4112699,51.375612600000004],[12.4115227,51.375590800000005],[12.4115017,51.37549610000001],[12.4112489,51.375517900000006]]]}},{"type":"Feature","properties":{"id":"25848053","addr:street":"Essener Straße","source":"bing","version":"5","addr:postcode":"04357","building":"yes","changeSetId":"0","timestamp":"1295364781000"},"geometry":{"type":"Polygon","coordinates":[[[12.4112097,51.3755402],[12.411186,51.375443100000005],[12.410445600000001,51.375513500000004],[12.4104694,51.3756106],[12.4112097,51.3755402]]]}},{"type":"Feature","properties":{"addr:housenumber":"105","addr:country":"DE","id":"25848076","addr:street":"Essener Straße","source":"bing","version":"6","addr:postcode":"04357","building":"yes","changeSetId":"0","timestamp":"1352068149000","addr:city":"Leipzig"},"geometry":{"type":"Polygon","coordinates":[[[12.4104317,51.3755983],[12.410178,51.3756222],[12.410202,51.3757211],[12.4104556,51.375697200000005],[12.4104317,51.3755983]]]}},{"type":"Feature","properties":{"addr:housenumber":"85","addr:country":"DE","id":"25848078","addr:street":"Essener Straße","source":"Yahoo","version":"5","addr:postcode":"04357","building":"yes","changeSetId":"0","timestamp":"1352068150000","addr:city":"Leipzig"},"geometry":{"type":"Polygon","coordinates":[[[12.407149,51.376018300000005],[12.407409000000001,51.375993],[12.407385600000001,51.3758994],[12.4071256,51.375924700000006],[12.407149,51.376018300000005]]]}},{"type":"Feature","properties":{"addr:housenumber":"93","addr:country":"DE","id":"25848079","addr:street":"Essener Straße","source":"Yahoo","version":"4","addr:postcode":"04357","building":"yes","changeSetId":"0","timestamp":"1352068150000","addr:city":"Leipzig"},"geometry":{"type":"Polygon","coordinates":[[[12.4082132,51.375912500000005],[12.408469,51.3758868],[12.408443100000001,51.375786600000005],[12.408187300000002,51.3758123],[12.4082132,51.375912500000005]]]}},{"type":"Feature","properties":{"id":"25848085","addr:street":"Essener Straße","source":"bing","version":"6","addr:postcode":"04357","building":"yes","changeSetId":"0","timestamp":"1295364788000"},"geometry":{"type":"Polygon","coordinates":[[[12.4073779,51.3758129],[12.407399400000001,51.375902700000005],[12.408134200000001,51.37583600000001],[12.4081141,51.375739700000004],[12.4073779,51.3758129]]]}},{"type":"Feature","properties":{"addr:housenumber":"95","addr:country":"DE","id":"25848101","addr:street":"Essener Straße","source":"Yahoo","version":"5","addr:postcode":"04357","building":"yes","changeSetId":"0","timestamp":"1352068150000","addr:city":"Leipzig"},"geometry":{"type":"Polygon","coordinates":[[[12.4086867,51.375872400000006],[12.4089466,51.3758484],[12.408924200000001,51.37575390000001],[12.408664300000002,51.3757779],[12.4086867,51.375872400000006]]]}},{"type":"Feature","properties":{"addr:housenumber":"103","addr:country":"DE","id":"25848103","addr:street":"Essener Straße","source":"Yahoo","version":"4","addr:postcode":"04357","building":"yes","changeSetId":"0","timestamp":"1352068149000","addr:city":"Leipzig"},"geometry":{"type":"Polygon","coordinates":[[[12.409752000000001,51.3757706],[12.4100088,51.3757461],[12.4099871,51.375657200000006],[12.4097302,51.3756817],[12.409752000000001,51.3757706]]]}},{"type":"Feature","properties":{"id":"25848105","addr:street":"Essener Straße","source":"bing","version":"5","addr:postcode":"04357","building":"yes","changeSetId":"0","timestamp":"1295364779000"},"geometry":{"type":"Polygon","coordinates":[[[12.4096712,51.3755917],[12.408930300000002,51.375668000000005],[12.4089556,51.3757609],[12.409684,51.375683900000006],[12.4096712,51.3755917]]]}},{"type":"Feature","properties":{"id":"25848112","addr:street":"Essener Straße","source":"Yahoo","version":"3","addr:postcode":"04357","created_by":"Potlatch 0.10f","building":"yes","changeSetId":"0","timestamp":"1228303261000"},"geometry":{"type":"Polygon","coordinates":[[[12.4058878,51.3761231],[12.4068789,51.3760339],[12.406855,51.3759303],[12.4058638,51.376019400000004],[12.4058878,51.3761231]]]}},{"type":"Feature","properties":{"roof:shape":"flat","building:levels":"1","id":"25848140","version":"3","building":"garages","changeSetId":"0","timestamp":"1352220509000"},"geometry":{"type":"Polygon","coordinates":[[[12.405876500000002,51.3756295],[12.406065900000002,51.3756101],[12.405988800000001,51.37530700000001],[12.4057995,51.3753265],[12.405876500000002,51.3756295]]]}},{"type":"Feature","properties":{"roof:shape":"flat","building:levels":"1","id":"25848141","version":"3","building":"garages","changeSetId":"0","timestamp":"1352220509000"},"geometry":{"type":"Polygon","coordinates":[[[12.4061666,51.3756162],[12.406269700000001,51.375606100000006],[12.4061777,51.3752408],[12.4060746,51.375250900000005],[12.4061666,51.3756162]]]}},{"type":"Feature","properties":{"name":"Haus B","id":"28692872","version":"5","building":"school","changeSetId":"0","timestamp":"1372186055000"},"geometry":{"type":"Polygon","coordinates":[[[12.4151357,51.376510200000006],[12.416344700000002,51.376632900000004],[12.4163203,51.3767161],[12.416200700000001,51.3766976],[12.416194200000001,51.376724],[12.416014200000001,51.3767067],[12.4160205,51.3766812],[12.415425,51.3766241],[12.4154155,51.3766625],[12.4152331,51.376645],[12.4152427,51.376605700000006],[12.4151152,51.376593500000006],[12.4151357,51.376510200000006]]]}},{"type":"Feature","properties":{"addr:housenumber":"20","id":"28760566","addr:street":"Bochumer Straße","source":"Yahoo","version":"5","addr:postcode":"04357","building":"yes","changeSetId":"0","timestamp":"1304614094000","addr:city":"Leipzig"},"geometry":{"type":"Polygon","coordinates":[[[12.408041500000001,51.3748269],[12.4081699,51.3748148],[12.4081636,51.3747884],[12.408426400000002,51.3747637],[12.408394900000001,51.374633100000004],[12.4080036,51.3746699],[12.408041500000001,51.3748269]]]}},{"type":"Feature","properties":{"addr:housenumber":"18","id":"28760572","addr:street":"Bochumer Straße","source":"Yahoo","version":"4","addr:postcode":"04357","building":"yes","changeSetId":"0","timestamp":"1304614088000","addr:city":"Leipzig"},"geometry":{"type":"Polygon","coordinates":[[[12.4087118,51.374748600000004],[12.4089431,51.3747228],[12.4089115,51.374612600000006],[12.408680200000001,51.3746384],[12.4087118,51.374748600000004]]]}},{"type":"Feature","properties":{"id":"28760578","addr:street":"Essener Straße","source":"Yahoo","version":"2","addr:postcode":"04357","created_by":"Potlatch 0.10f","building":"yes","changeSetId":"0","timestamp":"1228303077000"},"geometry":{"type":"Polygon","coordinates":[[[12.4098018,51.3749661],[12.409997200000001,51.3749471],[12.4099822,51.374886800000006],[12.409786800000001,51.37490570000001],[12.4098018,51.3749661]]]}},{"type":"Feature","properties":{"id":"28760580","source":"Yahoo","version":"1","created_by":"Potlatch 0.10f","building":"yes","changeSetId":"0","timestamp":"1228222883000"},"geometry":{"type":"Polygon","coordinates":[[[12.409475800000001,51.374883700000005],[12.409720700000001,51.374860000000005],[12.4097009,51.374780200000004],[12.409456,51.3748039],[12.409475800000001,51.374883700000005]]]}},{"type":"Feature","properties":{"addr:housenumber":"16","id":"28760581","addr:street":"Bochumer Straße","source":"Yahoo","version":"4","addr:postcode":"04357","building":"yes","changeSetId":"0","timestamp":"1304614081000","addr:city":"Leipzig"},"geometry":{"type":"Polygon","coordinates":[[[12.409124700000001,51.3746786],[12.409302,51.37466310000001],[12.4092775,51.374560800000005],[12.409100200000001,51.3745763],[12.409124700000001,51.3746786]]]}},{"type":"Feature","properties":{"addr:housenumber":"14","id":"28761426","addr:street":"Bochumer Straße","source":"Yahoo","version":"4","addr:postcode":"04357","building":"yes","changeSetId":"0","timestamp":"1304614074000","addr:city":"Leipzig"},"geometry":{"type":"Polygon","coordinates":[[[12.409390100000001,51.374630200000006],[12.4095609,51.374613200000006],[12.409540900000001,51.3745349],[12.4093701,51.3745519],[12.409390100000001,51.374630200000006]]]}},{"type":"Feature","properties":{"addr:housenumber":"12","id":"28761437","addr:street":"Bochumer Straße","source":"Yahoo","version":"4","addr:postcode":"04357","building":"yes","changeSetId":"0","timestamp":"1304614066000","addr:city":"Leipzig"},"geometry":{"type":"Polygon","coordinates":[[[12.4097898,51.3746804],[12.4100783,51.374652000000005],[12.410064400000001,51.374597],[12.4099468,51.3746085],[12.409914700000002,51.37448130000001],[12.4097437,51.374498100000004],[12.4097898,51.3746804]]]}},{"type":"Feature","properties":{"addr:housenumber":"10","id":"28761447","addr:street":"Bochumer Straße","source":"Yahoo","version":"3","addr:postcode":"04357","building":"yes","changeSetId":"0","timestamp":"1304614167000","addr:city":"Leipzig"},"geometry":{"type":"Polygon","coordinates":[[[12.410181600000001,51.374582000000004],[12.410355800000001,51.3745667],[12.4103329,51.374465],[12.4101587,51.3744803],[12.410181600000001,51.374582000000004]]]}},{"type":"Feature","properties":{"id":"29176709","addr:street":"Essener Straße","source":"Yahoo","version":"5","addr:postcode":"04357","building":"yes","changeSetId":"0","timestamp":"1346934334000","addr:city":"Leipzig"},"geometry":{"type":"Polygon","coordinates":[[[12.4028322,51.375914],[12.4039616,51.375807900000005],[12.4039362,51.3756957],[12.402806900000002,51.375801800000005],[12.4028322,51.375914]]]}},{"type":"Feature","properties":{"id":"29176714","addr:street":"Essener Straße","source":"Yahoo","version":"2","addr:postcode":"04357","created_by":"Potlatch 0.10f","building":"yes","changeSetId":"0","timestamp":"1229948286000"},"geometry":{"type":"Polygon","coordinates":[[[12.4041967,51.375781200000006],[12.405371500000001,51.3756672],[12.405344000000001,51.375556700000004],[12.4041692,51.3756708],[12.4041967,51.375781200000006]]]}},{"type":"Feature","properties":{"addr:housenumber":"31","addr:country":"DE","id":"30092813","addr:street":"Wilhelm-Busch-Straße","source":"Yahoo","version":"3","addr:postcode":"04357","building":"yes","changeSetId":"0","timestamp":"1352068150000","addr:city":"Leipzig"},"geometry":{"type":"Polygon","coordinates":[[[12.407601000000001,51.3754707],[12.407787200000001,51.375455300000006],[12.4077775,51.3754069],[12.4077868,51.375405],[12.407796000000001,51.3754008],[12.4078064,51.3753953],[12.407812900000001,51.3753888],[12.4078157,51.3753845],[12.4078163,51.3753802],[12.4078157,51.375376100000004],[12.407814100000001,51.375372500000005],[12.4078093,51.375364100000006],[12.407800700000001,51.3753572],[12.4077897,51.3753515],[12.4077771,51.375347100000006],[12.4077642,51.375347000000005],[12.407754800000001,51.375303200000005],[12.4075687,51.3753186],[12.407601000000001,51.3754707]]]}},{"type":"Feature","properties":{"id":"30092817","source":"Yahoo","version":"2","building":"yes","changeSetId":"0","timestamp":"1269872471000"},"geometry":{"type":"Polygon","coordinates":[[[12.407542300000001,51.375215100000005],[12.4077195,51.3751988],[12.407679300000002,51.3750293],[12.4076701,51.3749905],[12.407492900000001,51.3750068],[12.407542300000001,51.375215100000005]]]}},{"type":"Feature","properties":{"id":"30092857","source":"Yahoo","version":"2","building":"yes","changeSetId":"0","timestamp":"1254134535000"},"geometry":{"type":"Polygon","coordinates":[[[12.4075117,51.3749121],[12.407697500000001,51.374893900000004],[12.407649500000002,51.374703600000004],[12.4072045,51.374748600000004],[12.407247,51.3749048],[12.407351,51.374896],[12.4073437,51.3748572],[12.4074927,51.3748444],[12.4075117,51.3749121]]]}},{"type":"Feature","properties":{"id":"30092934","source":"Yahoo","version":"1","created_by":"Potlatch 0.10f","building":"yes","changeSetId":"0","timestamp":"1231767285000"},"geometry":{"type":"Polygon","coordinates":[[[12.4068678,51.3749338],[12.4070964,51.3749144],[12.407066400000001,51.3747769],[12.4068378,51.3747963],[12.4068678,51.3749338]]]}},{"type":"Feature","properties":{"id":"30092937","source":"Yahoo","version":"1","created_by":"Potlatch 0.10f","building":"yes","changeSetId":"0","timestamp":"1231767295000"},"geometry":{"type":"Polygon","coordinates":[[[12.4063514,51.375607],[12.4065078,51.375591500000006],[12.4064843,51.3754993],[12.4063279,51.375514900000006],[12.4063514,51.375607]]]}},{"type":"Feature","properties":{"id":"30092942","source":"Yahoo","version":"1","created_by":"Potlatch 0.10f","building":"yes","changeSetId":"0","timestamp":"1231767307000"},"geometry":{"type":"Polygon","coordinates":[[[12.4067383,51.3755633],[12.406896900000001,51.375546400000005],[12.406869700000001,51.375446700000005],[12.4067111,51.3754635],[12.4067383,51.3755633]]]}},{"type":"Feature","properties":{"id":"30092945","source":"Yahoo","version":"1","created_by":"Potlatch 0.10f","building":"yes","changeSetId":"0","timestamp":"1231767317000"},"geometry":{"type":"Polygon","coordinates":[[[12.406547900000001,51.374975600000006],[12.4067424,51.374956100000006],[12.406716600000001,51.3748559],[12.406522200000001,51.3748754],[12.406547900000001,51.374975600000006]]]}},{"type":"Feature","properties":{"id":"30092949","source":"Yahoo","version":"1","created_by":"Potlatch 0.10f","building":"yes","changeSetId":"0","timestamp":"1231767326000"},"geometry":{"type":"Polygon","coordinates":[[[12.4062093,51.3749781],[12.4063458,51.374965200000005],[12.4063233,51.3748768],[12.4061868,51.3748896],[12.4062093,51.3749781]]]}},{"type":"Feature","properties":{"id":"30092951","source":"Yahoo","version":"1","created_by":"Potlatch 0.10f","building":"yes","changeSetId":"0","timestamp":"1231767340000"},"geometry":{"type":"Polygon","coordinates":[[[12.4059112,51.374959700000005],[12.4060731,51.37494],[12.406047200000001,51.3748571],[12.405885300000001,51.3748768],[12.4059112,51.374959700000005]]]}},{"type":"Feature","properties":{"id":"30092956","source":"Yahoo","version":"1","created_by":"Potlatch 0.10f","building":"yes","changeSetId":"0","timestamp":"1231767349000"},"geometry":{"type":"Polygon","coordinates":[[[12.4056821,51.374990100000005],[12.405833600000001,51.37497200000001],[12.405811900000002,51.37488200000001],[12.405660500000002,51.374900000000004],[12.4056821,51.374990100000005]]]}},{"type":"Feature","properties":{"name":"Mockauer Post","id":"30092966","source":"bing","version":"4","building":"yes","changeSetId":"0","timestamp":"1383834007000"},"geometry":{"type":"Polygon","coordinates":[[[12.412162400000001,51.3750523],[12.412244800000002,51.375022300000005],[12.4122825,51.375056400000005],[12.412387800000001,51.375010700000004],[12.4121573,51.3747836],[12.4119843,51.374845300000004],[12.412162400000001,51.3750523]]]}},{"type":"Feature","properties":{"id":"30092971","source":"Yahoo","version":"1","created_by":"Potlatch 0.10f","building":"yes","changeSetId":"0","timestamp":"1231767417000"},"geometry":{"type":"Polygon","coordinates":[[[12.414678100000001,51.375527000000005],[12.415831500000001,51.375568400000006],[12.415840500000002,51.3754709],[12.4146871,51.3754294],[12.414678100000001,51.375527000000005]]]}},{"type":"Feature","properties":{"id":"30685733","version":"2","created_by":"Potlatch 0.10f","building":"yes","changeSetId":"0","timestamp":"1233410733000"},"geometry":{"type":"Polygon","coordinates":[[[12.415246100000001,51.3778202],[12.415229,51.377895200000005],[12.415829800000001,51.377948800000006],[12.415847000000001,51.3778738],[12.415246100000001,51.3778202]]]}},{"type":"Feature","properties":{"name":"Turnhalle","id":"36128137","version":"3","building":"yes","changeSetId":"0","timestamp":"1372185722000"},"geometry":{"type":"Polygon","coordinates":[[[12.4169473,51.3758348],[12.416920500000002,51.3760824],[12.4167213,51.376073500000004],[12.4167416,51.3758283],[12.4169473,51.3758348]]]}},{"type":"Feature","properties":{"id":"36128191","version":"1","building":"yes","changeSetId":"0","timestamp":"1245179539000"},"geometry":{"type":"Polygon","coordinates":[[[12.416887000000001,51.3767755],[12.417277400000001,51.3768121],[12.417359800000002,51.37654070000001],[12.416951300000001,51.3765019],[12.416887000000001,51.3767755]]]}},{"type":"Feature","properties":{"id":"36128299","version":"3","building":"yes","changeSetId":"0","timestamp":"1245179603000"},"geometry":{"type":"Polygon","coordinates":[[[12.4150798,51.377715300000006],[12.4152429,51.3777314],[12.415371100000002,51.377219700000005],[12.4152822,51.37721500000001],[12.4152085,51.377211700000004],[12.4150798,51.377715300000006]]]}},{"type":"Feature","properties":{"id":"36128423","version":"2","building":"yes","changeSetId":"0","timestamp":"1245179639000"},"geometry":{"type":"Polygon","coordinates":[[[12.4152822,51.37721500000001],[12.4153775,51.3768353],[12.415506200000001,51.376846300000004],[12.415407,51.377222200000006],[12.415371100000002,51.377219700000005],[12.4152822,51.37721500000001]]]}},{"type":"Feature","properties":{"addr:housenumber":"77","addr:country":"DE","id":"36128534","addr:street":"Kieler Straße","source":"Yahoo","version":"3","addr:postcode":"04357","building":"yes","changeSetId":"0","timestamp":"1378242141000","addr:city":"Leipzig"},"geometry":{"type":"Polygon","coordinates":[[[12.4140469,51.3748104],[12.4138392,51.3747838],[12.413799200000001,51.3749054],[12.414006800000001,51.374932],[12.4140469,51.3748104]]]}},{"type":"Feature","properties":{"addr:housenumber":"10","historic":"yes","addr:country":"DE","name":"ehem. Fliegerheim","id":"52098429","addr:street":"Graf-Zeppelin-Ring","version":"2","addr:postcode":"04356","building":"yes","changeSetId":"0","timestamp":"1372855830000","addr:city":"Leipzig"},"geometry":{"type":"Polygon","coordinates":[[[12.3948861,51.3925957],[12.394657400000002,51.392642],[12.394767700000001,51.3928607],[12.394732800000002,51.3928689],[12.394748000000002,51.392901],[12.3945805,51.392934200000006],[12.394659800000001,51.393097700000006],[12.394809700000001,51.3930668],[12.394775500000002,51.393001000000005],[12.395112200000002,51.392935400000006],[12.395046800000001,51.3928081],[12.394997100000001,51.3928177],[12.3948861,51.3925957]]]}},{"type":"Feature","properties":{"note":"ehemaliger Tower des Flughafens Leipzig-Mockau","historic":"yes","addr:country":"DE","version":"3","addr:postcode":"04356","building":"yes","addr:city":"Leipzig","addr:housenumber":"12","id":"52098430","addr:street":"Graf-Zeppelin-Ring","designation":"Tower","changeSetId":"0","timestamp":"1372855830000"},"geometry":{"type":"Polygon","coordinates":[[[12.396379900000001,51.3929197],[12.396190500000001,51.39295550000001],[12.396376,51.3933249],[12.396564900000001,51.3932866],[12.3965162,51.393191900000005],[12.396572,51.3931812],[12.3965774,51.3931921],[12.3965911,51.3932018],[12.3966183,51.393207200000006],[12.396645300000001,51.393201600000005],[12.396661900000002,51.393187100000006],[12.396661700000001,51.393169300000004],[12.3965665,51.3929807],[12.396551200000001,51.392969400000005],[12.3965232,51.392963800000004],[12.396495400000001,51.3929696],[12.3964782,51.392984500000004],[12.396476000000002,51.392993700000005],[12.396483,51.3930056],[12.3964279,51.3930172],[12.396379900000001,51.3929197]]]}},{"type":"Feature","properties":{"id":"91529353","version":"1","building":"yes","changeSetId":"0","timestamp":"1293242019000"},"geometry":{"type":"Polygon","coordinates":[[[12.404697800000001,51.391729600000005],[12.4047313,51.3918599],[12.404887200000001,51.3918443],[12.4048537,51.391714],[12.404697800000001,51.391729600000005]]]}},{"type":"Feature","properties":{"id":"91529356","version":"2","building":"yes","changeSetId":"0","timestamp":"1364324070000"},"geometry":{"type":"Polygon","coordinates":[[[12.400139900000001,51.39159110000001],[12.400151800000002,51.39164460000001],[12.399776500000002,51.3916771],[12.400017400000001,51.3927605],[12.3996644,51.392791],[12.3997346,51.3931071],[12.399757500000002,51.3932099],[12.403341900000001,51.3928997],[12.403319600000001,51.3927993],[12.403248900000001,51.392481000000004],[12.4030603,51.3924973],[12.402807600000001,51.3913602],[12.400139900000001,51.39159110000001]]]}},{"type":"Feature","properties":{"id":"91529367","version":"1","building":"yes","changeSetId":"0","timestamp":"1293242020000"},"geometry":{"type":"Polygon","coordinates":[[[12.4044065,51.39027170000001],[12.4045275,51.390819400000005],[12.405276500000001,51.390754900000005],[12.405155500000001,51.390207200000006],[12.4044065,51.39027170000001]]]}},{"type":"Feature","properties":{"id":"91529369","version":"1","building":"yes","changeSetId":"0","timestamp":"1293242021000"},"geometry":{"type":"Polygon","coordinates":[[[12.404409000000001,51.388272900000004],[12.4039575,51.3883139],[12.4040583,51.388746700000006],[12.4045099,51.3887057],[12.404409000000001,51.388272900000004]]]}},{"type":"Feature","properties":{"id":"91529370","version":"2","building":"yes","changeSetId":"0","timestamp":"1386454665000"},"geometry":{"type":"Polygon","coordinates":[[[12.4032704,51.3920393],[12.4041239,51.391964300000005],[12.404000600000002,51.391378],[12.403215000000001,51.391439500000004],[12.4033043,51.3918259],[12.4032304,51.391833600000005],[12.4032704,51.3920393]]]}},{"type":"Feature","properties":{"id":"91529381","version":"1","building":"yes","changeSetId":"0","timestamp":"1293242022000"},"geometry":{"type":"Polygon","coordinates":[[[12.4047073,51.3916289],[12.404899400000001,51.3916115],[12.4048086,51.391221200000004],[12.404616500000001,51.3912386],[12.4047073,51.3916289]]]}},{"type":"Feature","properties":{"id":"91873440","version":"2","building":"yes","changeSetId":"0","timestamp":"1352068149000"},"geometry":{"type":"Polygon","coordinates":[[[12.4192216,51.37626950000001],[12.4191441,51.376078400000004],[12.419695,51.375995700000004],[12.419940100000002,51.3761421],[12.4201423,51.376301600000005],[12.419977000000001,51.376344100000004],[12.4198657,51.3762361],[12.419654900000001,51.3761056],[12.4193444,51.3761519],[12.419376300000001,51.3762467],[12.4192216,51.37626950000001]]]}},{"type":"Feature","properties":{"id":"91873451","version":"1","building":"yes","changeSetId":"0","timestamp":"1293452831000"},"geometry":{"type":"Polygon","coordinates":[[[12.4192338,51.375038700000005],[12.419818600000001,51.3750772],[12.419799800000002,51.3751626],[12.4192204,51.3751174],[12.4192338,51.375038700000005]]]}},{"type":"Feature","properties":{"shop":"supermarket","addr:country":"DE","name":"Netto","id":"94808449","version":"2","building":"yes","changeSetId":"0","timestamp":"1382884001000","addr:city":"Leipzig"},"geometry":{"type":"Polygon","coordinates":[[[12.421967400000002,51.378194300000004],[12.4219091,51.378345],[12.422999,51.3785092],[12.423112600000001,51.3782154],[12.4229894,51.378196900000006],[12.422972300000001,51.378241],[12.4224492,51.378162200000006],[12.422466,51.3781187],[12.422330800000001,51.378098300000005],[12.422277800000002,51.3782354],[12.4221593,51.378217600000006],[12.422186400000001,51.3782076],[12.4220967,51.3781126],[12.4219434,51.378168900000006],[12.421967400000002,51.378194300000004]]]}},{"type":"Feature","properties":{"id":"95496567","source":"Yahoo","version":"1","building":"yes","changeSetId":"0","timestamp":"1295256981000"},"geometry":{"type":"Polygon","coordinates":[[[12.3980878,51.374852600000004],[12.3986329,51.374938],[12.398659700000001,51.3748714],[12.398114600000001,51.374786],[12.3980878,51.374852600000004]]]}},{"type":"Feature","properties":{"id":"95661614","source":"bing","version":"1","building":"yes","changeSetId":"0","timestamp":"1295364758000"},"geometry":{"type":"Polygon","coordinates":[[[12.4037661,51.374881800000004],[12.403873,51.374872200000006],[12.403853000000002,51.374785700000004],[12.403746,51.374795400000004],[12.4037661,51.374881800000004]]]}},{"type":"Feature","properties":{"id":"95661615","source":"bing","version":"1","building":"yes","changeSetId":"0","timestamp":"1295364758000"},"geometry":{"type":"Polygon","coordinates":[[[12.4020963,51.3751972],[12.4021092,51.3752543],[12.4022462,51.3752422],[12.4022333,51.375185200000004],[12.4020963,51.3751972]]]}},{"type":"Feature","properties":{"id":"95661621","source":"bing","version":"1","building":"yes","changeSetId":"0","timestamp":"1295364759000"},"geometry":{"type":"Polygon","coordinates":[[[12.402693600000001,51.375004800000006],[12.4027975,51.3749954],[12.4027761,51.3749027],[12.4026721,51.3749121],[12.402693600000001,51.375004800000006]]]}},{"type":"Feature","properties":{"id":"95661622","source":"bing","version":"1","building":"yes","changeSetId":"0","timestamp":"1295364759000"},"geometry":{"type":"Polygon","coordinates":[[[12.402319100000001,51.37554050000001],[12.402197800000001,51.375554300000005],[12.4022146,51.375612200000006],[12.402336,51.3755985],[12.402319100000001,51.37554050000001]]]}},{"type":"Feature","properties":{"id":"95661631","source":"bing","version":"1","building":"yes","changeSetId":"0","timestamp":"1295364760000"},"geometry":{"type":"Polygon","coordinates":[[[12.4031731,51.374942000000004],[12.4033016,51.374930400000004],[12.403277300000001,51.374825400000006],[12.4031488,51.37483700000001],[12.4031731,51.374942000000004]]]}},{"type":"Feature","properties":{"id":"95661635","source":"bing","version":"1","building":"yes","changeSetId":"0","timestamp":"1295364760000"},"geometry":{"type":"Polygon","coordinates":[[[12.4024888,51.3752653],[12.402625800000001,51.375252],[12.402610600000001,51.375191400000006],[12.4024736,51.375204800000006],[12.4024888,51.3752653]]]}},{"type":"Feature","properties":{"id":"95661638","source":"bing","version":"1","building":"yes","changeSetId":"0","timestamp":"1295364760000"},"geometry":{"type":"Polygon","coordinates":[[[12.401867300000001,51.375246600000004],[12.401728100000001,51.375260000000004],[12.4017517,51.375355400000004],[12.4018908,51.375342],[12.401867300000001,51.375246600000004]]]}},{"type":"Feature","properties":{"id":"95661642","source":"bing","version":"1","building":"yes","changeSetId":"0","timestamp":"1295364761000"},"geometry":{"type":"Polygon","coordinates":[[[12.402905500000001,51.3749861],[12.403078,51.3749662],[12.403052,51.374878100000004],[12.402879500000001,51.3748979],[12.402905500000001,51.3749861]]]}},{"type":"Feature","properties":{"website":"http://www.rewe.de/","shop":"supermarket","addr:country":"DE","name":"REWE","id":"95661649","version":"4","building":"supermarket","changeSetId":"0","timestamp":"1380376112000","addr:city":"Leipzig"},"geometry":{"type":"Polygon","coordinates":[[[12.4020522,51.3769944],[12.402802300000001,51.376921700000004],[12.4027252,51.376612],[12.401975100000001,51.376684700000006],[12.4020522,51.3769944]]]}},{"type":"Feature","properties":{"addr:housenumber":"79","addr:country":"DE","id":"95661651","addr:street":"Kieler Straße","source":"bing","version":"2","addr:postcode":"04357","building":"yes","changeSetId":"0","timestamp":"1378242142000","addr:city":"Leipzig"},"geometry":{"type":"Polygon","coordinates":[[[12.413672700000001,51.374730500000005],[12.4134907,51.3747532],[12.4135278,51.3748689],[12.4136881,51.3748924],[12.413724700000001,51.374774],[12.4136834,51.374771800000005],[12.413672700000001,51.374730500000005]]]}},{"type":"Feature","properties":{"id":"95661654","source":"bing","version":"1","building":"yes","changeSetId":"0","timestamp":"1295364763000"},"geometry":{"type":"Polygon","coordinates":[[[12.405323000000001,51.3752787],[12.4052976,51.3751825],[12.405102800000002,51.3752025],[12.4051282,51.3752987],[12.405323000000001,51.3752787]]]}},{"type":"Feature","properties":{"id":"95661657","source":"bing","version":"1","building":"yes","changeSetId":"0","timestamp":"1295364763000"},"geometry":{"type":"Polygon","coordinates":[[[12.402565800000001,51.3754872],[12.40272,51.3754738],[12.402703800000001,51.375401000000004],[12.4025496,51.375414400000004],[12.402565800000001,51.3754872]]]}},{"type":"Feature","properties":{"id":"95661660","source":"bing","version":"1","building":"yes","changeSetId":"0","timestamp":"1295364763000"},"geometry":{"type":"Polygon","coordinates":[[[12.4061053,51.3768618],[12.4062584,51.376845200000005],[12.406131,51.3763894],[12.4061646,51.3763857],[12.406120600000001,51.3762282],[12.405964500000001,51.37624520000001],[12.406005400000002,51.376391500000004],[12.405974700000002,51.3763948],[12.4061053,51.3768618]]]}},{"type":"Feature","properties":{"id":"95661661","source":"bing","version":"1","building":"yes","changeSetId":"0","timestamp":"1295364764000"},"geometry":{"type":"Polygon","coordinates":[[[12.4025502,51.3749419],[12.4024122,51.3749576],[12.4024301,51.375018700000005],[12.402568,51.37500300000001],[12.4025502,51.3749419]]]}},{"type":"Feature","properties":{"id":"95661662","source":"bing","version":"1","building":"yes","changeSetId":"0","timestamp":"1295364764000"},"geometry":{"type":"Polygon","coordinates":[[[12.402244600000001,51.375779800000004],[12.4023784,51.3757664],[12.402356800000002,51.375682100000006],[12.402223000000001,51.375695400000005],[12.402244600000001,51.375779800000004]]]}},{"type":"Feature","properties":{"addr:housenumber":"117a","id":"95661664","addr:street":"Mockauer Straße","source":"bing","version":"4","addr:postcode":"04357","building":"yes","changeSetId":"0","timestamp":"1386939209000","addr:city":"Leipzig"},"geometry":{"type":"Polygon","coordinates":[[[12.4111949,51.374351600000004],[12.411251100000001,51.3745604],[12.4115119,51.3745331],[12.4115008,51.3744918],[12.411391,51.3745033],[12.411358,51.374380800000004],[12.4113459,51.374335800000004],[12.4111949,51.374351600000004]]]}},{"type":"Feature","properties":{"id":"95661667","source":"bing","version":"1","building":"yes","changeSetId":"0","timestamp":"1295364765000"},"geometry":{"type":"Polygon","coordinates":[[[12.4081156,51.3749461],[12.4082354,51.374935400000005],[12.408222100000001,51.374877000000005],[12.4081022,51.3748877],[12.4081156,51.3749461]]]}},{"type":"Feature","properties":{"id":"95661671","source":"bing","version":"1","building":"yes","changeSetId":"0","timestamp":"1295364766000"},"geometry":{"type":"Polygon","coordinates":[[[12.4043068,51.374617300000004],[12.404419500000001,51.374606],[12.4043986,51.3745247],[12.404285900000001,51.374535900000005],[12.4043068,51.374617300000004]]]}},{"type":"Feature","properties":{"id":"95661672","source":"bing","version":"1","building":"yes","changeSetId":"0","timestamp":"1295364766000"},"geometry":{"type":"Polygon","coordinates":[[[12.4037903,51.3752159],[12.4037646,51.3751023],[12.403633600000001,51.3751139],[12.403659300000001,51.3752274],[12.4037903,51.3752159]]]}},{"type":"Feature","properties":{"id":"95661673","source":"bing","version":"1","building":"yes","changeSetId":"0","timestamp":"1295364766000"},"geometry":{"type":"Polygon","coordinates":[[[12.402415300000001,51.3748845],[12.4025373,51.3748711],[12.4025201,51.374810000000004],[12.402398100000001,51.374823400000004],[12.402415300000001,51.3748845]]]}},{"type":"Feature","properties":{"id":"95661675","source":"bing","version":"1","building":"yes","changeSetId":"0","timestamp":"1295364766000"},"geometry":{"type":"Polygon","coordinates":[[[12.4042156,51.3748578],[12.4043591,51.374844800000005],[12.404337100000001,51.3747496],[12.404193500000002,51.374762600000004],[12.4042156,51.3748578]]]}},{"type":"Feature","properties":{"addr:housenumber":"75","addr:country":"DE","id":"95661677","addr:street":"Kieler Straße","source":"bing","version":"2","addr:postcode":"04357","building":"yes","changeSetId":"0","timestamp":"1378242141000","addr:city":"Leipzig"},"geometry":{"type":"Polygon","coordinates":[[[12.4140949,51.3749417],[12.414281,51.374968700000004],[12.414324500000001,51.3748518],[12.4141384,51.374824800000006],[12.4140949,51.3749417]]]}},{"type":"Feature","properties":{"id":"95661678","source":"bing","version":"1","building":"yes","changeSetId":"0","timestamp":"1295364767000"},"geometry":{"type":"Polygon","coordinates":[[[12.4042741,51.37507960000001],[12.4042955,51.375168900000006],[12.4045524,51.3751449],[12.404531,51.3750556],[12.4042741,51.37507960000001]]]}},{"type":"Feature","properties":{"id":"95661681","source":"bing","version":"1","building":"yes","changeSetId":"0","timestamp":"1295364768000"},"geometry":{"type":"Polygon","coordinates":[[[12.402606500000001,51.375706300000004],[12.402749400000001,51.375696000000005],[12.4027195,51.375534300000005],[12.4025765,51.375544600000005],[12.402606500000001,51.375706300000004]]]}},{"type":"Feature","properties":{"id":"95661683","source":"bing","version":"1","building":"yes","changeSetId":"0","timestamp":"1295364769000"},"geometry":{"type":"Polygon","coordinates":[[[12.405657600000001,51.37525350000001],[12.405811,51.3752355],[12.4057885,51.3751605],[12.405635,51.375178500000004],[12.405657600000001,51.37525350000001]]]}},{"type":"Feature","properties":{"id":"95661685","source":"bing","version":"1","building":"yes","changeSetId":"0","timestamp":"1295364769000"},"geometry":{"type":"Polygon","coordinates":[[[12.4047579,51.375306800000004],[12.4047727,51.375376300000006],[12.404933300000001,51.375362900000006],[12.404918400000001,51.375293400000004],[12.4047579,51.375306800000004]]]}},{"type":"Feature","properties":{"id":"95661686","source":"bing","version":"1","building":"yes","changeSetId":"0","timestamp":"1295364769000"},"geometry":{"type":"Polygon","coordinates":[[[12.410479100000002,51.37517690000001],[12.410575000000001,51.3751678],[12.410515100000001,51.374921900000004],[12.410419200000002,51.374931000000004],[12.4104308,51.3749795],[12.410479100000002,51.37517690000001]]]}},{"type":"Feature","properties":{"id":"95661688","source":"bing","version":"1","building":"yes","changeSetId":"0","timestamp":"1295364770000"},"geometry":{"type":"Polygon","coordinates":[[[12.403392100000001,51.3754992],[12.4035056,51.3754885],[12.403479800000001,51.375382],[12.403366400000001,51.375392700000006],[12.403392100000001,51.3754992]]]}},{"type":"Feature","properties":{"id":"95661690","source":"bing","version":"1","building":"yes","changeSetId":"0","timestamp":"1295364770000"},"geometry":{"type":"Polygon","coordinates":[[[12.4039946,51.3748772],[12.404106200000001,51.37486620000001],[12.4040756,51.37474580000001],[12.403964100000001,51.3747568],[12.4039946,51.3748772]]]}},{"type":"Feature","properties":{"shop":"mall","addr:country":"DE","source":"bing","version":"4","addr:postcode":"04357","building":"yes","addr:city":"Leipzig","addr:housenumber":"123","name":"Leipzig-Mockau-Center","id":"95661691","addr:street":"Mockauer Straße","changeSetId":"0","timestamp":"1378637499000"},"geometry":{"type":"Polygon","coordinates":[[[12.4118863,51.3757992],[12.412716000000001,51.3757298],[12.412528,51.3753399],[12.4123978,51.375286700000004],[12.4118358,51.375339700000005],[12.411877500000001,51.375474700000005],[12.411800000000001,51.375484500000006],[12.4118863,51.3757992]]]}},{"type":"Feature","properties":{"id":"95661693","source":"bing","version":"1","building":"yes","changeSetId":"0","timestamp":"1295364771000"},"geometry":{"type":"Polygon","coordinates":[[[12.4040236,51.375193200000005],[12.404182,51.3751772],[12.404154700000001,51.375072],[12.403996300000001,51.375088000000005],[12.4040236,51.375193200000005]]]}},{"type":"Feature","properties":{"id":"95661694","source":"bing","version":"1","building":"yes","changeSetId":"0","timestamp":"1295364771000"},"geometry":{"type":"Polygon","coordinates":[[[12.410419200000002,51.374931000000004],[12.4102627,51.374945600000004],[12.410274300000001,51.3749941],[12.4104308,51.3749795],[12.410419200000002,51.374931000000004]]]}},{"type":"Feature","properties":{"roof:shape":"flat","building:levels":"1","id":"95661695","version":"2","building":"garages","changeSetId":"0","timestamp":"1352218429000"},"geometry":{"type":"Polygon","coordinates":[[[12.402045900000001,51.375997500000004],[12.4024458,51.375961200000006],[12.4024312,51.3758981],[12.402031200000001,51.375934400000006],[12.402045900000001,51.375997500000004]]]}},{"type":"Feature","properties":{"id":"95661696","source":"bing","version":"1","building":"yes","changeSetId":"0","timestamp":"1295364772000"},"geometry":{"type":"Polygon","coordinates":[[[12.4021392,51.3748311],[12.402111300000001,51.374706800000006],[12.401981200000002,51.3747181],[12.4020091,51.374842400000006],[12.4021392,51.3748311]]]}},{"type":"Feature","properties":{"id":"95661707","source":"bing","version":"1","building":"yes","changeSetId":"0","timestamp":"1295364774000"},"geometry":{"type":"Polygon","coordinates":[[[12.403259400000001,51.3752854],[12.403471300000001,51.375266700000005],[12.403440400000001,51.3751303],[12.4032285,51.375149],[12.403259400000001,51.3752854]]]}},{"type":"Feature","properties":{"id":"95661710","source":"bing","version":"1","building":"yes","changeSetId":"0","timestamp":"1295364775000"},"geometry":{"type":"Polygon","coordinates":[[[12.4021991,51.375066200000006],[12.4021734,51.3749326],[12.4020367,51.3749429],[12.4020624,51.375076500000006],[12.4021991,51.375066200000006]]]}},{"type":"Feature","properties":{"id":"95661715","source":"bing","version":"1","building":"yes","changeSetId":"0","timestamp":"1295364776000"},"geometry":{"type":"Polygon","coordinates":[[[12.402818400000001,51.3751678],[12.402841200000001,51.375260600000004],[12.4030231,51.3752432],[12.403000400000002,51.3751504],[12.402818400000001,51.3751678]]]}},{"type":"Feature","properties":{"id":"95661716","source":"bing","version":"1","building":"yes","changeSetId":"0","timestamp":"1295364776000"},"geometry":{"type":"Polygon","coordinates":[[[12.405004300000002,51.3764583],[12.404905300000001,51.3760107],[12.4047479,51.3760242],[12.4048469,51.376471900000006],[12.405004300000002,51.3764583]]]}},{"type":"Feature","properties":{"id":"95661719","source":"bing","version":"1","building":"yes","changeSetId":"0","timestamp":"1295364777000"},"geometry":{"type":"Polygon","coordinates":[[[12.402158400000001,51.375461800000004],[12.402300700000001,51.375450400000005],[12.402275000000001,51.3753248],[12.402132700000001,51.37533620000001],[12.402158400000001,51.375461800000004]]]}},{"type":"Feature","properties":{"shop":"supermarket","id":"115787013","version":"1","building":"yes","changeSetId":"0","timestamp":"1306872248000"},"geometry":{"type":"Polygon","coordinates":[[[12.416081,51.37804920000001],[12.4167842,51.378119000000005],[12.416716500000001,51.378384700000005],[12.416013300000001,51.378314800000005],[12.416081,51.37804920000001]]]}},{"type":"Feature","properties":{"id":"115787014","version":"1","building":"yes","changeSetId":"0","timestamp":"1306872249000"},"geometry":{"type":"Polygon","coordinates":[[[12.419763600000001,51.3784312],[12.418175100000001,51.3782852],[12.4181488,51.378397],[12.4197372,51.37854290000001],[12.419763600000001,51.3784312]]]}},{"type":"Feature","properties":{"addr:housenumber":"69","addr:country":"DE","id":"115787018","addr:street":"Kieler Straße","source":"bing","version":"2","addr:postcode":"04357","building":"yes","changeSetId":"0","timestamp":"1378242141000","addr:city":"Leipzig"},"geometry":{"type":"Polygon","coordinates":[[[12.4150246,51.3750304],[12.415073600000001,51.3749126],[12.415292800000001,51.3749547],[12.4152474,51.3750639],[12.4150246,51.3750304]]]}},{"type":"Feature","properties":{"addr:housenumber":"71","addr:country":"DE","id":"115787019","addr:street":"Kieler Straße","source":"bing","version":"2","addr:postcode":"04357","building":"yes","changeSetId":"0","timestamp":"1378242141000","addr:city":"Leipzig"},"geometry":{"type":"Polygon","coordinates":[[[12.414777800000001,51.3749082],[12.4149694,51.3749314],[12.414939500000001,51.375027800000005],[12.4147479,51.375004600000004],[12.414777800000001,51.3749082]]]}},{"type":"Feature","properties":{"addr:housenumber":"67","addr:country":"DE","id":"115787020","addr:street":"Kieler Straße","source":"bing","version":"2","addr:postcode":"04357","building":"yes","changeSetId":"0","timestamp":"1378242141000","addr:city":"Leipzig"},"geometry":{"type":"Polygon","coordinates":[[[12.4153126,51.3750756],[12.415361800000001,51.3749449],[12.4155855,51.374985],[12.415537700000002,51.3751085],[12.4153126,51.3750756]]]}},{"type":"Feature","properties":{"roof:shape":"flat","building:levels":"5","id":"122926794","version":"2","building":"apartments","changeSetId":"0","timestamp":"1352218431000"},"geometry":{"type":"Polygon","coordinates":[[[12.400390600000001,51.378112200000004],[12.4005547,51.3780969],[12.4003989,51.377444000000004],[12.400234800000002,51.377459300000005],[12.400390600000001,51.378112200000004]]]}},{"type":"Feature","properties":{"id":"122926795","version":"2","building":"yes","changeSetId":"0","timestamp":"1317720700000"},"geometry":{"type":"Polygon","coordinates":[[[12.4009607,51.3773047],[12.4011337,51.3772882],[12.4013215,51.3780544],[12.4011536,51.3780705],[12.4010741,51.3780781],[12.4010914,51.37814890000001],[12.400849200000001,51.378172000000006],[12.4008265,51.3780797],[12.4011431,51.3780495],[12.4009607,51.3773047]]]}},{"type":"Feature","properties":{"roof:shape":"flat","building:levels":"5","id":"122926796","version":"2","building":"apartments","changeSetId":"0","timestamp":"1352218428000"},"geometry":{"type":"Polygon","coordinates":[[[12.399991700000001,51.3789011],[12.4001313,51.3788871],[12.400044600000001,51.3785504],[12.401142700000001,51.3784402],[12.401239,51.37881410000001],[12.4004618,51.378892],[12.400487700000001,51.378992200000006],[12.401318700000001,51.378908800000005],[12.4012854,51.3787797],[12.401408400000001,51.3787673],[12.4013068,51.3783728],[12.401152300000001,51.378388300000005],[12.4011375,51.378331],[12.400029,51.3784422],[12.400041300000002,51.3784897],[12.399889600000002,51.3785049],[12.399991700000001,51.3789011]]]}},{"type":"Feature","properties":{"id":"122928510","version":"1","building":"yes","changeSetId":"0","timestamp":"1311507861000"},"geometry":{"type":"Polygon","coordinates":[[[12.399498600000001,51.376136],[12.3992625,51.375201800000006],[12.399412700000001,51.375181700000006],[12.3996595,51.376126000000006],[12.399498600000001,51.376136]]]}},{"type":"Feature","properties":{"id":"122928512","version":"1","building":"yes","changeSetId":"0","timestamp":"1311507862000"},"geometry":{"type":"Polygon","coordinates":[[[12.399977900000001,51.375780000000006],[12.3999529,51.37566940000001],[12.4007252,51.37560130000001],[12.400750200000001,51.375711900000006],[12.399977900000001,51.375780000000006]]]}},{"type":"Feature","properties":{"roof:shape":"flat","building:levels":"5","id":"122928513","version":"2","building":"apartments","changeSetId":"0","timestamp":"1352218428000"},"geometry":{"type":"Polygon","coordinates":[[[12.4054167,51.379943100000006],[12.405324700000001,51.379549100000006],[12.405510300000001,51.3795322],[12.405497700000002,51.3794781],[12.4059834,51.3794339],[12.406002,51.379513700000004],[12.406212700000001,51.3794945],[12.4063353,51.380019600000004],[12.406163900000001,51.3800351],[12.4060491,51.379543600000005],[12.405516800000001,51.3795921],[12.405595,51.3799269],[12.4054167,51.379943100000006]]]}},{"type":"Feature","properties":{"id":"122928514","version":"1","building":"yes","changeSetId":"0","timestamp":"1311507862000"},"geometry":{"type":"Polygon","coordinates":[[[12.399875600000001,51.375396800000004],[12.399851600000002,51.3752931],[12.4006249,51.3752233],[12.400649000000001,51.375327000000006],[12.399875600000001,51.375396800000004]]]}},{"type":"Feature","properties":{"id":"122928517","version":"1","building":"yes","changeSetId":"0","timestamp":"1311507862000"},"geometry":{"type":"Polygon","coordinates":[[[12.4006272,51.3772645],[12.400863800000002,51.3772425],[12.4008485,51.3771786],[12.401093900000001,51.377155800000004],[12.4009105,51.3763887],[12.4007433,51.376404300000004],[12.400919,51.3771392],[12.400604300000001,51.3771685],[12.4006272,51.3772645]]]}},{"type":"Feature","properties":{"id":"122928518","addr:street":"Essener Straße","version":"2","addr:postcode":"04357","building":"yes","changeSetId":"0","timestamp":"1346934324000","addr:city":"Leipzig"},"geometry":{"type":"Polygon","coordinates":[[[12.400061800000001,51.3761595],[12.4008397,51.376092500000006],[12.400818200000002,51.3759887],[12.400035,51.376059000000005],[12.400061800000001,51.3761595]]]}},{"type":"Feature","properties":{"roof:shape":"flat","building:levels":"5","id":"122928520","version":"2","building":"apartments","changeSetId":"0","timestamp":"1352218428000"},"geometry":{"type":"Polygon","coordinates":[[[12.4002046,51.3798043],[12.4001072,51.3794102],[12.4002552,51.379396],[12.400241300000001,51.379339800000004],[12.4013428,51.3792338],[12.401355800000001,51.379286300000004],[12.401517700000001,51.3792708],[12.401615600000001,51.3796673],[12.4014979,51.379678600000005],[12.401530800000002,51.379811600000004],[12.400694900000001,51.379892000000005],[12.400670300000002,51.3797921],[12.4014652,51.379715600000004],[12.4013726,51.3793407],[12.4002809,51.379445800000006],[12.4003657,51.3797888],[12.4002046,51.3798043]]]}},{"type":"Feature","properties":{"id":"122928522","version":"1","building":"yes","changeSetId":"0","timestamp":"1311507863000"},"geometry":{"type":"Polygon","coordinates":[[[12.400298600000001,51.3769123],[12.400454000000002,51.3768979],[12.4003481,51.376452400000005],[12.400192800000001,51.3764668],[12.400298600000001,51.3769123]]]}},{"type":"Feature","properties":{"id":"122928523","version":"1","building":"yes","changeSetId":"0","timestamp":"1311507863000"},"geometry":{"type":"Polygon","coordinates":[[[12.398833400000001,51.37536600000001],[12.398803800000001,51.375196900000006],[12.3989597,51.3751863],[12.398989400000001,51.3753553],[12.398833400000001,51.37536600000001]]]}},{"type":"Feature","properties":{"roof:shape":"flat","building:levels":"5","id":"122928524","version":"2","building":"apartments","changeSetId":"0","timestamp":"1352218431000"},"geometry":{"type":"Polygon","coordinates":[[[12.403856600000001,51.3804469],[12.4064542,51.3801952],[12.4064794,51.3802965],[12.4038818,51.3805483],[12.403856600000001,51.3804469]]]}},{"type":"Feature","properties":{"roof:shape":"flat","building:levels":"5","id":"122928525","version":"2","building":"apartments","changeSetId":"0","timestamp":"1352218432000"},"geometry":{"type":"Polygon","coordinates":[[[12.4044892,51.377757],[12.4055874,51.377650900000006],[12.4057109,51.3781492],[12.4058779,51.37813310000001],[12.405749100000001,51.377613700000005],[12.405525500000001,51.3776353],[12.405505000000002,51.3775526],[12.4044635,51.377653200000005],[12.4044892,51.377757]]]}},{"type":"Feature","properties":{"id":"122928526","addr:street":"Essener Straße","version":"2","addr:postcode":"04357","building":"yes","changeSetId":"0","timestamp":"1346934319000","addr:city":"Leipzig"},"geometry":{"type":"Polygon","coordinates":[[[12.401132800000001,51.3759555],[12.4018592,51.375888],[12.4018843,51.375993400000006],[12.401157900000001,51.376060900000006],[12.401132800000001,51.3759555]]]}},{"type":"Feature","properties":{"roof:shape":"flat","building:levels":"5","id":"122928528","version":"2","building":"apartments","changeSetId":"0","timestamp":"1352218430000"},"geometry":{"type":"Polygon","coordinates":[[[12.402240800000001,51.3810629],[12.4022655,51.381163300000004],[12.4043658,51.3809611],[12.404341,51.38086070000001],[12.402240800000001,51.3810629]]]}},{"type":"Feature","properties":{"id":"122928530","version":"1","building":"yes","changeSetId":"0","timestamp":"1311507864000"},"geometry":{"type":"Polygon","coordinates":[[[12.401079800000002,51.3757844],[12.4009377,51.3751984],[12.401079800000002,51.375185],[12.401221900000001,51.375771],[12.401079800000002,51.3757844]]]}},{"type":"Feature","properties":{"roof:shape":"flat","building:levels":"5","id":"122928531","version":"2","building":"apartments","changeSetId":"0","timestamp":"1352218429000"},"geometry":{"type":"Polygon","coordinates":[[[12.404465,51.3773995],[12.404337900000002,51.376881600000004],[12.4041172,51.3769027],[12.4040987,51.3768273],[12.403571000000001,51.3768777],[12.403583600000001,51.3769293],[12.403420500000001,51.376944900000005],[12.4036734,51.3779759],[12.403742600000001,51.378258300000006],[12.403833700000002,51.378249600000004],[12.4038581,51.3783492],[12.4053632,51.378205300000005],[12.405334000000002,51.378086200000006],[12.403906200000002,51.3782226],[12.4036015,51.3769804],[12.404177,51.376925400000005],[12.4042972,51.377415500000005],[12.404465,51.3773995]]]}},{"type":"Feature","properties":{"roof:shape":"flat","building:levels":"5","id":"122928532","version":"2","building":"apartments","changeSetId":"0","timestamp":"1352218432000"},"geometry":{"type":"Polygon","coordinates":[[[12.402329900000002,51.3804443],[12.402196900000002,51.379928500000005],[12.402420900000001,51.379906000000005],[12.402401800000002,51.379831900000006],[12.4034153,51.37973],[12.4034414,51.379831],[12.4023742,51.379938300000006],[12.402500300000002,51.3804272],[12.402329900000002,51.3804443]]]}},{"type":"Feature","properties":{"roof:shape":"flat","building:levels":"1","id":"126533343","version":"3","building":"garages","changeSetId":"0","timestamp":"1352218430000"},"geometry":{"type":"Polygon","coordinates":[[[12.399788200000001,51.3781631],[12.400119400000001,51.3781279],[12.400104800000001,51.3780743],[12.399773600000001,51.3781095],[12.399788200000001,51.3781631]]]}},{"type":"Feature","properties":{"roof:shape":"flat","building:levels":"1","id":"126533344","version":"3","building":"garages","changeSetId":"0","timestamp":"1352218429000"},"geometry":{"type":"Polygon","coordinates":[[[12.398972700000002,51.378242],[12.3994025,51.3781979],[12.399388700000001,51.3781455],[12.3989589,51.3781897],[12.398972700000002,51.378242]]]}},{"type":"Feature","properties":{"roof:shape":"flat","building:levels":"5","id":"132197162","version":"2","building":"apartments","changeSetId":"0","timestamp":"1352218432000"},"geometry":{"type":"Polygon","coordinates":[[[12.4016423,51.3805787],[12.4015023,51.380593100000006],[12.4014748,51.3805959],[12.4013837,51.3802515],[12.4013729,51.3802068],[12.40154,51.3801897],[12.4016423,51.3805787]]]}},{"type":"Feature","properties":{"roof:shape":"flat","building:levels":"5","id":"132197166","version":"2","building":"apartments","changeSetId":"0","timestamp":"1352218432000"},"geometry":{"type":"Polygon","coordinates":[[[12.4007117,51.380805300000006],[12.4006851,51.3807027],[12.401481700000001,51.380622200000005],[12.401506600000001,51.380619700000004],[12.401533200000001,51.3807223],[12.4007117,51.380805300000006]]]}},{"type":"Feature","properties":{"id":"132197167","version":"1","building":"yes","changeSetId":"0","timestamp":"1317720689000"},"geometry":{"type":"Polygon","coordinates":[[[12.4014748,51.3805959],[12.401481700000001,51.380622200000005],[12.401506600000001,51.380619700000004],[12.4015023,51.380593100000006],[12.4014748,51.3805959]]]}},{"type":"Feature","properties":{"roof:shape":"flat","building:levels":"5","id":"132197170","version":"2","building":"apartments","changeSetId":"0","timestamp":"1352218432000"},"geometry":{"type":"Polygon","coordinates":[[[12.4003758,51.380697500000004],[12.400208300000001,51.380714700000006],[12.400105700000001,51.380325600000006],[12.4002732,51.380308400000004],[12.400285400000001,51.380354800000006],[12.4003758,51.380697500000004]]]}},{"type":"Feature","properties":{"roof:shape":"flat","building:levels":"5","id":"132197171","version":"2","building":"apartments","changeSetId":"0","timestamp":"1352218428000"},"geometry":{"type":"Polygon","coordinates":[[[12.400285400000001,51.380354800000006],[12.400261200000001,51.38025450000001],[12.4007897,51.3802048],[12.400791900000002,51.380214],[12.4008401,51.380209400000005],[12.4008379,51.380200300000006],[12.401359500000002,51.3801512],[12.4013729,51.3802068],[12.4013837,51.3802515],[12.4008631,51.380300500000004],[12.4008607,51.3802905],[12.400810700000001,51.380295200000006],[12.4008131,51.3803051],[12.400285400000001,51.380354800000006]]]}},{"type":"Feature","properties":{"id":"141133474","version":"1","building":"yes","changeSetId":"0","timestamp":"1323812366000"},"geometry":{"type":"Polygon","coordinates":[[[12.4181678,51.37879890000001],[12.4181828,51.37875510000001],[12.4181194,51.3787473],[12.418132400000001,51.3787395],[12.4181536,51.3787157],[12.4181606,51.378694900000006],[12.4181589,51.378673600000006],[12.4181475,51.378652200000005],[12.418213900000001,51.3786609],[12.4182436,51.3785767],[12.418336700000001,51.378589100000006],[12.4182609,51.3788113],[12.4181678,51.37879890000001]]]}},{"type":"Feature","properties":{"website":"http://www.kletterturm.info/","version":"3","roof:material":"metal","building":"tower","addr:city":"Leipzig","addr:housenumber":"14","name:de":"Kletterturm Mockau","old_name":"Wasserturm Leipzig-Mockau","website2":"http://www.wasserturm-leipzig.de/html/mockau.htm","name":"Kletterturm Mockau","name:en":"climbing tower Mockau","id":"141133475","addr:street":"Tauchaer Straße","disused:man_made":"water_tower","leisure":"sports_centre","sport":"climbing","changeSetId":"0","timestamp":"1353531464000","building:material":"brick","height":"40","start_date":"1907"},"geometry":{"type":"Polygon","coordinates":[[[12.418044700000001,51.3787698],[12.418008500000001,51.3787693],[12.4179797,51.378764200000006],[12.4179521,51.3787546],[12.4179273,51.378739800000005],[12.417906100000002,51.3787163],[12.4178987,51.378695300000004],[12.4178996,51.3786767],[12.4179104,51.378654000000004],[12.417923100000001,51.3786404],[12.4179428,51.3786269],[12.4179651,51.378617000000006],[12.4179945,51.3786094],[12.4180253,51.3786064],[12.418060800000001,51.3786087],[12.418083800000002,51.3786137],[12.4181074,51.3786223],[12.4181275,51.3786337],[12.4181475,51.378652200000005],[12.4181589,51.378673600000006],[12.4181606,51.378694900000006],[12.4181536,51.3787157],[12.418132400000001,51.3787395],[12.4181194,51.3787473],[12.418108100000001,51.3787541],[12.418081800000001,51.378763600000006],[12.418044700000001,51.3787698]]]}},{"type":"Feature","properties":{"id":"141134030","version":"1","building":"tower","changeSetId":"0","timestamp":"1323812658000"},"geometry":{"type":"Polygon","coordinates":[[[12.421495400000001,51.3776871],[12.4213863,51.3776864],[12.421387600000001,51.3776036],[12.421496600000001,51.3776043],[12.421495400000001,51.3776871]]]}},{"type":"Feature","properties":{"amenity":"place_of_worship","name":"Stephanuskirche","id":"141134031","version":"1","building":"yes","changeSetId":"0","timestamp":"1323812659000","denomination":"protestant","religion":"christian"},"geometry":{"type":"Polygon","coordinates":[[[12.421827400000002,51.377689000000004],[12.421495400000001,51.3776871],[12.4213863,51.3776864],[12.421387600000001,51.3776036],[12.421496600000001,51.3776043],[12.4218287,51.3776062],[12.421827400000002,51.377689000000004]]]}},{"type":"Feature","properties":{"id":"149180241","version":"1","building":"yes","changeSetId":"0","timestamp":"1328637642000"},"geometry":{"type":"Polygon","coordinates":[[[12.412680900000002,51.37708670000001],[12.4127159,51.377163900000006],[12.412579000000001,51.377188100000005],[12.412543900000001,51.377110900000005],[12.412680900000002,51.37708670000001]]]}},{"type":"Feature","properties":{"id":"149180242","version":"1","building":"yes","changeSetId":"0","timestamp":"1328637642000"},"geometry":{"type":"Polygon","coordinates":[[[12.412042600000001,51.3767511],[12.4120021,51.3766661],[12.411869800000002,51.376690700000005],[12.4119104,51.3767757],[12.412042600000001,51.3767511]]]}},{"type":"Feature","properties":{"id":"149180243","version":"1","building":"yes","changeSetId":"0","timestamp":"1328637642000"},"geometry":{"type":"Polygon","coordinates":[[[12.411170100000001,51.3778719],[12.4113126,51.377850300000006],[12.411279100000002,51.3777643],[12.411136500000001,51.377785900000006],[12.411170100000001,51.3778719]]]}},{"type":"Feature","properties":{"id":"149180244","version":"1","building":"yes","changeSetId":"0","timestamp":"1328637642000"},"geometry":{"type":"Polygon","coordinates":[[[12.411279100000002,51.3777643],[12.4112402,51.3776646],[12.411097700000001,51.37768620000001],[12.411136500000001,51.377785900000006],[12.411279100000002,51.3777643]]]}},{"type":"Feature","properties":{"id":"149180245","version":"1","building":"yes","changeSetId":"0","timestamp":"1328637643000"},"geometry":{"type":"Polygon","coordinates":[[[12.4120021,51.3766661],[12.4119615,51.376581200000004],[12.4118293,51.3766058],[12.411869800000002,51.376690700000005],[12.4120021,51.3766661]]]}},{"type":"Feature","properties":{"id":"149180246","version":"1","building":"yes","changeSetId":"0","timestamp":"1328637643000"},"geometry":{"type":"Polygon","coordinates":[[[12.411706700000002,51.3760446],[12.4116716,51.3759755],[12.4115487,51.3759998],[12.4115838,51.3760689],[12.411706700000002,51.3760446]]]}},{"type":"Feature","properties":{"id":"149180247","version":"1","building":"yes","changeSetId":"0","timestamp":"1328637643000"},"geometry":{"type":"Polygon","coordinates":[[[12.412367300000001,51.3774182],[12.4123307,51.3773453],[12.412191900000002,51.377372300000005],[12.4122284,51.377445300000005],[12.412367300000001,51.3774182]]]}},{"type":"Feature","properties":{"id":"149180248","version":"1","building":"yes","changeSetId":"0","timestamp":"1328637643000"},"geometry":{"type":"Polygon","coordinates":[[[12.4126458,51.3770095],[12.412680900000002,51.37708670000001],[12.412543900000001,51.377110900000005],[12.4125089,51.377033700000005],[12.4126458,51.3770095]]]}},{"type":"Feature","properties":{"id":"149180249","version":"2","building":"yes","changeSetId":"0","timestamp":"1328639251000"},"geometry":{"type":"Polygon","coordinates":[[[12.4118484,51.376345],[12.411805500000002,51.3762569],[12.411654200000001,51.376285700000004],[12.411684300000001,51.3763474],[12.4116557,51.37635280000001],[12.4116435,51.3763279],[12.4115429,51.376347],[12.411567900000001,51.376398200000004],[12.4118484,51.376345]]]}},{"type":"Feature","properties":{"id":"149180250","version":"1","building":"yes","changeSetId":"0","timestamp":"1328637644000"},"geometry":{"type":"Polygon","coordinates":[[[12.411741800000001,51.376113700000005],[12.411706700000002,51.3760446],[12.4115838,51.3760689],[12.4116189,51.376138100000006],[12.411741800000001,51.376113700000005]]]}},{"type":"Feature","properties":{"id":"149180251","version":"1","building":"yes","changeSetId":"0","timestamp":"1328637644000"},"geometry":{"type":"Polygon","coordinates":[[[12.4120293,51.37702590000001],[12.4119881,51.376938100000004],[12.412127600000002,51.376912700000005],[12.4121687,51.3770004],[12.4120293,51.37702590000001]]]}},{"type":"Feature","properties":{"id":"149180252","version":"1","building":"yes","changeSetId":"0","timestamp":"1328637644000"},"geometry":{"type":"Polygon","coordinates":[[[12.4123987,51.376785100000006],[12.4123645,51.376704100000005],[12.412486300000001,51.376684000000004],[12.412520500000001,51.3767651],[12.4123987,51.376785100000006]]]}},{"type":"Feature","properties":{"id":"149180253","version":"1","building":"yes","changeSetId":"0","timestamp":"1328637644000"},"geometry":{"type":"Polygon","coordinates":[[[12.4121944,51.37611630000001],[12.4122239,51.376183700000006],[12.412114200000001,51.376202400000004],[12.412084700000001,51.376135100000006],[12.4121944,51.37611630000001]]]}},{"type":"Feature","properties":{"id":"149180254","version":"2","building":"yes","changeSetId":"0","timestamp":"1328639251000"},"geometry":{"type":"Polygon","coordinates":[[[12.4118917,51.3764338],[12.4118484,51.376345],[12.411567900000001,51.376398200000004],[12.411476100000002,51.3764157],[12.4115038,51.376472400000004],[12.4116321,51.376448100000005],[12.4116394,51.3764632],[12.4117326,51.3764455],[12.4117408,51.3764625],[12.4118917,51.3764338]]]}},{"type":"Feature","properties":{"id":"149180255","version":"1","building":"yes","changeSetId":"0","timestamp":"1328637645000"},"geometry":{"type":"Polygon","coordinates":[[[12.412433,51.3768662],[12.4123987,51.376785100000006],[12.412520500000001,51.3767651],[12.4125548,51.3768462],[12.412433,51.3768662]]]}},{"type":"Feature","properties":{"id":"149180256","version":"1","building":"yes","changeSetId":"0","timestamp":"1328637645000"},"geometry":{"type":"Polygon","coordinates":[[[12.412070400000001,51.3771137],[12.4120293,51.37702590000001],[12.4121687,51.3770004],[12.4122099,51.3770882],[12.412070400000001,51.3771137]]]}},{"type":"Feature","properties":{"id":"149180257","version":"1","building":"yes","changeSetId":"0","timestamp":"1328637645000"},"geometry":{"type":"Polygon","coordinates":[[[12.412164800000001,51.376049],[12.4121944,51.37611630000001],[12.412084700000001,51.376135100000006],[12.4120551,51.3760678],[12.412164800000001,51.376049]]]}},{"type":"Feature","properties":{"id":"149180258","version":"1","building":"yes","changeSetId":"0","timestamp":"1328637645000"},"geometry":{"type":"Polygon","coordinates":[[[12.4123307,51.3773453],[12.412294200000002,51.3772723],[12.4121553,51.377299400000005],[12.412191900000002,51.377372300000005],[12.4123307,51.3773453]]]}},{"type":"Feature","properties":{"id":"149180259","version":"1","building":"yes","changeSetId":"0","timestamp":"1328637645000"},"geometry":{"type":"Polygon","coordinates":[[[12.411233800000002,51.3779921],[12.411398400000001,51.377966400000005],[12.4114172,51.378013200000005],[12.411384600000002,51.3780183],[12.4114179,51.378101400000006],[12.411456900000001,51.378095300000005],[12.4114757,51.378142200000006],[12.4113047,51.378168900000006],[12.411233800000002,51.3779921]]]}},{"type":"Feature","properties":{"id":"149185359","version":"1","building":"yes","changeSetId":"0","timestamp":"1328639241000"},"geometry":{"type":"Polygon","coordinates":[[[12.412836100000002,51.3774135],[12.412866300000001,51.3774785],[12.412739400000001,51.3775015],[12.4127092,51.3774365],[12.412836100000002,51.3774135]]]}},{"type":"Feature","properties":{"id":"149185360","version":"1","building":"garage","changeSetId":"0","timestamp":"1328639241000"},"geometry":{"type":"Polygon","coordinates":[[[12.412669300000001,51.378064200000004],[12.412533700000001,51.378089200000005],[12.4125495,51.3781224],[12.412685000000002,51.3780974],[12.412669300000001,51.378064200000004]]]}},{"type":"Feature","properties":{"id":"149185361","version":"1","building":"yes","changeSetId":"0","timestamp":"1328639241000"},"geometry":{"type":"Polygon","coordinates":[[[12.4129915,51.377728000000005],[12.4129591,51.3776585],[12.4128197,51.377686100000005],[12.4128532,51.37775430000001],[12.4129915,51.377728000000005]]]}},{"type":"Feature","properties":{"id":"149185362","version":"1","building":"yes","changeSetId":"0","timestamp":"1328639241000"},"geometry":{"type":"Polygon","coordinates":[[[12.4124634,51.37763270000001],[12.4124224,51.377549],[12.4122895,51.377574300000006],[12.412330500000001,51.377658100000005],[12.4124634,51.37763270000001]]]}},{"type":"Feature","properties":{"id":"149185363","version":"1","building":"yes","changeSetId":"0","timestamp":"1328639241000"},"geometry":{"type":"Polygon","coordinates":[[[12.4129731,51.377328000000006],[12.413087200000001,51.3773045],[12.4131289,51.37738340000001],[12.413014800000001,51.377406900000004],[12.4129731,51.377328000000006]]]}},{"type":"Feature","properties":{"id":"149185364","version":"1","building":"garage","changeSetId":"0","timestamp":"1328639242000"},"geometry":{"type":"Polygon","coordinates":[[[12.412391300000001,51.377848],[12.4125516,51.377819200000005],[12.412535700000001,51.377784600000005],[12.4123753,51.3778134],[12.412391300000001,51.377848]]]}},{"type":"Feature","properties":{"id":"149185365","version":"1","building":"yes","changeSetId":"0","timestamp":"1328639242000"},"geometry":{"type":"Polygon","coordinates":[[[12.412472000000001,51.377948800000006],[12.412441800000002,51.377884200000004],[12.4125759,51.3778598],[12.4126062,51.377924400000005],[12.412472000000001,51.377948800000006]]]}},{"type":"Feature","properties":{"id":"149185366","version":"1","building":"yes","changeSetId":"0","timestamp":"1328639242000"},"geometry":{"type":"Polygon","coordinates":[[[12.4125995,51.3782787],[12.4125627,51.3781988],[12.4127217,51.37817020000001],[12.4127585,51.378250200000004],[12.4125995,51.3782787]]]}},{"type":"Feature","properties":{"id":"149185369","version":"1","building":"yes","changeSetId":"0","timestamp":"1328639242000"},"geometry":{"type":"Polygon","coordinates":[[[12.412077700000001,51.3773666],[12.412052200000002,51.3773113],[12.4119185,51.377335300000006],[12.411944,51.37739070000001],[12.412077700000001,51.3773666]]]}},{"type":"Feature","properties":{"id":"149185370","version":"1","building":"yes","changeSetId":"0","timestamp":"1328639242000"},"geometry":{"type":"Polygon","coordinates":[[[12.412502300000002,51.3780134],[12.412472000000001,51.377948800000006],[12.4126062,51.377924400000005],[12.4126364,51.37798900000001],[12.412502300000002,51.3780134]]]}},{"type":"Feature","properties":{"id":"149185371","version":"1","building":"yes","changeSetId":"0","timestamp":"1328639242000"},"geometry":{"type":"Polygon","coordinates":[[[12.412224100000001,51.376438500000006],[12.4123728,51.37641240000001],[12.4123272,51.376311],[12.4121784,51.3763371],[12.412224100000001,51.376438500000006]]]}},{"type":"Feature","properties":{"id":"149185372","version":"1","building":"garage","changeSetId":"0","timestamp":"1328639243000"},"geometry":{"type":"Polygon","coordinates":[[[12.4123753,51.3778134],[12.412359200000001,51.377778400000004],[12.412519600000001,51.3777496],[12.412535700000001,51.377784600000005],[12.4123753,51.3778134]]]}},{"type":"Feature","properties":{"id":"149185373","version":"1","building":"yes","changeSetId":"0","timestamp":"1328639243000"},"geometry":{"type":"Polygon","coordinates":[[[12.4128059,51.377348500000004],[12.412836100000002,51.3774135],[12.4127092,51.3774365],[12.412679,51.3773715],[12.4128059,51.377348500000004]]]}},{"type":"Feature","properties":{"id":"149185374","version":"1","building":"garage","changeSetId":"0","timestamp":"1328639243000"},"geometry":{"type":"Polygon","coordinates":[[[12.412211800000001,51.3762685],[12.412198400000001,51.376238900000004],[12.412271700000002,51.3762259],[12.4122851,51.376255500000006],[12.412211800000001,51.3762685]]]}},{"type":"Feature","properties":{"id":"149185375","version":"1","building":"yes","changeSetId":"0","timestamp":"1328639243000"},"geometry":{"type":"Polygon","coordinates":[[[12.413024,51.3777975],[12.4129915,51.377728000000005],[12.4128532,51.37775430000001],[12.412886700000001,51.37782240000001],[12.413024,51.3777975]]]}},{"type":"Feature","properties":{"id":"149185376","version":"1","building":"garage","changeSetId":"0","timestamp":"1328639243000"},"geometry":{"type":"Polygon","coordinates":[[[12.4116117,51.37589680000001],[12.411589300000001,51.3758611],[12.411471800000001,51.3758898],[12.4114941,51.3759255],[12.4116117,51.37589680000001]]]}},{"type":"Feature","properties":{"id":"149185377","version":"1","building":"garage","changeSetId":"0","timestamp":"1328639243000"},"geometry":{"type":"Polygon","coordinates":[[[12.412131,51.3771871],[12.4121445,51.3772158],[12.412265300000001,51.377193600000005],[12.4122518,51.377164900000004],[12.412131,51.3771871]]]}},{"type":"Feature","properties":{"id":"149185380","version":"1","building":"garage","changeSetId":"0","timestamp":"1328639244000"},"geometry":{"type":"Polygon","coordinates":[[[12.412366800000001,51.3774371],[12.4123835,51.377470900000006],[12.4122959,51.3774877],[12.412279300000002,51.377453900000006],[12.412366800000001,51.3774371]]]}},{"type":"Feature","properties":{"id":"149185382","version":"1","building":"garage","changeSetId":"0","timestamp":"1328639244000"},"geometry":{"type":"Polygon","coordinates":[[[12.4127548,51.3775355],[12.412901600000001,51.3775084],[12.412918600000001,51.3775442],[12.412771800000002,51.3775714],[12.4127548,51.3775355]]]}},{"type":"Feature","properties":{"id":"149185383","version":"1","building":"yes","changeSetId":"0","timestamp":"1328639244000"},"geometry":{"type":"Polygon","coordinates":[[[12.412077700000001,51.3773666],[12.411944,51.37739070000001],[12.4119796,51.377467800000005],[12.412113300000001,51.3774437],[12.412077700000001,51.3773666]]]}},{"type":"Feature","properties":{"id":"149185384","version":"1","building":"garage","changeSetId":"0","timestamp":"1328639244000"},"geometry":{"type":"Polygon","coordinates":[[[12.411803200000001,51.376495600000005],[12.411903800000001,51.3764788],[12.4119179,51.3765116],[12.411817300000001,51.376528500000006],[12.411803200000001,51.376495600000005]]]}},{"type":"Feature","properties":{"id":"149185385","version":"1","building":"garage","changeSetId":"0","timestamp":"1328639244000"},"geometry":{"type":"Polygon","coordinates":[[[12.4126247,51.3772651],[12.4126419,51.377302],[12.412751100000001,51.377282300000005],[12.412734,51.37724540000001],[12.4126247,51.3772651]]]}},{"type":"Feature","properties":{"id":"149185386","version":"1","building":"garage","changeSetId":"0","timestamp":"1328639245000"},"geometry":{"type":"Polygon","coordinates":[[[12.4123155,51.3766211],[12.412290800000001,51.3765682],[12.412357400000001,51.3765561],[12.4123821,51.376609],[12.4123155,51.3766211]]]}},{"type":"Feature","properties":{"id":"149185387","version":"1","building":"garage","changeSetId":"0","timestamp":"1328639245000"},"geometry":{"type":"Polygon","coordinates":[[[12.4116213,51.376176],[12.4117271,51.3761543],[12.4117435,51.376185400000004],[12.4116377,51.3762072],[12.4116213,51.376176]]]}},{"type":"Feature","properties":{"id":"149185388","version":"1","building":"garage","changeSetId":"0","timestamp":"1328639245000"},"geometry":{"type":"Polygon","coordinates":[[[12.4122388,51.3771372],[12.412069500000001,51.3771683],[12.4120825,51.377196000000005],[12.412131,51.3771871],[12.4122518,51.377164900000004],[12.4122388,51.3771372]]]}},{"type":"Feature","properties":{"id":"149185389","version":"1","building":"garage","changeSetId":"0","timestamp":"1328639245000"},"geometry":{"type":"Polygon","coordinates":[[[12.4123835,51.377470900000006],[12.4124019,51.3775083],[12.412213900000001,51.377544400000005],[12.412195500000001,51.377507],[12.4122959,51.3774877],[12.4123835,51.377470900000006]]]}},{"type":"Feature","properties":{"id":"149185392","version":"1","building":"garage","changeSetId":"0","timestamp":"1328639246000"},"geometry":{"type":"Polygon","coordinates":[[[12.4125951,51.3772012],[12.4127329,51.3771763],[12.412762500000001,51.3772402],[12.412734,51.37724540000001],[12.4126247,51.3772651],[12.4125951,51.3772012]]]}},{"type":"Feature","properties":{"id":"149185393","version":"1","building":"garage","changeSetId":"0","timestamp":"1328639246000"},"geometry":{"type":"Polygon","coordinates":[[[12.411934400000002,51.376842],[12.412059500000002,51.3768206],[12.4120722,51.376849400000005],[12.4119986,51.376862],[12.4119471,51.3768709],[12.411934400000002,51.376842]]]}},{"type":"Feature","properties":{"id":"149185394","version":"1","building":"yes","changeSetId":"0","timestamp":"1328639246000"},"geometry":{"type":"Polygon","coordinates":[[[12.4125049,51.3777174],[12.4124634,51.37763270000001],[12.412330500000001,51.377658100000005],[12.4122994,51.377664],[12.4123409,51.377748700000005],[12.4125049,51.3777174]]]}},{"type":"Feature","properties":{"id":"149185395","version":"1","building":"garage","changeSetId":"0","timestamp":"1328639246000"},"geometry":{"type":"Polygon","coordinates":[[[12.412685000000002,51.3780974],[12.4127019,51.378133000000005],[12.4125233,51.378166],[12.412506500000001,51.3781304],[12.4125495,51.3781224],[12.412685000000002,51.3780974]]]}},{"type":"Feature","properties":{"id":"149185396","version":"1","building":"garage","changeSetId":"0","timestamp":"1328639246000"},"geometry":{"type":"Polygon","coordinates":[[[12.4120722,51.376849400000005],[12.4120819,51.3768478],[12.412096900000002,51.3768819],[12.412013600000002,51.376896200000004],[12.4119986,51.376862],[12.4120722,51.376849400000005]]]}},{"type":"Feature","properties":{"id":"149185397","version":"1","building":"garage","changeSetId":"0","timestamp":"1328639246000"},"geometry":{"type":"Polygon","coordinates":[[[12.4116377,51.3762072],[12.4116111,51.3762126],[12.411631600000002,51.3762516],[12.411764100000001,51.376224300000004],[12.4117435,51.376185400000004],[12.4116377,51.3762072]]]}},{"type":"Feature","properties":{"id":"149185398","version":"1","building":"garage","changeSetId":"0","timestamp":"1328639247000"},"geometry":{"type":"Polygon","coordinates":[[[12.411817300000001,51.376528500000006],[12.4117504,51.3765396],[12.4117674,51.3765791],[12.411934800000001,51.376551000000006],[12.4119179,51.3765116],[12.411817300000001,51.376528500000006]]]}},{"type":"Feature","properties":{"id":"149185399","version":"1","building":"garage","changeSetId":"0","timestamp":"1328639247000"},"geometry":{"type":"Polygon","coordinates":[[[12.412346300000001,51.376687100000005],[12.4123155,51.3766211],[12.4123821,51.376609],[12.412398000000001,51.376606100000004],[12.4124288,51.3766721],[12.412346300000001,51.376687100000005]]]}},{"type":"Feature","properties":{"id":"149185403","version":"1","building":"garage","changeSetId":"0","timestamp":"1328639247000"},"geometry":{"type":"Polygon","coordinates":[[[12.412194000000001,51.3762716],[12.412211800000001,51.3762685],[12.4122851,51.376255500000006],[12.4123012,51.3762909],[12.412210100000001,51.376307000000004],[12.412194000000001,51.3762716]]]}},{"type":"Feature","properties":{"id":"149185406","version":"1","building":"yes","changeSetId":"0","timestamp":"1328639248000"},"geometry":{"type":"Polygon","coordinates":[[[12.412901100000001,51.3785517],[12.412940800000001,51.3786397],[12.412794700000001,51.3786664],[12.4127649,51.3786099],[12.412507600000001,51.378657800000006],[12.4124946,51.378631000000006],[12.412901100000001,51.3785517]]]}},{"type":"Feature","properties":{"id":"149185407","version":"1","building":"yes","changeSetId":"0","timestamp":"1328639248000"},"geometry":{"type":"Polygon","coordinates":[[[12.4124654,51.376917600000006],[12.4125689,51.3768984],[12.4125625,51.376885],[12.412608200000001,51.3768766],[12.4126472,51.3769586],[12.412498000000001,51.376986200000005],[12.4124654,51.376917600000006]]]}},{"type":"Feature","properties":{"id":"149185409","version":"1","building":"yes","changeSetId":"0","timestamp":"1328639248000"},"geometry":{"type":"Polygon","coordinates":[[[12.412954200000001,51.377959800000006],[12.413115900000001,51.377929300000005],[12.413136300000001,51.3779714],[12.4131125,51.3779759],[12.413134900000001,51.378022200000004],[12.412997,51.3780482],[12.412954200000001,51.377959800000006]]]}},{"type":"Feature","properties":{"id":"149185410","version":"1","building":"yes","changeSetId":"0","timestamp":"1328639248000"},"geometry":{"type":"Polygon","coordinates":[[[12.413134900000001,51.378022200000004],[12.413151500000001,51.378056300000004],[12.4132064,51.378045900000004],[12.413224600000001,51.3780835],[12.4131008,51.378106900000006],[12.413092200000001,51.378089100000004],[12.413023200000001,51.37810210000001],[12.412997,51.3780482],[12.413134900000001,51.378022200000004]]]}},{"type":"Feature","properties":{"id":"149185412","version":"1","building":"yes","changeSetId":"0","timestamp":"1328639248000"},"geometry":{"type":"Polygon","coordinates":[[[12.412662800000001,51.3783375],[12.4126539,51.3783181],[12.412620400000002,51.3783241],[12.4125995,51.3782787],[12.4127585,51.378250200000004],[12.4127953,51.3783302],[12.412706,51.3783462],[12.412699,51.378331],[12.412662800000001,51.3783375]]]}},{"type":"Feature","properties":{"id":"149185414","version":"1","building":"yes","changeSetId":"0","timestamp":"1328639249000"},"geometry":{"type":"Polygon","coordinates":[[[12.4132011,51.3782847],[12.413375400000001,51.378255200000005],[12.4134267,51.3783691],[12.413665900000002,51.378321],[12.413614500000001,51.3782105],[12.413787500000002,51.378174200000004],[12.4139388,51.378509900000005],[12.4133578,51.3786221],[12.4132011,51.3782847]]]}},{"type":"Feature","properties":{"id":"149185415","version":"1","building":"yes","changeSetId":"0","timestamp":"1328639249000"},"geometry":{"type":"Polygon","coordinates":[[[12.412857200000001,51.3784623],[12.412901100000001,51.3785517],[12.4124946,51.378631000000006],[12.4124665,51.378576200000005],[12.4125887,51.3785499],[12.412604900000002,51.378576200000005],[12.4126644,51.3785661],[12.4126376,51.37850460000001],[12.412857200000001,51.3784623]]]}},{"type":"Feature","properties":{"id":"149185421","version":"1","building":"yes","changeSetId":"0","timestamp":"1328639250000"},"geometry":{"type":"Polygon","coordinates":[[[12.412224100000001,51.376438500000006],[12.412266200000001,51.3765322],[12.412415300000001,51.3765061],[12.412390100000001,51.37645010000001],[12.4124776,51.376434700000004],[12.412502700000001,51.3764905],[12.412638600000001,51.3764667],[12.412596500000001,51.3763732],[12.4123728,51.37641240000001],[12.412224100000001,51.376438500000006]]]}},{"type":"Feature","properties":{"id":"172476014","railway":"signal_box","version":"1","building":"yes","changeSetId":"0","timestamp":"1342938754000"},"geometry":{"type":"Polygon","coordinates":[[[12.396597700000001,51.3785638],[12.396556100000002,51.3787846],[12.3964818,51.378779200000004],[12.3965233,51.3785583],[12.396597700000001,51.3785638]]]}},{"type":"Feature","properties":{"id":"172476018","railway":"signal_box","version":"1","building":"yes","changeSetId":"0","timestamp":"1342938755000"},"geometry":{"type":"Polygon","coordinates":[[[12.394613000000001,51.383387500000005],[12.394705700000001,51.383401000000006],[12.394652800000001,51.3835423],[12.394560100000001,51.3835288],[12.394613000000001,51.383387500000005]]]}},{"type":"Feature","properties":{"id":"178455769","addr:street":"Essener Straße","version":"3","addr:postcode":"04357","building":"yes","changeSetId":"0","timestamp":"1346934261000","addr:city":"Leipzig"},"geometry":{"type":"Polygon","coordinates":[[[12.401261600000002,51.376501100000006],[12.401812300000001,51.3764394],[12.4017757,51.376311900000005],[12.4012249,51.3763736],[12.401261600000002,51.376501100000006]]]}},{"type":"Feature","properties":{"roof:shape":"flat","building:levels":"1","id":"189075558","version":"2","building":"garages","changeSetId":"0","timestamp":"1352218428000"},"geometry":{"type":"Polygon","coordinates":[[[12.397791100000001,51.3811997],[12.397699900000001,51.381207800000006],[12.3978239,51.3817504],[12.3989866,51.3816469],[12.3989414,51.3814493],[12.3990334,51.3814411],[12.3989718,51.3811716],[12.398790900000002,51.381187700000005],[12.398885100000001,51.3816001],[12.3979025,51.38168760000001],[12.397791100000001,51.3811997]]]}},{"type":"Feature","properties":{"roof:shape":"flat","building:levels":"16","id":"189075561","version":"3","building":"apartments","changeSetId":"0","timestamp":"1352738855000","height":"60"},"geometry":{"type":"Polygon","coordinates":[[[12.4149472,51.378971500000006],[12.415268300000001,51.3790046],[12.4152581,51.3790434],[12.4153716,51.3790551],[12.415319400000001,51.3792527],[12.415108,51.3792309],[12.4150998,51.3792617],[12.414951400000001,51.37924640000001],[12.414996400000001,51.379076100000006],[12.414921600000001,51.3790684],[12.4149472,51.378971500000006]]]}},{"type":"Feature","properties":{"roof:shape":"flat","building:levels":"1","id":"189075563","version":"2","building":"garages","changeSetId":"0","timestamp":"1352222414000"},"geometry":{"type":"Polygon","coordinates":[[[12.4191023,51.386395300000004],[12.4194144,51.387671700000006],[12.4186397,51.3877455],[12.4186229,51.3876768],[12.418714900000001,51.387668000000005],[12.4184921,51.386757],[12.4183087,51.3867745],[12.418547400000001,51.387750700000005],[12.417732500000001,51.3878283],[12.4177163,51.387762300000006],[12.4178131,51.387753100000005],[12.4175257,51.3865776],[12.417336,51.3865957],[12.417639300000001,51.387836300000004],[12.4167936,51.3879169],[12.416808300000001,51.3879767],[12.419521900000001,51.3877183],[12.4191962,51.386386300000005],[12.4191023,51.386395300000004]]]}},{"type":"Feature","properties":{"roof:shape":"flat","building:levels":"5","id":"189075565","version":"2","building":"apartments","changeSetId":"0","timestamp":"1352218429000"},"geometry":{"type":"Polygon","coordinates":[[[12.403786,51.3787505],[12.4037751,51.3787056],[12.403761300000001,51.3786496],[12.404277800000001,51.3786003],[12.404276300000001,51.3785942],[12.404330900000001,51.378589000000005],[12.404332400000001,51.3785948],[12.405365900000001,51.3784962],[12.4053678,51.378503900000005],[12.405420300000001,51.378498900000004],[12.405418300000001,51.3784908],[12.405937000000002,51.3784414],[12.4059497,51.378493500000005],[12.4059617,51.378542200000005],[12.405441300000001,51.3785919],[12.4054392,51.3785833],[12.4053898,51.378588],[12.405392,51.378596900000005],[12.4043527,51.378696100000006],[12.404351100000001,51.3786895],[12.4043039,51.378694],[12.4043056,51.378700900000005],[12.403786,51.3787505]]]}},{"type":"Feature","properties":{"id":"189075566","version":"1","building":"yes","changeSetId":"0","timestamp":"1352046296000"},"geometry":{"type":"Polygon","coordinates":[[[12.4022637,51.379604500000006],[12.4021977,51.379340600000006],[12.402067,51.379353300000005],[12.402132900000002,51.379617200000006],[12.4022637,51.379604500000006]]]}},{"type":"Feature","properties":{"id":"189075567","version":"1","building":"yes","changeSetId":"0","timestamp":"1352046296000"},"geometry":{"type":"Polygon","coordinates":[[[12.4044395,51.3799803],[12.4043427,51.379585600000006],[12.4044766,51.379572800000005],[12.404573300000001,51.3799676],[12.4044395,51.3799803]]]}},{"type":"Feature","properties":{"roof:shape":"flat","building:levels":"1","id":"189075569","version":"2","building":"garages","changeSetId":"0","timestamp":"1352222416000"},"geometry":{"type":"Polygon","coordinates":[[[12.416919700000001,51.3867721],[12.417156700000001,51.387815800000006],[12.4169721,51.387832200000005],[12.4167351,51.3867884],[12.416919700000001,51.3867721]]]}},{"type":"Feature","properties":{"roof:shape":"flat","building:levels":"1","id":"189075570","version":"2","building":"garages","changeSetId":"0","timestamp":"1352218429000"},"geometry":{"type":"Polygon","coordinates":[[[12.398697700000001,51.380309200000006],[12.3988782,51.381022300000005],[12.398716400000001,51.3810383],[12.3985359,51.3803251],[12.398697700000001,51.380309200000006]]]}},{"type":"Feature","properties":{"id":"189075571","version":"1","building":"yes","changeSetId":"0","timestamp":"1352046296000"},"geometry":{"type":"Polygon","coordinates":[[[12.4040052,51.380044000000005],[12.403936600000002,51.3797891],[12.404074600000001,51.379774700000006],[12.4041432,51.380029500000006],[12.4040052,51.380044000000005]]]}},{"type":"Feature","properties":{"roof:shape":"flat","building:levels":"1","id":"189075573","version":"2","building":"garages","changeSetId":"0","timestamp":"1352222415000"},"geometry":{"type":"Polygon","coordinates":[[[12.418096400000001,51.386515200000005],[12.418111300000001,51.386576700000006],[12.4176792,51.386617400000006],[12.417664400000001,51.386555800000004],[12.418096400000001,51.386515200000005]]]}},{"type":"Feature","properties":{"roof:shape":"flat","building:levels":"1","id":"189075575","version":"2","building":"garages","changeSetId":"0","timestamp":"1352218430000"},"geometry":{"type":"Polygon","coordinates":[[[12.3989793,51.3802838],[12.3991489,51.380995600000006],[12.398997300000001,51.3810097],[12.3988277,51.3802979],[12.3989793,51.3802838]]]}},{"type":"Feature","properties":{"roof:shape":"flat","building:levels":"1","id":"189075576","version":"2","building":"garages","changeSetId":"0","timestamp":"1352218431000"},"geometry":{"type":"Polygon","coordinates":[[[12.3985894,51.381555000000006],[12.398512400000001,51.381219300000005],[12.3986821,51.381204100000005],[12.398759100000001,51.381539800000006],[12.3985894,51.381555000000006]]]}},{"type":"Feature","properties":{"roof:shape":"flat","building:levels":"1","id":"189075577","version":"2","building":"garages","changeSetId":"0","timestamp":"1352222417000"},"geometry":{"type":"Polygon","coordinates":[[[12.416691400000001,51.386713300000004],[12.4172141,51.386661000000004],[12.4171986,51.386600800000004],[12.416675900000001,51.386653100000004],[12.416691400000001,51.386713300000004]]]}},{"type":"Feature","properties":{"id":"189075578","version":"1","building":"yes","changeSetId":"0","timestamp":"1352046297000"},"geometry":{"type":"Polygon","coordinates":[[[12.404721400000001,51.3793141],[12.4046672,51.3790904],[12.404792800000001,51.3790786],[12.404847,51.379302300000006],[12.404721400000001,51.3793141]]]}},{"type":"Feature","properties":{"roof:shape":"flat","building:levels":"1","id":"189075579","version":"2","building":"garages","changeSetId":"0","timestamp":"1352218429000"},"geometry":{"type":"Polygon","coordinates":[[[12.3983036,51.381581000000004],[12.3982267,51.3812439],[12.3983925,51.3812292],[12.398469400000002,51.3815663],[12.3983036,51.381581000000004]]]}},{"type":"Feature","properties":{"id":"189075581","version":"1","building":"yes","changeSetId":"0","timestamp":"1352046297000"},"geometry":{"type":"Polygon","coordinates":[[[12.4063712,51.3774163],[12.4062376,51.376956500000006],[12.406388100000001,51.376939400000005],[12.4065217,51.3773993],[12.4063712,51.3774163]]]}},{"type":"Feature","properties":{"id":"189075582","version":"1","building":"yes","changeSetId":"0","timestamp":"1352046297000"},"geometry":{"type":"Polygon","coordinates":[[[12.4048552,51.3798534],[12.4047689,51.3794893],[12.404910800000001,51.379476200000006],[12.404997100000001,51.379840300000005],[12.4048552,51.3798534]]]}},{"type":"Feature","properties":{"roof:shape":"flat","building:levels":"1","id":"189075583","version":"2","building":"garages","changeSetId":"0","timestamp":"1352218431000"},"geometry":{"type":"Polygon","coordinates":[[[12.3984243,51.3803357],[12.3986026,51.3810468],[12.398436100000001,51.381063100000006],[12.3982577,51.3803519],[12.3984243,51.3803357]]]}},{"type":"Feature","properties":{"id":"189075584","version":"1","building":"yes","changeSetId":"0","timestamp":"1352046297000"},"geometry":{"type":"Polygon","coordinates":[[[12.4065331,51.3779863],[12.4064025,51.3775179],[12.406553200000001,51.3775016],[12.4066837,51.377970000000005],[12.4065331,51.3779863]]]}},{"type":"Feature","properties":{"roof:shape":"flat","building:levels":"1","id":"189075585","version":"2","building":"garages","changeSetId":"0","timestamp":"1352222416000"},"geometry":{"type":"Polygon","coordinates":[[[12.4188156,51.387655300000006],[12.418556200000001,51.386582000000004],[12.4187401,51.3865647],[12.419004500000002,51.3876349],[12.4188156,51.387655300000006]]]}},{"type":"Feature","properties":{"roof:shape":"flat","building:levels":"1","id":"189075586","version":"2","building":"garages","changeSetId":"0","timestamp":"1352218431000"},"geometry":{"type":"Polygon","coordinates":[[[12.3977775,51.380397800000004],[12.397867600000001,51.380389],[12.398064900000001,51.381177300000004],[12.3979747,51.38118600000001],[12.3977775,51.380397800000004]]]}},{"type":"Feature","properties":{"id":"189075587","version":"1","building":"yes","changeSetId":"0","timestamp":"1352046297000"},"geometry":{"type":"Polygon","coordinates":[[[12.405783000000001,51.379110100000005],[12.406311500000001,51.379057],[12.4063323,51.3791376],[12.405803800000001,51.3791907],[12.405783000000001,51.379110100000005]]]}},{"type":"Feature","properties":{"roof:shape":"flat","building:levels":"1","id":"189075588","version":"2","building":"garages","changeSetId":"0","timestamp":"1352218430000"},"geometry":{"type":"Polygon","coordinates":[[[12.3990813,51.3811625],[12.3992637,51.3811468],[12.399322600000001,51.381414400000004],[12.399140200000001,51.38143],[12.3990813,51.3811625]]]}},{"type":"Feature","properties":{"roof:shape":"flat","building:levels":"1","id":"189075589","version":"2","building":"garages","changeSetId":"0","timestamp":"1352222414000"},"geometry":{"type":"Polygon","coordinates":[[[12.418559400000001,51.386510300000005],[12.4185447,51.3864457],[12.418978300000001,51.3864073],[12.418993,51.386471900000004],[12.418559400000001,51.386510300000005]]]}},{"type":"Feature","properties":{"id":"189075590","version":"1","building":"yes","changeSetId":"0","timestamp":"1352046297000"},"geometry":{"type":"Polygon","coordinates":[[[12.4035483,51.3793954],[12.4035308,51.3793134],[12.4037088,51.379298500000004],[12.4037264,51.379380600000005],[12.4035483,51.3793954]]]}},{"type":"Feature","properties":{"id":"189075591","version":"1","building":"yes","changeSetId":"0","timestamp":"1352046297000"},"geometry":{"type":"Polygon","coordinates":[[[12.405600900000001,51.379129400000004],[12.4050425,51.3791809],[12.405061400000001,51.3792605],[12.4056197,51.379209],[12.405600900000001,51.379129400000004]]]}},{"type":"Feature","properties":{"roof:shape":"flat","building:levels":"1","id":"189075592","version":"2","building":"garages","changeSetId":"0","timestamp":"1352222417000"},"geometry":{"type":"Polygon","coordinates":[[[12.418166300000001,51.386676200000004],[12.418409400000002,51.387690000000006],[12.418224700000001,51.3877073],[12.417981600000001,51.386693400000006],[12.418166300000001,51.386676200000004]]]}},{"type":"Feature","properties":{"roof:shape":"flat","building:levels":"1","id":"189075594","version":"2","building":"garages","changeSetId":"0","timestamp":"1352222415000"},"geometry":{"type":"Polygon","coordinates":[[[12.417246700000002,51.3868759],[12.417471,51.3877874],[12.4172922,51.3878045],[12.417067900000001,51.3868931],[12.417246700000002,51.3868759]]]}},{"type":"Feature","properties":{"id":"189075595","version":"1","building":"yes","changeSetId":"0","timestamp":"1352046298000"},"geometry":{"type":"Polygon","coordinates":[[[12.402963000000002,51.379370800000004],[12.402983200000001,51.3794538],[12.402421200000001,51.379507200000006],[12.4024009,51.379424300000004],[12.402963000000002,51.379370800000004]]]}},{"type":"Feature","properties":{"id":"189075597","version":"1","building":"yes","changeSetId":"0","timestamp":"1352046298000"},"geometry":{"type":"Polygon","coordinates":[[[12.4039129,51.379364200000005],[12.4038932,51.379282800000006],[12.4044536,51.379229900000006],[12.4044734,51.379311300000005],[12.4039129,51.379364200000005]]]}},{"type":"Feature","properties":{"roof:shape":"flat","building:levels":"1","id":"189075598","version":"2","building":"garages","changeSetId":"0","timestamp":"1352222417000"},"geometry":{"type":"Polygon","coordinates":[[[12.4191064,51.3876271],[12.4188503,51.386556500000005],[12.4190322,51.386539500000005],[12.419288300000002,51.3876101],[12.4191064,51.3876271]]]}},{"type":"Feature","properties":{"id":"189075599","version":"1","building":"yes","changeSetId":"0","timestamp":"1352046298000"},"geometry":{"type":"Polygon","coordinates":[[[12.403283,51.37922330000001],[12.403332500000001,51.379445100000005],[12.403192500000001,51.379457300000006],[12.4031429,51.3792355],[12.403283,51.37922330000001]]]}},{"type":"Feature","properties":{"roof:shape":"flat","building:levels":"1","id":"189075600","version":"2","building":"garages","changeSetId":"0","timestamp":"1352218429000"},"geometry":{"type":"Polygon","coordinates":[[[12.3981448,51.380362000000005],[12.3983214,51.381074000000005],[12.398156400000001,51.381089900000006],[12.397979800000002,51.380377900000006],[12.3981448,51.380362000000005]]]}},{"type":"Feature","properties":{"roof:shape":"flat","building:levels":"1","id":"189075601","version":"2","building":"garages","changeSetId":"0","timestamp":"1352222417000"},"geometry":{"type":"Polygon","coordinates":[[[12.416868000000001,51.3878387],[12.4167757,51.3878476],[12.416484200000001,51.3866693],[12.4165766,51.386660400000004],[12.416868000000001,51.3878387]]]}},{"type":"Feature","properties":{"roof:shape":"flat","building:levels":"1","id":"189075603","version":"3","building":"garages","changeSetId":"0","timestamp":"1367314950000"},"geometry":{"type":"Polygon","coordinates":[[[12.397724,51.380273700000004],[12.3977363,51.380322400000004],[12.3994534,51.3801538],[12.3994411,51.3801051],[12.3984652,51.380200900000006],[12.397724,51.380273700000004]]]}},{"type":"Feature","properties":{"roof:shape":"flat","building:levels":"1","id":"189075604","version":"2","building":"garages","changeSetId":"0","timestamp":"1352222416000"},"geometry":{"type":"Polygon","coordinates":[[[12.417867000000001,51.386704300000005],[12.418117700000002,51.3877232],[12.4179297,51.3877412],[12.417679000000001,51.3867223],[12.417867000000001,51.386704300000005]]]}},{"type":"Feature","properties":{"roof:shape":"flat","building:levels":"1","id":"189075605","version":"2","building":"garages","changeSetId":"0","timestamp":"1352218430000"},"geometry":{"type":"Polygon","coordinates":[[[12.3993873,51.380240900000004],[12.3994642,51.3802316],[12.3996408,51.3809466],[12.399557000000001,51.380954300000006],[12.3993873,51.380240900000004]]]}},{"type":"Feature","properties":{"roof:shape":"flat","building:levels":"1","id":"189075607","version":"2","building":"garages","changeSetId":"0","timestamp":"1352218431000"},"geometry":{"type":"Polygon","coordinates":[[[12.3980172,51.3816068],[12.3979379,51.381268500000004],[12.398104,51.381253300000004],[12.398183300000001,51.3815916],[12.3980172,51.3816068]]]}},{"type":"Feature","properties":{"roof:shape":"flat","building:levels":"5","id":"189075608","version":"2","building":"apartments","changeSetId":"0","timestamp":"1352218432000"},"geometry":{"type":"Polygon","coordinates":[[[12.4060456,51.3788849],[12.4059617,51.378542200000005],[12.4059497,51.378493500000005],[12.406112100000001,51.378478],[12.406208000000001,51.378869400000006],[12.4060456,51.3788849]]]}},{"type":"Feature","properties":{"roof:shape":"flat","building:levels":"5","id":"189075610","version":"2","building":"apartments","changeSetId":"0","timestamp":"1352218432000"},"geometry":{"type":"Polygon","coordinates":[[[12.4037751,51.3787056],[12.403786,51.3787505],[12.4038711,51.3790977],[12.4037103,51.379113000000004],[12.403614300000001,51.378721000000006],[12.4037751,51.3787056]]]}},{"type":"Feature","properties":{"roof:shape":"flat","building:levels":"5","id":"189075611","version":"2","building":"apartments","changeSetId":"0","timestamp":"1352220509000"},"geometry":{"type":"Polygon","coordinates":[[[12.400006900000001,51.3812447],[12.399844400000001,51.381260700000006],[12.399943100000002,51.38165],[12.4001055,51.381634000000005],[12.400018800000002,51.381291600000004],[12.400006900000001,51.3812447]]]}},{"type":"Feature","properties":{"roof:shape":"flat","building:levels":"1","id":"189075613","version":"2","building":"garages","changeSetId":"0","timestamp":"1352218432000"},"geometry":{"type":"Polygon","coordinates":[[[12.3992556,51.380256300000006],[12.3991,51.3802747],[12.399291300000002,51.3810592],[12.3993839,51.3810507],[12.399365300000001,51.3809729],[12.3994347,51.380964500000005],[12.3992556,51.380256300000006]]]}},{"type":"Feature","properties":{"roof:shape":"flat","building:levels":"1","id":"189075614","version":"2","building":"garages","changeSetId":"0","timestamp":"1352218432000"},"geometry":{"type":"Polygon","coordinates":[[[12.399363000000001,51.3811322],[12.3994745,51.381121900000004],[12.3994803,51.381146400000006],[12.3994219,51.381151800000005],[12.3994806,51.381398600000004],[12.399427500000002,51.381403600000006],[12.399363000000001,51.3811322]]]}},{"type":"Feature","properties":{"id":"189075616","version":"1","building":"yes","changeSetId":"0","timestamp":"1352046298000"},"geometry":{"type":"Polygon","coordinates":[[[12.4065823,51.378406700000006],[12.406500300000001,51.37811670000001],[12.406821200000001,51.378081400000006],[12.4068494,51.3781813],[12.406712,51.3781964],[12.406765700000001,51.378386500000005],[12.4065823,51.378406700000006]]]}},{"type":"Feature","properties":{"roof:shape":"flat","building:levels":"5","id":"189075618","version":"2","building":"apartments","changeSetId":"0","timestamp":"1352220509000"},"geometry":{"type":"Polygon","coordinates":[[[12.4004092,51.381642600000006],[12.4012072,51.3815638],[12.401236500000001,51.381560900000004],[12.401242000000002,51.381560400000005],[12.4012668,51.381658],[12.400434,51.3817402],[12.4004092,51.381642600000006]]]}},{"type":"Feature","properties":{"roof:shape":"flat","building:levels":"5","id":"189075620","version":"2","building":"apartments","changeSetId":"0","timestamp":"1352220509000"},"geometry":{"type":"Polygon","coordinates":[[[12.401106100000002,51.3811839],[12.400584100000001,51.3812354],[12.400581800000001,51.3812264],[12.400560100000002,51.381140800000004],[12.4005583,51.3811338],[12.4010803,51.3810822],[12.401094500000001,51.3811382],[12.401106100000002,51.3811839]]]}},{"type":"Feature","properties":{"roof:shape":"flat","building:levels":"5","id":"189075622","version":"2","building":"apartments","changeSetId":"0","timestamp":"1352220509000"},"geometry":{"type":"Polygon","coordinates":[[[12.4011937,51.3815296],[12.401106100000002,51.3811839],[12.401094500000001,51.3811382],[12.4012601,51.381121900000004],[12.4013597,51.381514900000006],[12.4012281,51.3815279],[12.401236500000001,51.381560900000004],[12.4012072,51.3815638],[12.4011984,51.3815292],[12.4011937,51.3815296]]]}},{"type":"Feature","properties":{"roof:shape":"flat","building:levels":"5","id":"189075624","version":"2","building":"apartments","changeSetId":"0","timestamp":"1352220509000"},"geometry":{"type":"Polygon","coordinates":[[[12.400560100000002,51.381140800000004],[12.4005141,51.3811453],[12.4005123,51.3811383],[12.3999929,51.381189600000006],[12.400006900000001,51.3812447],[12.400018800000002,51.381291600000004],[12.4005398,51.3812402],[12.400537400000001,51.381230800000004],[12.400581800000001,51.3812264],[12.400560100000002,51.381140800000004]]]}},{"type":"Feature","properties":{"addr:housenumber":"122","roof:shape":"flat","building:levels":"16","id":"189083012","addr:street":"Mockauer Straße","version":"4","addr:postcode":"04357","building":"yes","changeSetId":"0","timestamp":"1352738856000","addr:city":"Leipzig","height":"60"},"geometry":{"type":"Polygon","coordinates":[[[12.414102000000002,51.376786300000006],[12.414369800000001,51.3768133],[12.414358,51.3768589],[12.4143734,51.376860400000005],[12.4143757,51.3768515],[12.4145248,51.376866500000006],[12.414473800000001,51.377063500000006],[12.414264900000001,51.3770424],[12.414256100000001,51.3770764],[12.414109900000001,51.377061700000006],[12.4141557,51.376884700000005],[12.4140785,51.376876900000006],[12.414102000000002,51.376786300000006]]]}},{"type":"Feature","properties":{"roof:shape":"flat","building:levels":"16","id":"189083013","version":"3","building":"apartments","changeSetId":"0","timestamp":"1352738855000","height":"60"},"geometry":{"type":"Polygon","coordinates":[[[12.4202223,51.379800900000006],[12.420483800000001,51.3798352],[12.4204691,51.379879100000004],[12.4204883,51.379881600000004],[12.4204912,51.379873100000005],[12.420634100000001,51.379891900000004],[12.420567700000001,51.380089100000006],[12.4203536,51.380061000000005],[12.420343,51.380092600000005],[12.4201978,51.3800736],[12.4202559,51.3799008],[12.420191500000001,51.3798924],[12.4202223,51.379800900000006]]]}},{"type":"Feature","properties":{"roof:shape":"flat","building:levels":"5","id":"189083014","version":"2","building":"yes","changeSetId":"0","timestamp":"1352464221000"},"geometry":{"type":"Polygon","coordinates":[[[12.416676500000001,51.3807108],[12.416703,51.3806324],[12.4178566,51.3807844],[12.417828400000001,51.3808677],[12.4177432,51.3808565],[12.417734800000002,51.380881300000006],[12.417556000000001,51.3808577],[12.417564400000002,51.380832600000005],[12.4169864,51.3807564],[12.416973800000001,51.3807939],[12.4167891,51.3807696],[12.416803300000002,51.380727500000006],[12.416676500000001,51.3807108]]]}},{"type":"Feature","properties":{"id":"189083015","version":"1","building":"yes","changeSetId":"0","timestamp":"1352048674000"},"geometry":{"type":"Polygon","coordinates":[[[12.420274200000001,51.3816903],[12.4203167,51.3815706],[12.420497000000001,51.381595600000004],[12.4204545,51.3817152],[12.420274200000001,51.3816903]]]}},{"type":"Feature","properties":{"building:min_level":"1","roof:shape":"flat","building:levels":"5","id":"189083016","version":"2","building":"apartments","changeSetId":"0","timestamp":"1352222416000"},"geometry":{"type":"Polygon","coordinates":[[[12.418802600000001,51.3813941],[12.4188139,51.3813618],[12.418911600000001,51.38137510000001],[12.4189003,51.3814074],[12.418802600000001,51.3813941]]]}},{"type":"Feature","properties":{"building:min_level":"1","roof:shape":"flat","building:levels":"5","id":"189083017","version":"2","building":"apartments","changeSetId":"0","timestamp":"1352222416000"},"geometry":{"type":"Polygon","coordinates":[[[12.415598300000001,51.3801415],[12.415583000000002,51.3801142],[12.4154871,51.380135100000004],[12.415502400000001,51.3801624],[12.415598300000001,51.3801415]]]}},{"type":"Feature","properties":{"roof:shape":"flat","building:levels":"5","id":"189083018","version":"2","building":"apartments","changeSetId":"0","timestamp":"1352464221000"},"geometry":{"type":"Polygon","coordinates":[[[12.418085900000001,51.3828941],[12.418250200000001,51.3824194],[12.418396000000001,51.382439100000006],[12.418231700000002,51.3829137],[12.418085900000001,51.3828941]]]}},{"type":"Feature","properties":{"building:min_level":"1","roof:shape":"flat","building:levels":"5","id":"189083020","version":"2","building":"apartments","changeSetId":"0","timestamp":"1352222415000"},"geometry":{"type":"Polygon","coordinates":[[[12.4197254,51.383123100000006],[12.4197357,51.3830934],[12.4198345,51.3831068],[12.4198242,51.383136400000005],[12.4197254,51.383123100000006]]]}},{"type":"Feature","properties":{"building:min_level":"1","roof:shape":"flat","building:levels":"5","id":"189083021","version":"2","building":"apartments","changeSetId":"0","timestamp":"1352222414000"},"geometry":{"type":"Polygon","coordinates":[[[12.4195262,51.383497600000005],[12.419573000000002,51.3835039],[12.4195931,51.383445800000004],[12.419546400000002,51.3834395],[12.4195262,51.383497600000005]]]}},{"type":"Feature","properties":{"building:min_level":"1","roof:shape":"flat","building:levels":"5","id":"189083022","version":"2","building":"apartments","changeSetId":"0","timestamp":"1352222416000"},"geometry":{"type":"Polygon","coordinates":[[[12.4193025,51.3845412],[12.419313200000001,51.384510500000005],[12.4194095,51.3845236],[12.419398800000002,51.384554200000004],[12.4193025,51.3845412]]]}},{"type":"Feature","properties":{"building:min_level":"1","roof:shape":"flat","building:levels":"5","id":"189083023","version":"2","building":"apartments","changeSetId":"0","timestamp":"1352222415000"},"geometry":{"type":"Polygon","coordinates":[[[12.415854600000001,51.3806],[12.4158719,51.3806309],[12.415780700000001,51.380650800000005],[12.415763400000001,51.380619900000006],[12.415854600000001,51.3806]]]}},{"type":"Feature","properties":{"id":"189083024","version":"1","building":"yes","changeSetId":"0","timestamp":"1352048674000"},"geometry":{"type":"Polygon","coordinates":[[[12.418060700000002,51.3838237],[12.4190926,51.383965700000005],[12.4190546,51.3840731],[12.418022700000002,51.383931100000005],[12.418060700000002,51.3838237]]]}},{"type":"Feature","properties":{"id":"189083025","version":"1","building":"yes","changeSetId":"0","timestamp":"1352048674000"},"geometry":{"type":"Polygon","coordinates":[[[12.419826,51.380507900000005],[12.4198635,51.3803892],[12.420041000000001,51.380410600000005],[12.42,51.3805253],[12.419826,51.380507900000005]]]}},{"type":"Feature","properties":{"roof:shape":"flat","building:levels":"5","id":"189083026","version":"2","building":"apartments","changeSetId":"0","timestamp":"1352222414000"},"geometry":{"type":"Polygon","coordinates":[[[12.417574,51.383745700000006],[12.4175657,51.383771200000005],[12.4176601,51.3837832],[12.417668500000001,51.383757700000004],[12.417574,51.383745700000006]]]}},{"type":"Feature","properties":{"building:min_level":"1","roof:shape":"flat","building:levels":"5","id":"189083027","version":"2","building":"apartments","changeSetId":"0","timestamp":"1352222417000"},"geometry":{"type":"Polygon","coordinates":[[[12.4185593,51.381888000000004],[12.418606500000001,51.3818944],[12.418627500000001,51.3818342],[12.4185803,51.3818278],[12.4185593,51.381888000000004]]]}},{"type":"Feature","properties":{"building:min_level":"1","roof:shape":"flat","building:levels":"5","id":"189083028","version":"2","building":"apartments","changeSetId":"0","timestamp":"1352222416000"},"geometry":{"type":"Polygon","coordinates":[[[12.4175473,51.3822623],[12.417557200000001,51.382234000000004],[12.417647800000001,51.38224700000001],[12.417636300000002,51.3822747],[12.4175473,51.3822623]]]}},{"type":"Feature","properties":{"roof:shape":"flat","building:levels":"5","id":"189083029","version":"2","building":"apartments","changeSetId":"0","timestamp":"1352222415000"},"geometry":{"type":"Polygon","coordinates":[[[12.418444500000001,51.382257200000005],[12.419575100000001,51.3824106],[12.4195343,51.38252790000001],[12.4184037,51.382374500000005],[12.418444500000001,51.382257200000005]]]}},{"type":"Feature","properties":{"building:min_level":"1","roof:shape":"flat","building:levels":"5","id":"189083030","version":"2","building":"apartments","changeSetId":"0","timestamp":"1352222417000"},"geometry":{"type":"Polygon","coordinates":[[[12.4189793,51.380889],[12.418989600000002,51.380859400000006],[12.419083,51.380872100000005],[12.419072700000001,51.3809017],[12.4189793,51.380889]]]}},{"type":"Feature","properties":{"id":"189083031","version":"1","building":"yes","changeSetId":"0","timestamp":"1352048675000"},"geometry":{"type":"Polygon","coordinates":[[[12.4197416,51.3807369],[12.419784700000001,51.3806224],[12.419959,51.38064000000001],[12.419918000000001,51.3807546],[12.4197416,51.3807369]]]}},{"type":"Feature","properties":{"id":"189083032","version":"1","building":"yes","changeSetId":"0","timestamp":"1352048675000"},"geometry":{"type":"Polygon","coordinates":[[[12.4203167,51.3815706],[12.4203592,51.381450900000004],[12.420539400000001,51.381475900000005],[12.420497000000001,51.381595600000004],[12.4203167,51.3815706]]]}},{"type":"Feature","properties":{"id":"189083033","version":"1","building":"yes","changeSetId":"0","timestamp":"1352048675000"},"geometry":{"type":"Polygon","coordinates":[[[12.4206924,51.3805228],[12.420734300000001,51.3803995],[12.4208849,51.3804189],[12.420844200000001,51.3805412],[12.4206924,51.3805228]]]}},{"type":"Feature","properties":{"id":"189083034","version":"1","building":"yes","changeSetId":"0","timestamp":"1352048675000"},"geometry":{"type":"Polygon","coordinates":[[[12.4206505,51.380646000000006],[12.4206924,51.3805228],[12.420844200000001,51.3805412],[12.4208035,51.380663600000005],[12.4206505,51.380646000000006]]]}},{"type":"Feature","properties":{"building:min_level":"1","roof:shape":"flat","building:levels":"5","id":"189083035","version":"2","building":"apartments","changeSetId":"0","timestamp":"1352222415000"},"geometry":{"type":"Polygon","coordinates":[[[12.418072700000002,51.381718600000006],[12.4180624,51.3817481],[12.4179642,51.3817347],[12.417974500000001,51.381705200000006],[12.418072700000002,51.381718600000006]]]}},{"type":"Feature","properties":{"id":"189083036","version":"1","building":"yes","changeSetId":"0","timestamp":"1352048675000"},"geometry":{"type":"Polygon","coordinates":[[[12.419784700000001,51.3806224],[12.419826,51.380507900000005],[12.42,51.3805253],[12.419959,51.38064000000001],[12.419784700000001,51.3806224]]]}},{"type":"Feature","properties":{"id":"189083037","version":"1","building":"yes","changeSetId":"0","timestamp":"1352048675000"},"geometry":{"type":"Polygon","coordinates":[[[12.420240000000002,51.381004700000005],[12.4202884,51.381114000000004],[12.420069600000001,51.381151800000005],[12.4200212,51.38104250000001],[12.420240000000002,51.381004700000005]]]}},{"type":"Feature","properties":{"id":"189083038","version":"1","building":"yes","changeSetId":"0","timestamp":"1352048675000"},"geometry":{"type":"Polygon","coordinates":[[[12.419818500000002,51.381322000000004],[12.420005600000001,51.3812882],[12.4200522,51.381390700000004],[12.419864500000001,51.3814221],[12.419818500000002,51.381322000000004]]]}},{"type":"Feature","properties":{"building:min_level":"1","roof:shape":"flat","building:levels":"5","id":"189083039","version":"2","building":"apartments","changeSetId":"0","timestamp":"1352222417000"},"geometry":{"type":"Polygon","coordinates":[[[12.4185142,51.384743500000006],[12.4185259,51.384709900000004],[12.4186233,51.384723],[12.4186116,51.384756700000004],[12.4185142,51.384743500000006]]]}},{"type":"Feature","properties":{"id":"189083040","version":"1","building":"yes","changeSetId":"0","timestamp":"1352048675000"},"geometry":{"type":"Polygon","coordinates":[[[12.420734300000001,51.3803995],[12.4207762,51.380276200000004],[12.4209256,51.3802965],[12.4208849,51.3804189],[12.420734300000001,51.3803995]]]}},{"type":"Feature","properties":{"roof:shape":"flat","building:levels":"5","id":"189083041","version":"2","building":"apartments","changeSetId":"0","timestamp":"1352222415000"},"geometry":{"type":"Polygon","coordinates":[[[12.4171154,51.3815868],[12.417106400000002,51.3816123],[12.4172065,51.381626100000005],[12.417215500000001,51.381600500000005],[12.4171154,51.3815868]]]}},{"type":"Feature","properties":{"building:min_level":"1","roof:shape":"flat","building:levels":"5","id":"189083042","version":"2","building":"apartments","changeSetId":"0","timestamp":"1352222417000"},"geometry":{"type":"Polygon","coordinates":[[[12.4191143,51.3848933],[12.419163000000001,51.3848999],[12.419182600000001,51.384843700000005],[12.4191339,51.384837100000006],[12.4191143,51.3848933]]]}},{"type":"Feature","properties":{"building:min_level":"1","roof:shape":"flat","building:levels":"5","id":"189083043","version":"2","building":"apartments","changeSetId":"0","timestamp":"1352222416000"},"geometry":{"type":"Polygon","coordinates":[[[12.418940800000001,51.38331530000001],[12.4189304,51.3833452],[12.419027100000001,51.3833582],[12.4190375,51.3833284],[12.418940800000001,51.38331530000001]]]}},{"type":"Feature","properties":{"id":"189083044","version":"1","building":"yes","changeSetId":"0","timestamp":"1352048675000"},"geometry":{"type":"Polygon","coordinates":[[[12.419659800000002,51.3809642],[12.4197004,51.3808505],[12.4198769,51.3808693],[12.4198359,51.380984000000005],[12.419659800000002,51.3809642]]]}},{"type":"Feature","properties":{"id":"189083045","version":"1","building":"yes","changeSetId":"0","timestamp":"1352048676000"},"geometry":{"type":"Polygon","coordinates":[[[12.419621000000001,51.3810791],[12.419659800000002,51.3809642],[12.4198359,51.380984000000005],[12.419794900000001,51.3810986],[12.419621000000001,51.3810791]]]}},{"type":"Feature","properties":{"roof:shape":"flat","building:levels":"5","id":"189083046","version":"2","building":"apartments","changeSetId":"0","timestamp":"1352222416000"},"geometry":{"type":"Polygon","coordinates":[[[12.417716500000001,51.3842434],[12.4177268,51.384214500000006],[12.417824300000001,51.384228],[12.417814,51.384256900000004],[12.417716500000001,51.3842434]]]}},{"type":"Feature","properties":{"roof:shape":"flat","building:levels":"5","id":"189083047","version":"2","building":"apartments","changeSetId":"0","timestamp":"1352222415000"},"geometry":{"type":"Polygon","coordinates":[[[12.4164542,51.381532400000005],[12.4164644,51.38150400000001],[12.4163698,51.381491200000006],[12.416359400000001,51.3815199],[12.4164542,51.381532400000005]]]}},{"type":"Feature","properties":{"id":"189083048","version":"1","building":"yes","changeSetId":"0","timestamp":"1352048676000"},"geometry":{"type":"Polygon","coordinates":[[[12.420005600000001,51.3812882],[12.420192700000001,51.381254500000004],[12.4202399,51.381359200000006],[12.4200522,51.381390700000004],[12.420005600000001,51.3812882]]]}},{"type":"Feature","properties":{"building:min_level":"1","roof:shape":"flat","building:levels":"5","id":"189083049","version":"2","building":"apartments","changeSetId":"0","timestamp":"1352222416000"},"geometry":{"type":"Polygon","coordinates":[[[12.4199468,51.3821037],[12.4199962,51.3821105],[12.420017900000001,51.3820488],[12.419968500000001,51.382042000000006],[12.4199468,51.3821037]]]}},{"type":"Feature","properties":{"building:min_level":"1","roof:shape":"flat","building:levels":"5","id":"189083050","version":"2","building":"apartments","changeSetId":"0","timestamp":"1352222414000"},"geometry":{"type":"Polygon","coordinates":[[[12.4193657,51.381922900000006],[12.419355600000001,51.381951900000004],[12.4194546,51.3819655],[12.4194648,51.3819365],[12.4193657,51.381922900000006]]]}},{"type":"Feature","properties":{"id":"189083051","version":"1","building":"yes","changeSetId":"0","timestamp":"1352048676000"},"geometry":{"type":"Polygon","coordinates":[[[12.418092000000001,51.380882500000006],[12.4181807,51.3806164],[12.418582200000001,51.380668400000005],[12.418483700000001,51.3809357],[12.418092000000001,51.380882500000006]]]}},{"type":"Feature","properties":{"id":"189083052","version":"1","building":"yes","changeSetId":"0","timestamp":"1352048676000"},"geometry":{"type":"Polygon","coordinates":[[[12.4197004,51.3808505],[12.4197416,51.3807369],[12.419918000000001,51.3807546],[12.4198769,51.3808693],[12.4197004,51.3808505]]]}},{"type":"Feature","properties":{"roof:shape":"flat","building:levels":"5","id":"189083053","version":"2","building":"apartments","changeSetId":"0","timestamp":"1352222415000"},"geometry":{"type":"Polygon","coordinates":[[[12.4173948,51.3832931],[12.4173857,51.383318800000005],[12.4174819,51.3833325],[12.417491100000001,51.383307200000004],[12.4173948,51.3832931]]]}},{"type":"Feature","properties":{"roof:shape":"flat","building:levels":"5","id":"189083054","version":"2","building":"apartments","changeSetId":"0","timestamp":"1352222418000"},"geometry":{"type":"Polygon","coordinates":[[[12.4199962,51.3821105],[12.4201457,51.382131],[12.4202797,51.3817509],[12.420130200000001,51.3817304],[12.420017900000001,51.3820488],[12.4199962,51.3821105]]]}},{"type":"Feature","properties":{"roof:shape":"flat","building:levels":"5","id":"189083055","version":"2","building":"apartments","changeSetId":"0","timestamp":"1352222418000"},"geometry":{"type":"Polygon","coordinates":[[[12.4163288,51.381610900000005],[12.416359400000001,51.3815199],[12.4164542,51.381532400000005],[12.416604000000001,51.381552000000006],[12.416573300000001,51.381643000000004],[12.4163288,51.381610900000005]]]}},{"type":"Feature","properties":{"roof:shape":"flat","building:levels":"5","id":"189083056","version":"2","building":"apartments","changeSetId":"0","timestamp":"1352222418000"},"geometry":{"type":"Polygon","coordinates":[[[12.4173857,51.383318800000005],[12.4173544,51.383408800000005],[12.417601000000001,51.383445200000004],[12.4176322,51.383355],[12.4174819,51.3833325],[12.4173857,51.383318800000005]]]}},{"type":"Feature","properties":{"roof:shape":"flat","building:levels":"5","id":"189083057","version":"2","building":"apartments","changeSetId":"0","timestamp":"1352222418000"},"geometry":{"type":"Polygon","coordinates":[[[12.417716500000001,51.3842434],[12.417814,51.384256900000004],[12.4179659,51.3842779],[12.4179335,51.384368900000005],[12.4176842,51.3843344],[12.417716500000001,51.3842434]]]}},{"type":"Feature","properties":{"roof:shape":"flat","building:levels":"5","id":"189083058","version":"2","building":"apartments","changeSetId":"0","timestamp":"1352222418000"},"geometry":{"type":"Polygon","coordinates":[[[12.4175657,51.383771200000005],[12.4175363,51.3838609],[12.4177824,51.38389230000001],[12.4178118,51.3838025],[12.4176601,51.3837832],[12.4175657,51.383771200000005]]]}},{"type":"Feature","properties":{"roof:shape":"flat","building:levels":"6","id":"189083059","version":"2","building":"apartments","changeSetId":"0","timestamp":"1352222418000"},"geometry":{"type":"Polygon","coordinates":[[[12.417215500000001,51.381600500000005],[12.4172776,51.3814245],[12.4171063,51.381401000000004],[12.417044200000001,51.381577],[12.4171154,51.3815868],[12.417215500000001,51.381600500000005]]]}},{"type":"Feature","properties":{"roof:shape":"flat","building:levels":"5","id":"189083060","version":"2","building":"apartments","changeSetId":"0","timestamp":"1352222418000"},"geometry":{"type":"Polygon","coordinates":[[[12.4173544,51.3816464],[12.417322400000002,51.3817372],[12.4170744,51.3817031],[12.417106400000002,51.3816123],[12.4172065,51.381626100000005],[12.4173544,51.3816464]]]}},{"type":"Feature","properties":{"roof:shape":"flat","building:levels":"6","id":"189083061","version":"2","building":"apartments","changeSetId":"0","timestamp":"1352222419000"},"geometry":{"type":"Polygon","coordinates":[[[12.4177268,51.384214500000006],[12.4176581,51.384205],[12.4177224,51.384024000000004],[12.4179033,51.384049000000005],[12.417839,51.3842301],[12.417824300000001,51.384228],[12.4177268,51.384214500000006]]]}},{"type":"Feature","properties":{"roof:shape":"flat","building:levels":"6","id":"189083062","version":"2","building":"apartments","changeSetId":"0","timestamp":"1352222421000"},"geometry":{"type":"Polygon","coordinates":[[[12.4173817,51.3831125],[12.4175619,51.383138900000006],[12.417503,51.383309000000004],[12.417491100000001,51.383307200000004],[12.4173948,51.3832931],[12.4173228,51.3832826],[12.4173817,51.3831125]]]}},{"type":"Feature","properties":{"roof:shape":"flat","building:levels":"5","id":"189083063","version":"2","building":"apartments","changeSetId":"0","timestamp":"1352222420000"},"geometry":{"type":"Polygon","coordinates":[[[12.4168781,51.382040100000005],[12.417689600000001,51.382156800000004],[12.4176558,51.38224820000001],[12.417647800000001,51.38224700000001],[12.417557200000001,51.382234000000004],[12.4168444,51.3821315],[12.4168781,51.382040100000005]]]}},{"type":"Feature","properties":{"roof:shape":"flat","building:levels":"5","id":"189083064","version":"2","building":"apartments","changeSetId":"0","timestamp":"1352222419000"},"geometry":{"type":"Polygon","coordinates":[[[12.4197202,51.383091300000004],[12.4198856,51.3826144],[12.420033100000001,51.38263430000001],[12.419867700000001,51.3831113],[12.4198345,51.3831068],[12.4197357,51.3830934],[12.4197202,51.383091300000004]]]}},{"type":"Feature","properties":{"roof:shape":"flat","building:levels":"6","id":"189083065","version":"2","building":"apartments","changeSetId":"0","timestamp":"1352222418000"},"geometry":{"type":"Polygon","coordinates":[[[12.4198856,51.3826144],[12.4198675,51.3826119],[12.419925500000002,51.38244460000001],[12.420107900000001,51.3824692],[12.4200499,51.382636600000005],[12.420033100000001,51.38263430000001],[12.4198856,51.3826144]]]}},{"type":"Feature","properties":{"roof:shape":"flat","building:levels":"6","id":"189083066","version":"2","building":"apartments","changeSetId":"0","timestamp":"1352222419000"},"geometry":{"type":"Polygon","coordinates":[[[12.417556300000001,51.3835666],[12.4177364,51.38358950000001],[12.4176809,51.3837593],[12.417668500000001,51.383757700000004],[12.417574,51.383745700000006],[12.417500800000001,51.3837363],[12.417556300000001,51.3835666]]]}},{"type":"Feature","properties":{"roof:shape":"flat","building:levels":"5","id":"189083067","version":"2","building":"apartments","changeSetId":"0","timestamp":"1352222419000"},"geometry":{"type":"Polygon","coordinates":[[[12.4186533,51.3842359],[12.418800000000001,51.384255800000005],[12.418637,51.3847249],[12.4186233,51.384723],[12.4185259,51.384709900000004],[12.4184903,51.384705000000004],[12.4186533,51.3842359]]]}},{"type":"Feature","properties":{"roof:shape":"flat","building:levels":"5","id":"189083068","version":"2","building":"apartments","changeSetId":"0","timestamp":"1352222420000"},"geometry":{"type":"Polygon","coordinates":[[[12.4190673,51.3828376],[12.419216700000002,51.3828577],[12.4190527,51.38333050000001],[12.4190375,51.3833284],[12.418940800000001,51.38331530000001],[12.4189033,51.383310300000005],[12.4190673,51.3828376]]]}},{"type":"Feature","properties":{"roof:shape":"flat","building:levels":"6","id":"189083069","version":"2","building":"apartments","changeSetId":"0","timestamp":"1352222420000"},"geometry":{"type":"Polygon","coordinates":[[[12.418139400000001,51.381052700000005],[12.418323200000001,51.381077700000006],[12.4182608,51.381256500000006],[12.4182451,51.3812544],[12.418098400000002,51.381234400000004],[12.418077,51.381231500000005],[12.418139400000001,51.381052700000005]]]}},{"type":"Feature","properties":{"roof:shape":"flat","building:levels":"6","id":"189083071","version":"2","building":"apartments","changeSetId":"0","timestamp":"1352222421000"},"geometry":{"type":"Polygon","coordinates":[[[12.416297100000001,51.381481400000006],[12.4163568,51.381309400000006],[12.416538000000001,51.3813339],[12.4164784,51.3815059],[12.4164644,51.38150400000001],[12.4163698,51.381491200000006],[12.416297100000001,51.381481400000006]]]}},{"type":"Feature","properties":{"roof:shape":"flat","building:levels":"5","id":"189083072","version":"2","building":"apartments","changeSetId":"0","timestamp":"1352222420000"},"geometry":{"type":"Polygon","coordinates":[[[12.4182451,51.3812544],[12.4180825,51.3817199],[12.418072700000002,51.381718600000006],[12.417974500000001,51.381705200000006],[12.4179358,51.3817],[12.418098400000002,51.381234400000004],[12.4182451,51.3812544]]]}},{"type":"Feature","properties":{"roof:shape":"flat","building:levels":"5","id":"189083073","version":"2","building":"apartments","changeSetId":"0","timestamp":"1352222419000"},"geometry":{"type":"Polygon","coordinates":[[[12.4152222,51.379682],[12.415366200000001,51.379650600000005],[12.415621100000001,51.3801058],[12.415583000000002,51.3801142],[12.4154871,51.380135100000004],[12.4154771,51.3801372],[12.4152222,51.379682]]]}},{"type":"Feature","properties":{"roof:shape":"flat","building:levels":"5","id":"189083074","version":"2","building":"apartments","changeSetId":"0","timestamp":"1352222421000"},"geometry":{"type":"Polygon","coordinates":[[[12.418989600000002,51.380859400000006],[12.418969,51.3808566],[12.4191318,51.3803904],[12.419280800000001,51.380410700000006],[12.419118000000001,51.380876900000004],[12.419083,51.380872100000005],[12.418989600000002,51.380859400000006]]]}},{"type":"Feature","properties":{"roof:shape":"flat","building:levels":"5","id":"189083075","version":"2","building":"apartments","changeSetId":"0","timestamp":"1352222420000"},"geometry":{"type":"Polygon","coordinates":[[[12.415914500000001,51.380621600000005],[12.416167100000001,51.381072800000005],[12.416026,51.3811036],[12.4157734,51.3806524],[12.415780700000001,51.380650800000005],[12.4158719,51.3806309],[12.415914500000001,51.380621600000005]]]}},{"type":"Feature","properties":{"roof:shape":"flat","building:levels":"6","id":"189083076","version":"2","building":"apartments","changeSetId":"0","timestamp":"1352222419000"},"geometry":{"type":"Polygon","coordinates":[[[12.417999400000001,51.383067700000005],[12.418060700000002,51.382890700000004],[12.418085900000001,51.3828941],[12.418231700000002,51.3829137],[12.418245,51.3829155],[12.4181837,51.383092500000004],[12.417999400000001,51.383067700000005]]]}},{"type":"Feature","properties":{"roof:shape":"flat","building:levels":"5","id":"189083077","version":"2","building":"apartments","changeSetId":"0","timestamp":"1352222419000"},"geometry":{"type":"Polygon","coordinates":[[[12.4172791,51.382964],[12.4175313,51.3822601],[12.4175473,51.3822623],[12.417636300000002,51.3822747],[12.417679300000001,51.3822807],[12.417427100000001,51.3829847],[12.4172791,51.382964]]]}},{"type":"Feature","properties":{"roof:shape":"flat","building:levels":"5","id":"189083078","version":"2","building":"apartments","changeSetId":"0","timestamp":"1352222420000"},"geometry":{"type":"Polygon","coordinates":[[[12.419295700000001,51.384508200000006],[12.419462500000002,51.384031500000006],[12.4196086,51.3840513],[12.419441800000001,51.3845279],[12.4194095,51.3845236],[12.419313200000001,51.384510500000005],[12.419295700000001,51.384508200000006]]]}},{"type":"Feature","properties":{"id":"189083079","version":"1","building":"yes","changeSetId":"0","timestamp":"1352048678000"},"geometry":{"type":"Polygon","coordinates":[[[12.4203972,51.381218700000005],[12.420420900000002,51.381275200000005],[12.4203919,51.3813575],[12.420571200000001,51.381381700000006],[12.4206266,51.381218200000006],[12.420580900000001,51.3811891],[12.4203972,51.381218700000005]]]}},{"type":"Feature","properties":{"roof:shape":"flat","building:levels":"5","id":"189083080","version":"2","building":"apartments","changeSetId":"0","timestamp":"1352222420000"},"geometry":{"type":"Polygon","coordinates":[[[12.419496,51.3814463],[12.419646700000001,51.381467],[12.419480400000001,51.381938700000006],[12.4194648,51.3819365],[12.4193657,51.381922900000006],[12.4193297,51.381918000000006],[12.419496,51.3814463]]]}},{"type":"Feature","properties":{"roof:shape":"flat","building:levels":"6","id":"189083081","version":"2","building":"apartments","changeSetId":"0","timestamp":"1352222420000"},"geometry":{"type":"Polygon","coordinates":[[[12.419462500000002,51.384031500000006],[12.4194463,51.3840293],[12.4195059,51.3838579],[12.419691100000001,51.3838829],[12.419631500000001,51.384054400000004],[12.4196086,51.3840513],[12.419462500000002,51.384031500000006]]]}},{"type":"Feature","properties":{"roof:shape":"flat","building:levels":"6","id":"189083082","version":"2","building":"apartments","changeSetId":"0","timestamp":"1352222419000"},"geometry":{"type":"Polygon","coordinates":[[[12.4191318,51.3803904],[12.419113300000001,51.3803879],[12.4191745,51.380212500000006],[12.4193583,51.3802375],[12.419297100000001,51.3804129],[12.419280800000001,51.380410700000006],[12.4191318,51.3803904]]]}},{"type":"Feature","properties":{"roof:shape":"flat","building:levels":"5","id":"189083083","version":"2","building":"apartments","changeSetId":"0","timestamp":"1352222421000"},"geometry":{"type":"Polygon","coordinates":[[[12.4189304,51.3833452],[12.418897900000001,51.383439],[12.419517500000001,51.3835227],[12.4195262,51.383497600000005],[12.419546400000002,51.3834395],[12.419550000000001,51.383428900000006],[12.419027100000001,51.3833582],[12.4189304,51.3833452]]]}},{"type":"Feature","properties":{"id":"189083084","version":"1","building":"yes","changeSetId":"0","timestamp":"1352048678000"},"geometry":{"type":"Polygon","coordinates":[[[12.4204194,51.3809843],[12.420535000000001,51.3809673],[12.420557400000002,51.380889700000004],[12.420725200000001,51.380912900000006],[12.420688,51.3810325],[12.4206526,51.381058100000004],[12.4204667,51.381088000000005],[12.4204194,51.3809843]]]}},{"type":"Feature","properties":{"roof:shape":"flat","building:levels":"5","id":"189083085","version":"2","building":"apartments","changeSetId":"0","timestamp":"1352222421000"},"geometry":{"type":"Polygon","coordinates":[[[12.419573000000002,51.3835039],[12.4197217,51.383524],[12.4198547,51.383140600000004],[12.4198242,51.383136400000005],[12.4197254,51.383123100000006],[12.4197059,51.383120500000004],[12.4195931,51.383445800000004],[12.419573000000002,51.3835039]]]}},{"type":"Feature","properties":{"roof:shape":"flat","building:levels":"5","id":"189083086","version":"2","building":"apartments","changeSetId":"0","timestamp":"1352222421000"},"geometry":{"type":"Polygon","coordinates":[[[12.419355600000001,51.381951900000004],[12.419322800000002,51.3820446],[12.419937800000001,51.3821291],[12.4199468,51.3821037],[12.419968500000001,51.382042000000006],[12.419970500000002,51.3820363],[12.4194546,51.3819655],[12.419355600000001,51.381951900000004]]]}},{"type":"Feature","properties":{"roof:shape":"flat","building:levels":"5","id":"189083087","version":"2","building":"apartments","changeSetId":"0","timestamp":"1352222421000"},"geometry":{"type":"Polygon","coordinates":[[[12.418606500000001,51.3818944],[12.418754000000002,51.3819145],[12.4189296,51.381411400000005],[12.4189003,51.3814074],[12.418802600000001,51.3813941],[12.418782100000001,51.381391400000005],[12.418627500000001,51.3818342],[12.418606500000001,51.3818944]]]}},{"type":"Feature","properties":{"roof:shape":"flat","building:levels":"5","id":"189083088","version":"2","building":"apartments","changeSetId":"0","timestamp":"1352222421000"},"geometry":{"type":"Polygon","coordinates":[[[12.4185142,51.384743500000006],[12.4186116,51.384756700000004],[12.4191371,51.384827800000004],[12.4191339,51.384837100000006],[12.4191143,51.3848933],[12.419105700000001,51.3849182],[12.418482800000001,51.384833900000004],[12.4185142,51.384743500000006]]]}},{"type":"Feature","properties":{"roof:shape":"flat","building:levels":"5","id":"189083089","version":"2","building":"apartments","changeSetId":"0","timestamp":"1352222421000"},"geometry":{"type":"Polygon","coordinates":[[[12.4179642,51.3817347],[12.417931300000001,51.3818288],[12.4185505,51.381913000000004],[12.4185593,51.381888000000004],[12.4185803,51.3818278],[12.418583400000001,51.381818900000006],[12.4180624,51.3817481],[12.4179642,51.3817347]]]}},{"type":"Feature","properties":{"roof:shape":"flat","building:levels":"5","id":"189083090","version":"2","building":"apartments","changeSetId":"0","timestamp":"1352222422000"},"geometry":{"type":"Polygon","coordinates":[[[12.4188139,51.3813618],[12.418792900000001,51.381359],[12.418958,51.380886100000005],[12.4189793,51.380889],[12.419072700000001,51.3809017],[12.4191099,51.380906800000005],[12.4189448,51.381379700000004],[12.418911600000001,51.38137510000001],[12.4188139,51.3813618]]]}},{"type":"Feature","properties":{"roof:shape":"flat","building:levels":"5","id":"189083091","version":"2","building":"apartments","changeSetId":"0","timestamp":"1352222421000"},"geometry":{"type":"Polygon","coordinates":[[[12.4154947,51.3801641],[12.415502400000001,51.3801624],[12.415598300000001,51.3801415],[12.4156391,51.3801326],[12.415895800000001,51.380591100000004],[12.415854600000001,51.3806],[12.415763400000001,51.380619900000006],[12.4157513,51.3806226],[12.4154947,51.3801641]]]}},{"type":"Feature","properties":{"roof:shape":"flat","building:levels":"5","id":"189083092","version":"2","building":"apartments","changeSetId":"0","timestamp":"1352222422000"},"geometry":{"type":"Polygon","coordinates":[[[12.4191611,51.3849054],[12.419163000000001,51.3848999],[12.419182600000001,51.384843700000005],[12.4192847,51.3845388],[12.4193025,51.3845412],[12.419398800000002,51.384554200000004],[12.419430700000001,51.384558500000004],[12.419307100000001,51.384925200000005],[12.4191611,51.3849054]]]}},{"type":"Feature","properties":{"id":"189083093","version":"1","building":"yes","changeSetId":"0","timestamp":"1352048679000"},"geometry":{"type":"Polygon","coordinates":[[[12.4198635,51.3803892],[12.4199357,51.3801738],[12.420166,51.380199600000005],[12.4201458,51.380251200000004],[12.420209900000001,51.3802621],[12.420174800000002,51.3803647],[12.420107100000001,51.380356500000005],[12.420084200000002,51.3804152],[12.420041000000001,51.380410600000005],[12.4198635,51.3803892]]]}},{"type":"Feature","properties":{"id":"189083094","version":"1","building":"yes","changeSetId":"0","timestamp":"1352048679000"},"geometry":{"type":"Polygon","coordinates":[[[12.419621000000001,51.3810791],[12.419570100000001,51.381206600000006],[12.419611100000001,51.381238800000006],[12.419853600000001,51.3811899],[12.4198274,51.3811418],[12.419805100000001,51.3811383],[12.41981,51.3811084],[12.4197901,51.3811077],[12.419794900000001,51.3810986],[12.419621000000001,51.3810791]]]}},{"type":"Feature","properties":{"addr:housenumber":"35","addr:country":"DE","id":"189135011","addr:street":"Kieler Straße","version":"2","addr:postcode":"04357","building":"yes","changeSetId":"0","timestamp":"1378242138000","addr:city":"Leipzig"},"geometry":{"type":"Polygon","coordinates":[[[12.420191,51.3758976],[12.4202051,51.3758898],[12.4204206,51.376005400000004],[12.420451600000002,51.375998],[12.420437600000001,51.3759686],[12.420571200000001,51.375942800000004],[12.420628,51.376046900000006],[12.420370400000001,51.3760939],[12.420343800000001,51.3761206],[12.420072900000001,51.375978700000005],[12.420191,51.3758976]]]}},{"type":"Feature","properties":{"addr:housenumber":"51","addr:country":"DE","id":"189135012","addr:street":"Kieler Straße","version":"2","addr:postcode":"04357","building":"yes","changeSetId":"0","timestamp":"1378242140000","addr:city":"Leipzig"},"geometry":{"type":"Polygon","coordinates":[[[12.4170821,51.3753948],[12.417443800000001,51.3754502],[12.417481400000002,51.3753576],[12.417491700000001,51.375336100000006],[12.4173688,51.3753158],[12.417375600000002,51.375298],[12.417257300000001,51.3752773],[12.4172475,51.375297],[12.417125400000002,51.3752768],[12.4171162,51.375300700000004],[12.4170821,51.3753948]]]}},{"type":"Feature","properties":{"addr:housenumber":"63","addr:country":"DE","id":"189135013","addr:street":"Kieler Straße","version":"2","addr:postcode":"04357","building":"yes","changeSetId":"0","timestamp":"1378242140000","addr:city":"Leipzig"},"geometry":{"type":"Polygon","coordinates":[[[12.416094300000001,51.3752397],[12.415875400000001,51.375207200000006],[12.415931800000001,51.3750592],[12.4160085,51.3750706],[12.416019,51.375043000000005],[12.4160844,51.375052700000005],[12.4160742,51.375079400000004],[12.4160868,51.375081300000005],[12.416068500000002,51.375129300000005],[12.416132800000002,51.3751388],[12.416129000000002,51.3751486],[12.416094300000001,51.3752397]]]}},{"type":"Feature","properties":{"id":"189135016","version":"1","building":"yes","changeSetId":"0","timestamp":"1352068144000"},"geometry":{"type":"Polygon","coordinates":[[[12.421276500000001,51.37807170000001],[12.421301600000001,51.3781547],[12.4213172,51.378210800000005],[12.4213319,51.378274000000005],[12.421340200000001,51.378320900000006],[12.4213486,51.3783873],[12.421215100000001,51.3783918],[12.4211732,51.378393200000005],[12.421157500000001,51.3782792],[12.4211387,51.3781964],[12.421110400000002,51.378095200000004],[12.421276500000001,51.37807170000001]]]}},{"type":"Feature","properties":{"addr:housenumber":"120","roof:shape":"flat","building:levels":"16","id":"189135017","addr:street":"Mockauer Straße","version":"4","addr:postcode":"04357","building":"yes","changeSetId":"0","timestamp":"1352738855000","addr:city":"Leipzig","height":"60"},"geometry":{"type":"Polygon","coordinates":[[[12.414532300000001,51.3759201],[12.4148001,51.375947100000005],[12.414788300000001,51.375992700000005],[12.4148037,51.3759942],[12.414806,51.3759853],[12.4149551,51.3760003],[12.414904100000001,51.3761973],[12.4146952,51.3761762],[12.4146864,51.3762102],[12.414540200000001,51.3761955],[12.414586,51.3760185],[12.4145088,51.3760107],[12.414532300000001,51.3759201]]]}},{"type":"Feature","properties":{"roof:shape":"flat","building:levels":"5","id":"189135019","version":"2","building":"apartments","changeSetId":"0","timestamp":"1352222417000"},"geometry":{"type":"Polygon","coordinates":[[[12.416035800000001,51.3791826],[12.416027900000001,51.3792126],[12.416110900000001,51.3792212],[12.416118800000001,51.3791912],[12.416035800000001,51.3791826]]]}},{"type":"Feature","properties":{"roof:shape":"flat","building:levels":"5","id":"189135020","version":"2","building":"apartments","changeSetId":"0","timestamp":"1352222415000"},"geometry":{"type":"Polygon","coordinates":[[[12.4184777,51.3794514],[12.4184842,51.379423700000004],[12.418577800000001,51.379432300000005],[12.4185712,51.37946],[12.4184777,51.3794514]]]}},{"type":"Feature","properties":{"roof:shape":"flat","building:levels":"5","id":"189135021","version":"2","building":"apartments","changeSetId":"0","timestamp":"1352222414000"},"geometry":{"type":"Polygon","coordinates":[[[12.419395300000001,51.379511],[12.4193881,51.3795401],[12.419291900000001,51.379530900000006],[12.4192991,51.379501700000006],[12.419395300000001,51.379511]]]}},{"type":"Feature","properties":{"id":"189135022","version":"1","building":"yes","changeSetId":"0","timestamp":"1352068145000"},"geometry":{"type":"Polygon","coordinates":[[[12.4205459,51.376926100000006],[12.4206251,51.377044600000005],[12.4204776,51.377083000000006],[12.420398400000002,51.3769645],[12.4205459,51.376926100000006]]]}},{"type":"Feature","properties":{"id":"189135023","version":"1","building":"yes","changeSetId":"0","timestamp":"1352068145000"},"geometry":{"type":"Polygon","coordinates":[[[12.4208917,51.3774437],[12.4209805,51.377576700000006],[12.420816700000001,51.377619300000006],[12.420727900000001,51.3774863],[12.4208917,51.3774437]]]}},{"type":"Feature","properties":{"id":"189135024","version":"1","building":"yes","changeSetId":"0","timestamp":"1352068145000"},"geometry":{"type":"Polygon","coordinates":[[[12.419977000000001,51.376344100000004],[12.4200555,51.3764629],[12.420220800000001,51.3764204],[12.4201423,51.376301600000005],[12.419977000000001,51.376344100000004]]]}},{"type":"Feature","properties":{"id":"189135025","version":"1","building":"yes","changeSetId":"0","timestamp":"1352068145000"},"geometry":{"type":"Polygon","coordinates":[[[12.4201651,51.376559500000006],[12.420292900000002,51.376526600000005],[12.420374800000001,51.376649500000006],[12.4202457,51.376681600000005],[12.4201651,51.376559500000006]]]}},{"type":"Feature","properties":{"addr:country":"DE","id":"189135026","addr:street":"Kieler Straße","version":"2","addr:postcode":"04357","building":"yes","changeSetId":"0","timestamp":"1378330962000","addr:city":"Leipzig"},"geometry":{"type":"Polygon","coordinates":[[[12.4163852,51.375488100000005],[12.416641400000001,51.3755249],[12.416609900000001,51.3756105],[12.4163537,51.3755736],[12.4163852,51.375488100000005]]]}},{"type":"Feature","properties":{"shop":"motorcycle","addr:country":"DE","version":"2","addr:postcode":"04357","building":"yes","addr:city":"Leipzig","addr:housenumber":"41","name":"Zweirad Haage","id":"189135027","addr:street":"Kieler Straße","brand":"Suzuki","changeSetId":"0","timestamp":"1378242142000"},"geometry":{"type":"Polygon","coordinates":[[[12.418476,51.3756239],[12.418512300000002,51.375525800000005],[12.4186435,51.375544700000006],[12.418607100000001,51.3756428],[12.418476,51.3756239]]]}},{"type":"Feature","properties":{"id":"189135028","version":"1","building":"yes","changeSetId":"0","timestamp":"1352068145000"},"geometry":{"type":"Polygon","coordinates":[[[12.420705100000001,51.376695500000004],[12.4206275,51.3765766],[12.420814400000001,51.376529000000005],[12.420892100000001,51.3766479],[12.420705100000001,51.376695500000004]]]}},{"type":"Feature","properties":{"roof:shape":"flat","building:levels":"5","id":"189135029","version":"2","building":"apartments","changeSetId":"0","timestamp":"1352222415000"},"geometry":{"type":"Polygon","coordinates":[[[12.4168442,51.379291900000005],[12.4168529,51.379256700000006],[12.4169467,51.379265700000005],[12.416938100000001,51.3793008],[12.4168442,51.379291900000005]]]}},{"type":"Feature","properties":{"id":"189135030","version":"1","building":"yes","changeSetId":"0","timestamp":"1352068145000"},"geometry":{"type":"Polygon","coordinates":[[[12.4210404,51.37719370000001],[12.4209364,51.3770381],[12.421110400000002,51.376992800000004],[12.421214500000001,51.3771483],[12.4210404,51.37719370000001]]]}},{"type":"Feature","properties":{"id":"189135031","version":"1","building":"yes","changeSetId":"0","timestamp":"1352068145000"},"geometry":{"type":"Polygon","coordinates":[[[12.420775,51.376802500000004],[12.420705100000001,51.376695500000004],[12.420892100000001,51.3766479],[12.420962000000001,51.376755],[12.420775,51.376802500000004]]]}},{"type":"Feature","properties":{"addr:housenumber":"39a","addr:country":"DE","id":"189135032","addr:street":"Kieler Straße","version":"2","addr:postcode":"04357","building":"yes","changeSetId":"0","timestamp":"1378242139000","addr:city":"Leipzig"},"geometry":{"type":"Polygon","coordinates":[[[12.419522,51.375792100000005],[12.4195668,51.3756836],[12.4197717,51.3757165],[12.4197269,51.375825000000006],[12.419522,51.375792100000005]]]}},{"type":"Feature","properties":{"roof:shape":"flat","building:levels":"5","id":"189135033","version":"2","building":"apartments","changeSetId":"0","timestamp":"1352222417000"},"geometry":{"type":"Polygon","coordinates":[[[12.417662100000001,51.3793742],[12.4176692,51.379343500000004],[12.417763500000001,51.379352000000004],[12.4177564,51.3793827],[12.417662100000001,51.3793742]]]}},{"type":"Feature","properties":{"id":"189135034","version":"1","building":"yes","changeSetId":"0","timestamp":"1352068146000"},"geometry":{"type":"Polygon","coordinates":[[[12.4179467,51.376751500000005],[12.4179384,51.3767858],[12.418037100000001,51.3767957],[12.4180448,51.3767602],[12.4179467,51.376751500000005]]]}},{"type":"Feature","properties":{"roof:shape":"flat","building:levels":"4","id":"189135035","version":"2","building":"yes","changeSetId":"0","timestamp":"1353531965000"},"geometry":{"type":"Polygon","coordinates":[[[12.4171381,51.3786198],[12.417179500000001,51.3784568],[12.417616800000001,51.378500100000004],[12.4175754,51.378663],[12.4171381,51.3786198]]]}},{"type":"Feature","properties":{"id":"189135036","version":"1","building":"yes","changeSetId":"0","timestamp":"1352068146000"},"geometry":{"type":"Polygon","coordinates":[[[12.4179384,51.3767858],[12.4179165,51.3768789],[12.418166000000001,51.376902900000005],[12.4181871,51.376809800000004],[12.418037100000001,51.3767957],[12.4179384,51.3767858]]]}},{"type":"Feature","properties":{"roof:shape":"flat","building:levels":"5","id":"189135037","version":"2","building":"apartments","changeSetId":"0","timestamp":"1352222418000"},"geometry":{"type":"Polygon","coordinates":[[[12.417662100000001,51.3793742],[12.4177564,51.3793827],[12.4179125,51.3793968],[12.4178916,51.3794872],[12.4176412,51.379464600000006],[12.417662100000001,51.3793742]]]}},{"type":"Feature","properties":{"roof:shape":"flat","building:levels":"5","id":"189135038","version":"2","building":"apartments","changeSetId":"0","timestamp":"1352222417000"},"geometry":{"type":"Polygon","coordinates":[[[12.416027900000001,51.3792126],[12.4160038,51.379303400000005],[12.4162554,51.3793294],[12.4162795,51.3792386],[12.416110900000001,51.3792212],[12.416027900000001,51.3792126]]]}},{"type":"Feature","properties":{"id":"189135039","version":"1","building":"yes","changeSetId":"0","timestamp":"1352068146000"},"geometry":{"type":"Polygon","coordinates":[[[12.420374800000001,51.376649500000006],[12.420469800000001,51.376798300000004],[12.4203159,51.3768365],[12.420221000000002,51.376687700000005],[12.4202457,51.376681600000005],[12.420374800000001,51.376649500000006]]]}},{"type":"Feature","properties":{"roof:shape":"flat","building:levels":"5","id":"189135040","version":"2","building":"apartments","changeSetId":"0","timestamp":"1352222418000"},"geometry":{"type":"Polygon","coordinates":[[[12.4193881,51.3795401],[12.4195413,51.3795548],[12.4195197,51.379642600000004],[12.4192703,51.3796187],[12.419291900000001,51.379530900000006],[12.4193881,51.3795401]]]}},{"type":"Feature","properties":{"id":"189135041","version":"1","building":"yes","changeSetId":"0","timestamp":"1352068146000"},"geometry":{"type":"Polygon","coordinates":[[[12.420861400000001,51.3769348],[12.420775,51.376802500000004],[12.420962000000001,51.376755],[12.4210483,51.376887200000006],[12.4210241,51.376893300000006],[12.420861400000001,51.3769348]]]}},{"type":"Feature","properties":{"roof:shape":"flat","building:levels":"5","id":"189135042","version":"2","building":"apartments","changeSetId":"0","timestamp":"1352222418000"},"geometry":{"type":"Polygon","coordinates":[[[12.4168216,51.379384300000005],[12.4168442,51.379291900000005],[12.416938100000001,51.3793008],[12.4170919,51.379315600000005],[12.4170692,51.379408000000005],[12.4168216,51.379384300000005]]]}},{"type":"Feature","properties":{"roof:shape":"flat","building:levels":"5","id":"189135043","version":"2","building":"apartments","changeSetId":"0","timestamp":"1352222418000"},"geometry":{"type":"Polygon","coordinates":[[[12.4184564,51.3795415],[12.4184777,51.3794514],[12.4185712,51.37946],[12.4187235,51.379474],[12.4187022,51.379564200000004],[12.4184564,51.3795415]]]}},{"type":"Feature","properties":{"id":"189135044","version":"1","building":"yes","changeSetId":"0","timestamp":"1352068146000"},"geometry":{"type":"Polygon","coordinates":[[[12.4213486,51.3783873],[12.4214029,51.3783898],[12.4213465,51.3787773],[12.421166900000001,51.3787681],[12.421215100000001,51.3783918],[12.4213486,51.3783873]]]}},{"type":"Feature","properties":{"roof:shape":"flat","building:levels":"6","id":"189135045","version":"2","building":"apartments","changeSetId":"0","timestamp":"1352222419000"},"geometry":{"type":"Polygon","coordinates":[[[12.418408900000001,51.3794167],[12.4184508,51.37923910000001],[12.418633400000001,51.379255900000004],[12.4185914,51.379433500000005],[12.418577800000001,51.379432300000005],[12.4184842,51.379423700000004],[12.418408900000001,51.3794167]]]}},{"type":"Feature","properties":{"id":"189135046","version":"1","building":"yes","changeSetId":"0","timestamp":"1352068146000"},"geometry":{"type":"Polygon","coordinates":[[[12.417909900000001,51.3765677],[12.418093800000001,51.376584],[12.418053500000001,51.376761],[12.4180448,51.3767602],[12.4179467,51.376751500000005],[12.4178697,51.3767447],[12.417909900000001,51.3765677]]]}},{"type":"Feature","properties":{"addr:housenumber":"39","addr:country":"DE","id":"189135047","addr:street":"Kieler Straße","version":"2","addr:postcode":"04357","building":"yes","changeSetId":"0","timestamp":"1378242139000","addr:city":"Leipzig"},"geometry":{"type":"Polygon","coordinates":[[[12.4197717,51.3757165],[12.419903900000001,51.3757382],[12.4200294,51.375811000000006],[12.4199105,51.3758898],[12.4198182,51.375835900000006],[12.4197269,51.375825000000006],[12.4197717,51.3757165]]]}},{"type":"Feature","properties":{"roof:shape":"flat","building:levels":"6","id":"189135049","version":"2","building":"apartments","changeSetId":"0","timestamp":"1352222420000"},"geometry":{"type":"Polygon","coordinates":[[[12.416002500000001,51.378997700000006],[12.416186100000001,51.3790167],[12.416139300000001,51.379193300000004],[12.416118800000001,51.3791912],[12.416035800000001,51.3791826],[12.415955700000001,51.379174400000004],[12.416002500000001,51.378997700000006]]]}},{"type":"Feature","properties":{"roof:shape":"flat","building:levels":"6","id":"189135050","version":"2","building":"apartments","changeSetId":"0","timestamp":"1352222419000"},"geometry":{"type":"Polygon","coordinates":[[[12.4192248,51.3794946],[12.4192686,51.379316700000004],[12.419454100000001,51.379334500000006],[12.419410300000001,51.3795124],[12.419395300000001,51.379511],[12.4192991,51.379501700000006],[12.4192248,51.3794946]]]}},{"type":"Feature","properties":{"roof:shape":"flat","building:levels":"6","id":"189135052","version":"2","building":"apartments","changeSetId":"0","timestamp":"1352222419000"},"geometry":{"type":"Polygon","coordinates":[[[12.4175961,51.379336900000006],[12.4176692,51.379343500000004],[12.417763500000001,51.379352000000004],[12.4177786,51.37935340000001],[12.417820200000001,51.3791741],[12.4176376,51.3791577],[12.4175961,51.379336900000006]]]}},{"type":"Feature","properties":{"id":"189135053","version":"1","building":"yes","changeSetId":"0","timestamp":"1352068147000"},"geometry":{"type":"Polygon","coordinates":[[[12.4209364,51.3770381],[12.420861400000001,51.3769348],[12.4210241,51.376893300000006],[12.421076600000001,51.3769745],[12.4210987,51.3769749],[12.421110400000002,51.376992800000004],[12.4209364,51.3770381]]]}},{"type":"Feature","properties":{"roof:shape":"flat","building:levels":"6","id":"189135054","version":"2","building":"apartments","changeSetId":"0","timestamp":"1352222420000"},"geometry":{"type":"Polygon","coordinates":[[[12.4168529,51.379256700000006],[12.4167774,51.3792495],[12.416819,51.379080200000004],[12.416999700000002,51.3790975],[12.4169581,51.3792668],[12.4169467,51.379265700000005],[12.4168529,51.379256700000006]]]}},{"type":"Feature","properties":{"id":"189135058","version":"1","building":"yes","changeSetId":"0","timestamp":"1352068147000"},"geometry":{"type":"Polygon","coordinates":[[[12.4210606,51.377696500000006],[12.4211395,51.3778146],[12.420982200000001,51.377855600000004],[12.4209615,51.377861],[12.4209188,51.377797],[12.4208844,51.37780600000001],[12.4208482,51.377751800000006],[12.4210606,51.377696500000006]]]}},{"type":"Feature","properties":{"id":"189135059","version":"1","building":"yes","changeSetId":"0","timestamp":"1352068147000"},"geometry":{"type":"Polygon","coordinates":[[[12.4209805,51.377576700000006],[12.4210606,51.377696500000006],[12.4208482,51.377751800000006],[12.4208128,51.377698800000005],[12.420840100000001,51.3776917],[12.4207955,51.37762480000001],[12.420816700000001,51.377619300000006],[12.4209805,51.377576700000006]]]}},{"type":"Feature","properties":{"addr:housenumber":"53","addr:country":"DE","id":"189135062","addr:street":"Kieler Straße","version":"2","addr:postcode":"04357","building":"yes","changeSetId":"0","timestamp":"1378242140000","addr:city":"Leipzig"},"geometry":{"type":"Polygon","coordinates":[[[12.416897500000001,51.3753663],[12.4170821,51.3753948],[12.4171162,51.375300700000004],[12.4170747,51.3752937],[12.4170821,51.375274100000006],[12.4170064,51.3752621],[12.417000600000001,51.375280100000005],[12.4169339,51.375271500000004],[12.416897500000001,51.3753663]]]}},{"type":"Feature","properties":{"id":"189135064","version":"1","building":"yes","changeSetId":"0","timestamp":"1352068147000"},"geometry":{"type":"Polygon","coordinates":[[[12.420798900000001,51.377304800000005],[12.4208917,51.3774437],[12.420727900000001,51.3774863],[12.4207035,51.37745],[12.4206739,51.3774577],[12.420642,51.377410000000005],[12.4206759,51.3774012],[12.420639300000001,51.377346300000006],[12.420798900000001,51.377304800000005]]]}},{"type":"Feature","properties":{"id":"189135066","version":"1","building":"yes","changeSetId":"0","timestamp":"1352068147000"},"geometry":{"type":"Polygon","coordinates":[[[12.4211395,51.3778146],[12.421189400000001,51.377895300000006],[12.421232900000001,51.3779667],[12.421276500000001,51.37807170000001],[12.421110400000002,51.378095200000004],[12.4210639,51.377987000000005],[12.4210159,51.377904],[12.420982200000001,51.377855600000004],[12.4211395,51.3778146]]]}},{"type":"Feature","properties":{"addr:housenumber":"55","addr:country":"DE","id":"189135068","addr:street":"Kieler Straße","version":"2","addr:postcode":"04357","building":"yes","changeSetId":"0","timestamp":"1378242140000","addr:city":"Leipzig"},"geometry":{"type":"Polygon","coordinates":[[[12.4167333,51.375245400000004],[12.4168056,51.3752562],[12.416814,51.375234400000004],[12.4168871,51.3752453],[12.4168801,51.3752635],[12.4169339,51.375271500000004],[12.416897500000001,51.3753663],[12.4166983,51.3753365],[12.4167333,51.375245400000004]]]}},{"type":"Feature","properties":{"addr:housenumber":"61","addr:country":"DE","id":"189135069","addr:street":"Kieler Straße","version":"2","addr:postcode":"04357","building":"yes","changeSetId":"0","timestamp":"1378242140000","addr:city":"Leipzig"},"geometry":{"type":"Polygon","coordinates":[[[12.416129000000002,51.3751486],[12.4161994,51.3751588],[12.416228700000001,51.375142200000006],[12.4162906,51.3751539],[12.4162975,51.375173800000006],[12.4163508,51.375182800000005],[12.416307100000001,51.37527600000001],[12.416094300000001,51.3752397],[12.416129000000002,51.3751486]]]}},{"type":"Feature","properties":{"addr:housenumber":"45","addr:country":"DE","id":"189135072","addr:street":"Kieler Straße","version":"2","addr:postcode":"04357","building":"yes","changeSetId":"0","timestamp":"1378242139000","addr:city":"Leipzig"},"geometry":{"type":"Polygon","coordinates":[[[12.4178443,51.3755127],[12.418044700000001,51.3755437],[12.4180825,51.3754489],[12.4180229,51.3754396],[12.4180284,51.3754259],[12.417956100000001,51.375414600000006],[12.417950000000001,51.3754301],[12.4178814,51.375419400000006],[12.4178443,51.3755127]]]}},{"type":"Feature","properties":{"addr:housenumber":"57","addr:country":"DE","id":"189135075","addr:street":"Kieler Straße","version":"2","addr:postcode":"04357","building":"yes","changeSetId":"0","timestamp":"1378242140000","addr:city":"Leipzig"},"geometry":{"type":"Polygon","coordinates":[[[12.4165451,51.3752166],[12.4166016,51.3752251],[12.4166094,51.3752049],[12.416678800000001,51.3752153],[12.4166708,51.3752361],[12.4167333,51.375245400000004],[12.4166983,51.3753365],[12.416509900000001,51.3753083],[12.4165451,51.3752166]]]}},{"type":"Feature","properties":{"addr:housenumber":"65","addr:country":"DE","id":"189135077","addr:street":"Kieler Straße","version":"2","addr:postcode":"04357","building":"yes","changeSetId":"0","timestamp":"1378242140000","addr:city":"Leipzig"},"geometry":{"type":"Polygon","coordinates":[[[12.415875400000001,51.375207200000006],[12.415656700000001,51.3751747],[12.415713400000001,51.375026000000005],[12.4157889,51.3750372],[12.4158,51.3750081],[12.4158656,51.3750178],[12.4158542,51.3750477],[12.415931800000001,51.3750592],[12.415875400000001,51.375207200000006]]]}},{"type":"Feature","properties":{"id":"189135080","version":"1","building":"yes","changeSetId":"0","timestamp":"1352068148000"},"geometry":{"type":"Polygon","coordinates":[[[12.4213465,51.3787773],[12.421324400000001,51.37894420000001],[12.4211475,51.37893510000001],[12.4211554,51.3788752],[12.421121600000001,51.378873500000005],[12.421129200000001,51.378815700000004],[12.421160400000002,51.3788173],[12.421166900000001,51.3787681],[12.4213465,51.3787773]]]}},{"type":"Feature","properties":{"addr:housenumber":"59","addr:country":"DE","id":"189135083","addr:street":"Kieler Straße","version":"2","addr:postcode":"04357","building":"yes","changeSetId":"0","timestamp":"1378242140000","addr:city":"Leipzig"},"geometry":{"type":"Polygon","coordinates":[[[12.4163508,51.375182800000005],[12.416415500000001,51.3751954],[12.416438900000001,51.3751783],[12.416484800000001,51.3751839],[12.416497300000001,51.375210300000006],[12.4165451,51.3752166],[12.416509900000001,51.3753083],[12.416307100000001,51.37527600000001],[12.4163508,51.375182800000005]]]}},{"type":"Feature","properties":{"addr:housenumber":"47","addr:country":"DE","id":"189135086","addr:street":"Kieler Straße","version":"2","addr:postcode":"04357","building":"yes","changeSetId":"0","timestamp":"1378242139000","addr:city":"Leipzig"},"geometry":{"type":"Polygon","coordinates":[[[12.4176836,51.3753867],[12.4177476,51.3753966],[12.417753000000001,51.3753831],[12.4178212,51.3753936],[12.4178151,51.375409100000006],[12.4178814,51.375419400000006],[12.4178443,51.3755127],[12.417645700000001,51.375481900000004],[12.4176836,51.3753867]]]}},{"type":"Feature","properties":{"addr:housenumber":"49","addr:country":"DE","id":"189135089","addr:street":"Kieler Straße","version":"2","addr:postcode":"04357","building":"yes","changeSetId":"0","timestamp":"1378242139000","addr:city":"Leipzig"},"geometry":{"type":"Polygon","coordinates":[[[12.417443800000001,51.3754502],[12.417645700000001,51.375481900000004],[12.4176836,51.3753867],[12.417614400000001,51.375375600000005],[12.417620300000001,51.375361000000005],[12.4175535,51.3753505],[12.4175464,51.3753679],[12.417481400000002,51.3753576],[12.417443800000001,51.3754502]]]}},{"type":"Feature","properties":{"id":"189135093","version":"1","building":"yes","changeSetId":"0","timestamp":"1352068148000"},"geometry":{"type":"Polygon","coordinates":[[[12.420469800000001,51.376798300000004],[12.420535800000001,51.376901800000006],[12.4203834,51.3769396],[12.420367800000001,51.376915200000006],[12.420338300000001,51.376922500000006],[12.4203056,51.376871400000006],[12.4203337,51.3768644],[12.4203159,51.3768365],[12.420469800000001,51.376798300000004]]]}},{"type":"Feature","properties":{"addr:housenumber":"37","addr:country":"DE","id":"189135095","addr:street":"Kieler Straße","version":"2","addr:postcode":"04357","building":"yes","changeSetId":"0","timestamp":"1378242139000","addr:city":"Leipzig"},"geometry":{"type":"Polygon","coordinates":[[[12.4200294,51.375811000000006],[12.420065500000002,51.3758308],[12.420081000000001,51.3758197],[12.4201534,51.3758557],[12.4201379,51.3758672],[12.420191,51.3758976],[12.420072900000001,51.375978700000005],[12.4199105,51.3758898],[12.4200294,51.375811000000006]]]}},{"type":"Feature","properties":{"id":"189135097","version":"1","building":"yes","changeSetId":"0","timestamp":"1352068148000"},"geometry":{"type":"Polygon","coordinates":[[[12.420720800000002,51.3771879],[12.420798900000001,51.377304800000005],[12.420639300000001,51.377346300000006],[12.420614100000002,51.377308600000006],[12.420588700000001,51.377315200000005],[12.420559,51.377270800000005],[12.4205821,51.377264700000005],[12.420558900000001,51.377230000000004],[12.420720800000002,51.3771879]]]}},{"type":"Feature","properties":{"id":"189135098","version":"1","building":"yes","changeSetId":"0","timestamp":"1352068148000"},"geometry":{"type":"Polygon","coordinates":[[[12.4206251,51.377044600000005],[12.420720800000002,51.3771879],[12.420558900000001,51.377230000000004],[12.4205363,51.377196100000006],[12.4205096,51.377203],[12.4204751,51.3771514],[12.420503100000001,51.3771441],[12.420464500000001,51.3770864],[12.4204776,51.377083000000006],[12.4206251,51.377044600000005]]]}},{"type":"Feature","properties":{"addr:housenumber":"43","addr:country":"DE","id":"189135099","addr:street":"Kieler Straße","version":"2","addr:postcode":"04357","building":"yes","changeSetId":"0","timestamp":"1378242139000","addr:city":"Leipzig"},"geometry":{"type":"Polygon","coordinates":[[[12.418044700000001,51.3755437],[12.418323000000001,51.3755869],[12.4183661,51.3754787],[12.418282300000001,51.37546570000001],[12.418289000000001,51.3754487],[12.4181796,51.3754318],[12.418173900000001,51.375446100000005],[12.418088800000001,51.3754329],[12.4180825,51.3754489],[12.418044700000001,51.3755437]]]}},{"type":"Feature","properties":{"id":"189135100","version":"2","building":"yes","changeSetId":"0","timestamp":"1378330961000"},"geometry":{"type":"Polygon","coordinates":[[[12.418742900000002,51.377004400000004],[12.4195948,51.377088500000006],[12.419568700000001,51.3772025],[12.4193181,51.3771764],[12.419291000000001,51.3772898],[12.4195822,51.3773172],[12.419553,51.3774273],[12.4187586,51.3773497],[12.418783600000001,51.377240300000004],[12.4188671,51.3772461],[12.418893200000001,51.377132800000005],[12.418717800000001,51.37711650000001],[12.418742900000002,51.377004400000004]]]}},{"type":"Feature","properties":{"roof:shape":"flat","building:levels":"5","id":"189385246","version":"1","building":"yes","changeSetId":"0","timestamp":"1352218427000"},"geometry":{"type":"Polygon","coordinates":[[[12.402041,51.3790859],[12.4020205,51.3790022],[12.403190700000001,51.3788904],[12.4032108,51.3789724],[12.4031239,51.37898070000001],[12.403130500000001,51.3790076],[12.4029512,51.3790247],[12.402945200000001,51.3790002],[12.402347200000001,51.37905730000001],[12.402356900000001,51.3790971],[12.402177700000001,51.379114200000004],[12.4021678,51.3790738],[12.402041,51.3790859]]]}},{"type":"Feature","properties":{"roof:shape":"flat","building:levels":"5","id":"189385248","version":"1","building":"yes","changeSetId":"0","timestamp":"1352218427000"},"geometry":{"type":"Polygon","coordinates":[[[12.401823400000001,51.3782731],[12.401802900000002,51.378189500000005],[12.4029731,51.378077700000006],[12.4029933,51.378159700000005],[12.402906300000001,51.378168],[12.4029129,51.3781948],[12.402733600000001,51.378212000000005],[12.4027276,51.3781874],[12.4021296,51.3782446],[12.4021393,51.378284300000004],[12.4019601,51.378301500000006],[12.4019502,51.378261],[12.401823400000001,51.3782731]]]}},{"type":"Feature","properties":{"roof:shape":"flat","building:levels":"1","id":"189385250","version":"1","building":"garages","changeSetId":"0","timestamp":"1352218427000"},"geometry":{"type":"Polygon","coordinates":[[[12.3985453,51.37687570000001],[12.398529,51.3768164],[12.398632800000001,51.3768053],[12.398649200000001,51.376864600000005],[12.3985453,51.37687570000001]]]}},{"type":"Feature","properties":{"roof:shape":"flat","building:levels":"1","id":"189385252","version":"1","building":"garages","changeSetId":"0","timestamp":"1352218427000"},"geometry":{"type":"Polygon","coordinates":[[[12.401529900000002,51.377565000000004],[12.4018431,51.377534100000005],[12.4018291,51.377478700000005],[12.401515900000001,51.3775096],[12.401529900000002,51.377565000000004]]]}},{"type":"Feature","properties":{"roof:shape":"flat","building:levels":"1","id":"189385254","version":"1","building":"garages","changeSetId":"0","timestamp":"1352218427000"},"geometry":{"type":"Polygon","coordinates":[[[12.401707700000001,51.3774682],[12.4017976,51.377459300000005],[12.4016143,51.3767359],[12.4015245,51.3767447],[12.401707700000001,51.3774682]]]}},{"type":"Feature","properties":{"id":"189385257","version":"1","building":"yes","changeSetId":"0","timestamp":"1352218427000"},"geometry":{"type":"Polygon","coordinates":[[[12.4028094,51.378768900000004],[12.403332500000001,51.3787189],[12.403237500000001,51.378331300000006],[12.402714300000001,51.3783813],[12.4028094,51.378768900000004]]]}},{"type":"Feature","properties":{"roof:shape":"flat","building:levels":"1","id":"189385261","version":"1","building":"garages","changeSetId":"0","timestamp":"1352218427000"},"geometry":{"type":"Polygon","coordinates":[[[12.399135800000002,51.378094100000006],[12.399320900000001,51.378076300000004],[12.3991878,51.377537100000005],[12.3990027,51.3775549],[12.399135800000002,51.378094100000006]]]}},{"type":"Feature","properties":{"roof:shape":"flat","building:levels":"1","id":"189385263","version":"1","building":"garages","changeSetId":"0","timestamp":"1352218427000"},"geometry":{"type":"Polygon","coordinates":[[[12.401514500000001,51.377487200000004],[12.401603600000001,51.3774784],[12.401520600000001,51.377150900000004],[12.401431500000001,51.3771597],[12.401514500000001,51.377487200000004]]]}},{"type":"Feature","properties":{"roof:shape":"flat","building:levels":"1","id":"189385265","version":"1","building":"garages","changeSetId":"0","timestamp":"1352218427000"},"geometry":{"type":"Polygon","coordinates":[[[12.399428,51.378069100000005],[12.399613100000002,51.3780513],[12.3994801,51.377512100000004],[12.399295,51.377529900000006],[12.399428,51.378069100000005]]]}},{"type":"Feature","properties":{"id":"195323007","source":"Bing","version":"2","building":"yes","changeSetId":"0","timestamp":"1355062151000"},"geometry":{"type":"Polygon","coordinates":[[[12.398146500000001,51.391114],[12.3978499,51.389762700000006],[12.3977061,51.3891621],[12.3976155,51.388707100000005],[12.397814,51.388687000000004],[12.398339700000001,51.391097200000004],[12.398146500000001,51.391114]]]}},{"type":"Feature","properties":{"id":"195323008","source":"Bing","version":"2","building":"yes","changeSetId":"0","timestamp":"1355062157000"},"geometry":{"type":"Polygon","coordinates":[[[12.3977061,51.3891621],[12.3978499,51.389762700000006],[12.3975542,51.3897902],[12.397410500000001,51.3891896],[12.3977061,51.3891621]]]}},{"type":"Feature","properties":{"id":"195323010","source":"Bing","version":"2","building":"yes","changeSetId":"0","timestamp":"1355062204000"},"geometry":{"type":"Polygon","coordinates":[[[12.405135300000001,51.391677200000004],[12.4050977,51.391509000000006],[12.411266000000001,51.3909717],[12.411303700000001,51.391139900000006],[12.405135300000001,51.391677200000004]]]}},{"type":"Feature","properties":{"id":"195323014","source":"Bing","version":"2","building":"yes","changeSetId":"0","timestamp":"1355062164000"},"geometry":{"type":"Polygon","coordinates":[[[12.397862900000002,51.3918005],[12.398469500000001,51.391749000000004],[12.398537300000001,51.39206],[12.3979306,51.392111500000006],[12.397862900000002,51.3918005]]]}},{"type":"Feature","properties":{"name":"DB Schenker","id":"195323015","source":"Bing","version":"3","building":"yes","changeSetId":"0","timestamp":"1362577411000"},"geometry":{"type":"Polygon","coordinates":[[[12.405375000000001,51.3927485],[12.4075834,51.3925561],[12.4083611,51.392488300000004],[12.4115433,51.392211100000004],[12.411303700000001,51.391139900000006],[12.405135300000001,51.391677200000004],[12.405375000000001,51.3927485]]]}},{"type":"Feature","properties":{"id":"195323016","source":"Bing","version":"2","building":"yes","changeSetId":"0","timestamp":"1355062202000"},"geometry":{"type":"Polygon","coordinates":[[[12.4075834,51.3925561],[12.4083611,51.392488300000004],[12.408385500000001,51.3926019],[12.407607200000001,51.392667100000004],[12.4075834,51.3925561]]]}},{"type":"Feature","properties":{"id":"195323017","source":"Bing","version":"2","building":"yes","changeSetId":"0","timestamp":"1355062169000"},"geometry":{"type":"Polygon","coordinates":[[[12.3982355,51.393680200000006],[12.3988049,51.393635700000004],[12.398848800000001,51.3938544],[12.398279400000002,51.393899000000005],[12.3982355,51.393680200000006]]]}},{"type":"Feature","properties":{"id":"195323018","source":"Bing","version":"2","building":"yes","changeSetId":"0","timestamp":"1355062189000"},"geometry":{"type":"Polygon","coordinates":[[[12.4047494,51.393331],[12.4047402,51.3932822],[12.4047234,51.393211900000004],[12.4047143,51.393175400000004],[12.4050737,51.393143800000004],[12.4051088,51.393299400000004],[12.4047494,51.393331]]]}},{"type":"Feature","properties":{"id":"195323019","source":"Bing","version":"2","building":"yes","changeSetId":"0","timestamp":"1355062194000"},"geometry":{"type":"Polygon","coordinates":[[[12.4047402,51.3932822],[12.4047234,51.393211900000004],[12.404477400000001,51.3932349],[12.4044942,51.393305100000006],[12.4047402,51.3932822]]]}},{"type":"Feature","properties":{"id":"195357709","version":"2","building":"yes","changeSetId":"0","timestamp":"1355067988000"},"geometry":{"type":"Polygon","coordinates":[[[12.397185700000001,51.3794558],[12.3974784,51.379424],[12.3975258,51.379421300000004],[12.397450300000001,51.3791273],[12.397110000000001,51.3791614],[12.397185700000001,51.3794558]]]}},{"type":"Feature","properties":{"id":"195357711","version":"2","building":"yes","changeSetId":"0","timestamp":"1355067993000"},"geometry":{"type":"Polygon","coordinates":[[[12.397185700000001,51.3794558],[12.3974784,51.379424],[12.397515100000001,51.379555800000006],[12.397164,51.3795939],[12.397127300000001,51.379462100000005],[12.397185700000001,51.3794558]]]}},{"type":"Feature","properties":{"id":"195357712","version":"2","building":"yes","changeSetId":"0","timestamp":"1355067979000"},"geometry":{"type":"Polygon","coordinates":[[[12.3965324,51.3790994],[12.396481900000001,51.379216400000004],[12.3965701,51.3792313],[12.396591500000001,51.379181700000004],[12.396561,51.3791766],[12.3965902,51.3791092],[12.3965324,51.3790994]]]}},{"type":"Feature","properties":{"id":"195764122","version":"2","building":"yes","changeSetId":"0","timestamp":"1355243390000"},"geometry":{"type":"Polygon","coordinates":[[[12.3986076,51.377273800000005],[12.3986345,51.3770863],[12.398723100000002,51.377091300000004],[12.3986953,51.377279200000004],[12.3986076,51.377273800000005]]]}},{"type":"Feature","properties":{"id":"195764123","version":"2","building":"yes","changeSetId":"0","timestamp":"1355243394000"},"geometry":{"type":"Polygon","coordinates":[[[12.398308100000001,51.376826900000005],[12.398476700000002,51.3768052],[12.3984511,51.376727300000006],[12.398282400000001,51.3767489],[12.398308100000001,51.376826900000005]]]}},{"type":"Feature","properties":{"id":"196200664","source":"bing","version":"2","building":"yes","changeSetId":"0","timestamp":"1355433127000"},"geometry":{"type":"Polygon","coordinates":[[[12.4106093,51.375010800000005],[12.4107777,51.374992000000006],[12.410759700000002,51.3749289],[12.4107286,51.374932300000005],[12.4107154,51.374886100000005],[12.410614,51.3748974],[12.4106264,51.374940900000006],[12.410590500000001,51.3749449],[12.4106093,51.375010800000005]]]}},{"type":"Feature","properties":{"id":"196200665","source":"bing","version":"2","building":"yes","changeSetId":"0","timestamp":"1355433130000"},"geometry":{"type":"Polygon","coordinates":[[[12.410651900000001,51.3745002],[12.410635800000001,51.3744248],[12.410499000000002,51.37443570000001],[12.4105164,51.3745119],[12.410651900000001,51.3745002]]]}},{"type":"Feature","properties":{"id":"218989231","version":"1","building":"yes","changeSetId":"0","timestamp":"1366973395000"},"geometry":{"type":"Polygon","coordinates":[[[12.4212416,51.382218300000005],[12.421423800000001,51.382227],[12.421413300000001,51.382289400000005],[12.4212295,51.3822819],[12.4212416,51.382218300000005]]]}},{"type":"Feature","properties":{"id":"218989242","version":"2","building":"yes","changeSetId":"0","timestamp":"1366973416000"},"geometry":{"type":"Polygon","coordinates":[[[12.421130300000002,51.3821622],[12.421315400000001,51.382183100000006],[12.421342200000002,51.382098600000006],[12.421162500000001,51.3820752],[12.421130300000002,51.3821622]]]}},{"type":"Feature","properties":{"id":"219035018","version":"1","building":"yes","changeSetId":"0","timestamp":"1367003072000"},"geometry":{"type":"Polygon","coordinates":[[[12.422131100000001,51.388024],[12.422391600000001,51.387899100000006],[12.4225086,51.3879941],[12.422248100000001,51.388119],[12.422131100000001,51.388024]]]}},{"type":"Feature","properties":{"name":"Haus A","id":"227387751","version":"1","building":"school","changeSetId":"0","timestamp":"1372186169000"},"geometry":{"type":"Polygon","coordinates":[[[12.416098600000002,51.3762971],[12.4161496,51.376297900000004],[12.416141600000001,51.3763665],[12.4163803,51.376371600000006],[12.416387,51.376315500000004],[12.4164218,51.376313],[12.4164688,51.3757889],[12.416148300000001,51.3757789],[12.416098600000002,51.3762971]]]}},{"type":"Feature","properties":{"addr:housenumber":"73","addr:country":"DE","id":"236475690","addr:street":"Kieler Straße","version":"1","addr:postcode":"04357","building":"yes","changeSetId":"0","timestamp":"1378242138000","addr:city":"Leipzig"},"geometry":{"type":"Polygon","coordinates":[[[12.4143852,51.374968200000005],[12.4144289,51.374848300000004],[12.414643100000001,51.374878700000004],[12.4145993,51.374998700000006],[12.4143852,51.374968200000005]]]}},{"type":"Feature","properties":{"addr:country":"DE","id":"236638389","addr:street":"Kieler Straße","version":"1","addr:postcode":"04357","building":"yes","changeSetId":"0","timestamp":"1378330958000","addr:city":"Leipzig"},"geometry":{"type":"Polygon","coordinates":[[[12.417871000000002,51.375784900000006],[12.417891800000001,51.3757201],[12.4177558,51.3757006],[12.417731600000002,51.375766500000005],[12.417871000000002,51.375784900000006]]]}},{"type":"Feature","properties":{"addr:country":"DE","id":"236638396","addr:street":"Kieler Straße","version":"1","addr:postcode":"04357","building":"yes","changeSetId":"0","timestamp":"1378330959000","addr:city":"Leipzig"},"geometry":{"type":"Polygon","coordinates":[[[12.417151,51.375681300000004],[12.417177500000001,51.3756112],[12.417052400000001,51.375592700000006],[12.417025800000001,51.3756628],[12.417151,51.375681300000004]]]}},{"type":"Feature","properties":{"addr:country":"DE","id":"236638402","addr:street":"Kieler Straße","version":"1","addr:postcode":"04357","building":"yes","changeSetId":"0","timestamp":"1378330959000","addr:city":"Leipzig"},"geometry":{"type":"Polygon","coordinates":[[[12.4173834,51.3757164],[12.4174103,51.375646100000004],[12.4172562,51.375623100000006],[12.4172293,51.3756934],[12.4173834,51.3757164]]]}},{"type":"Feature","properties":{"addr:country":"DE","id":"236638404","addr:street":"Kieler Straße","version":"1","addr:postcode":"04357","building":"yes","changeSetId":"0","timestamp":"1378330959000","addr:city":"Leipzig"},"geometry":{"type":"Polygon","coordinates":[[[12.417714100000001,51.375763400000004],[12.4177383,51.3756976],[12.417580500000001,51.375675],[12.417556300000001,51.3757408],[12.417714100000001,51.375763400000004]]]}},{"type":"Feature","properties":{"id":"236638406","version":"1","building":"yes","changeSetId":"0","timestamp":"1378330959000"},"geometry":{"type":"Polygon","coordinates":[[[12.4182938,51.378252700000004],[12.4184646,51.3776085],[12.418299900000001,51.3775915],[12.418129100000002,51.378235700000005],[12.4182938,51.378252700000004]]]}},{"type":"Feature","properties":{"addr:country":"DE","id":"236638424","addr:street":"Kieler Straße","version":"1","addr:postcode":"04357","building":"yes","changeSetId":"0","timestamp":"1378330960000","addr:city":"Leipzig"},"geometry":{"type":"Polygon","coordinates":[[[12.418579000000001,51.3759274],[12.418621600000002,51.3758247],[12.418846100000001,51.375860900000006],[12.418803500000001,51.3759637],[12.418579000000001,51.3759274]]]}},{"type":"Feature","properties":{"addr:country":"DE","id":"236638429","addr:street":"Kieler Straße","version":"1","addr:postcode":"04357","building":"yes","changeSetId":"0","timestamp":"1378330961000","addr:city":"Leipzig"},"geometry":{"type":"Polygon","coordinates":[[[12.4180364,51.3757923],[12.418055200000001,51.3757378],[12.4179258,51.3757205],[12.4179071,51.3757749],[12.4179404,51.375779300000005],[12.417932200000001,51.375803100000006],[12.417985100000001,51.375810200000004],[12.417993200000002,51.375786500000004],[12.4180364,51.3757923]]]}},{"type":"Feature","properties":{"amenity":"fuel","addr:country":"DE","version":"2","addr:postcode":"04357","building":"yes","operator":"Aral","addr:city":"Leipzig","addr:housenumber":"31","name":"Aral","id":"237681280","addr:street":"Essener Straße","brand":"Aral","changeSetId":"0","timestamp":"1378996723000"},"geometry":{"type":"Polygon","coordinates":[[[12.398688,51.3769806],[12.3987078,51.376816600000005],[12.3987891,51.3768204],[12.398784000000001,51.3768619],[12.398918700000001,51.376868300000005],[12.398872800000001,51.376593400000004],[12.399141100000001,51.3766162],[12.399181400000002,51.3768807],[12.399166600000001,51.377003200000004],[12.398688,51.3769806]]]}},{"type":"Feature","properties":{"id":"245070802","power":"sub_station","version":"2","building":"yes","changeSetId":"0","timestamp":"1383834125000"},"geometry":{"type":"Polygon","coordinates":[[[12.413329000000001,51.375388400000006],[12.413449600000002,51.3753724],[12.4134703,51.3754331],[12.413349700000001,51.375449100000004],[12.413329000000001,51.375388400000006]]]}},{"type":"Feature","properties":{"id":"249375330","version":"1","building":"yes","changeSetId":"0","timestamp":"1385906767000"},"geometry":{"type":"Polygon","coordinates":[[[12.4117352,51.3745841],[12.411910200000001,51.374514700000006],[12.4121172,51.374718],[12.4119422,51.3747874],[12.4119115,51.374757200000005],[12.4117634,51.374611800000004],[12.4117352,51.3745841]]]}},{"type":"Feature","properties":{"id":"249375331","version":"1","building":"yes","changeSetId":"0","timestamp":"1385906767000"},"geometry":{"type":"Polygon","coordinates":[[[12.4114959,51.3748146],[12.4118419,51.3747837],[12.4119115,51.374757200000005],[12.4117634,51.374611800000004],[12.4117373,51.3746221],[12.411457,51.374649700000006],[12.4114959,51.3748146]]]}},{"type":"Feature","properties":{"id":"249427629","version":"1","building":"yes","changeSetId":"0","timestamp":"1385923647000"},"geometry":{"type":"Polygon","coordinates":[[[12.4055725,51.390052000000004],[12.4054243,51.3893823],[12.405738900000001,51.389355200000004],[12.405887,51.3900249],[12.4055725,51.390052000000004]]]}},{"type":"Feature","properties":{"id":"249427632","version":"1","building":"yes","changeSetId":"0","timestamp":"1385923647000"},"geometry":{"type":"Polygon","coordinates":[[[12.405773600000002,51.3913154],[12.4054955,51.3900586],[12.4055725,51.390052000000004],[12.405887,51.3900249],[12.4109627,51.389587600000006],[12.4112407,51.390844400000006],[12.405773600000002,51.3913154]]]}},{"type":"Feature","properties":{"id":"249427634","version":"1","building":"yes","changeSetId":"0","timestamp":"1385923647000"},"geometry":{"type":"Polygon","coordinates":[[[12.405341100000001,51.389389400000006],[12.4051033,51.3883145],[12.4076692,51.388093500000004],[12.407777900000001,51.388584900000005],[12.4065013,51.388694900000004],[12.406630400000001,51.3892783],[12.405738900000001,51.389355200000004],[12.4054243,51.3893823],[12.405341100000001,51.389389400000006]]]}},{"type":"Feature","properties":{"id":"251620833","version":"2","building":"roof","changeSetId":"0","timestamp":"1386939282000"},"geometry":{"type":"Polygon","coordinates":[[[12.411391,51.3745033],[12.4115008,51.3744918],[12.411678100000001,51.374470200000005],[12.411639200000002,51.374345500000004],[12.411358,51.374380800000004],[12.411391,51.3745033]]]}}]}