{"type":"FeatureCollection","features":[{"type":"Feature","properties":{"wheelchair":"yes","website":"http://www.kaufland.de","shop":"supermarket","addr:country":"DE","version":"11","addr:postcode":"04205","building":"yes","operator":"Kaufland Warenhandel GmbH & Co. KG","addr:city":"Leipzig","addr:housenumber":"30","name":"Kaufland","opening_hours":"Mo-Sa 07:00-22:00","id":"23174297","addr:street":"Kiewer Straße","changeSetId":"0","timestamp":"1398591483000"},"geometry":{"type":"Polygon","coordinates":[[[12.275562,51.324553800000004],[12.2764135,51.3248632],[12.2776653,51.323517900000006],[12.2768139,51.3232085],[12.275562,51.324553800000004]]]}},{"type":"Feature","properties":{"id":"25507886","version":"8","building":"yes","changeSetId":"0","timestamp":"1422563341000"},"geometry":{"type":"Polygon","coordinates":[[[12.286865,51.3237491],[12.287548500000002,51.3238294],[12.2875818,51.323718500000005],[12.2874853,51.3237072],[12.2873046,51.323686],[12.287134,51.3236659],[12.286977400000001,51.3236475],[12.2868983,51.323638200000005],[12.286865,51.3237491]]]}},{"type":"Feature","properties":{"wheelchair":"yes","website":"http://www.norma-online.de","shop":"supermarket","addr:country":"DE","version":"7","addr:postcode":"04205","building":"yes","addr:housenumber":"240","name":"Norma","id":"25507887","addr:street":"Schönauer Straße","changeSetId":"0","timestamp":"1431035616000"},"geometry":{"type":"Polygon","coordinates":[[[12.289173,51.3276156],[12.289384100000001,51.3271944],[12.2896461,51.327245700000006],[12.289435000000001,51.3276668],[12.289173,51.3276156]]]}},{"type":"Feature","properties":{"id":"25507936","version":"3","building":"yes","changeSetId":"0","timestamp":"1422485308000"},"geometry":{"type":"Polygon","coordinates":[[[12.287560000000001,51.3252235],[12.2873902,51.325194],[12.287425,51.3251154],[12.2874899,51.3249689],[12.2875622,51.324805600000005],[12.2876256,51.3246623],[12.2876978,51.32449930000001],[12.2877665,51.324344200000006],[12.2877968,51.3242757],[12.2879666,51.324305100000004],[12.287560000000001,51.3252235]]]}},{"type":"Feature","properties":{"id":"25507960","version":"4","building":"yes","changeSetId":"0","timestamp":"1422651307000"},"geometry":{"type":"Polygon","coordinates":[[[12.288210600000001,51.3288492],[12.2881639,51.328841100000005],[12.288362600000001,51.328402100000005],[12.2885331,51.3284322],[12.2885051,51.328494000000006],[12.2884329,51.3286535],[12.288362600000001,51.328808800000004],[12.288335,51.3288699],[12.288210600000001,51.3288492]]]}},{"type":"Feature","properties":{"id":"25507969","version":"4","building":"yes","changeSetId":"0","timestamp":"1422651419000"},"geometry":{"type":"Polygon","coordinates":[[[12.2861475,51.328115600000004],[12.2861153,51.3280961],[12.286060800000001,51.328063],[12.285915000000001,51.3279745],[12.285727300000001,51.3278608],[12.285624100000001,51.3277981],[12.2857444,51.3277207],[12.286267800000001,51.3280381],[12.2861475,51.328115600000004]]]}},{"type":"Feature","properties":{"id":"25521909","version":"3","building":"yes","changeSetId":"0","timestamp":"1422656832000"},"geometry":{"type":"Polygon","coordinates":[[[12.2834661,51.326655200000005],[12.284406500000001,51.327219500000005],[12.284268200000001,51.327309500000005],[12.2841885,51.3272616],[12.284003100000001,51.3271504],[12.2838094,51.3270342],[12.283625,51.3269236],[12.2834322,51.326807900000006],[12.2833278,51.326745200000005],[12.2833704,51.3267175],[12.2834661,51.326655200000005]]]}},{"type":"Feature","properties":{"building:levels":"6","id":"25521931","version":"3","building":"residential","changeSetId":"0","timestamp":"1479689776000"},"geometry":{"type":"Polygon","coordinates":[[[12.285547000000001,51.32650760000001],[12.285621800000001,51.3264599],[12.2857891,51.3263532],[12.2859736,51.3262355],[12.286154100000001,51.326120200000005],[12.2863413,51.326000900000004],[12.2865204,51.3258865],[12.286610300000001,51.3258292],[12.286741300000001,51.325909300000006],[12.286654100000002,51.325965000000004],[12.286470900000001,51.326081800000004],[12.286289100000001,51.326197900000004],[12.286104600000002,51.3263156],[12.285918700000002,51.3264342],[12.285739600000001,51.3265485],[12.285678,51.326587800000006],[12.2855886,51.326533100000006],[12.285547000000001,51.32650760000001]]]}},{"type":"Feature","properties":{"building:levels":"6","id":"25521932","version":"5","building":"residential","changeSetId":"0","timestamp":"1479689777000"},"geometry":{"type":"Polygon","coordinates":[[[12.285881700000001,51.3257631],[12.285756500000002,51.325843400000004],[12.285638200000001,51.3257714],[12.2854857,51.3256784],[12.2853188,51.3255768],[12.285123500000001,51.3254578],[12.284944000000001,51.325348500000004],[12.284746100000001,51.3252279],[12.2845826,51.3251283],[12.284487500000001,51.3250704],[12.2846127,51.3249901],[12.285881700000001,51.3257631]]]}},{"type":"Feature","properties":{"id":"25521933","version":"3","building":"yes","changeSetId":"0","timestamp":"1422485308000"},"geometry":{"type":"Polygon","coordinates":[[[12.285042,51.3246204],[12.2849119,51.3245421],[12.284835600000001,51.324591600000005],[12.284694700000001,51.3246831],[12.284515800000001,51.3247992],[12.284401200000001,51.324873600000004],[12.284531300000001,51.3249518],[12.2850085,51.32464220000001],[12.285042,51.3246204]]]}},{"type":"Feature","properties":{"addr:housenumber":"19","alt_name":"Kurt-Biedermann-Schule","website":"http://www.foerderzentrum-erziehungshilfe-leipzig.de/","amenity":"school","name":"Förderzentrum für Erziehungshilfe Leipzig","id":"25521955","addr:street":"Garskestraße","version":"7","addr:postcode":"04205","building":"yes","changeSetId":"0","timestamp":"1481489786000"},"geometry":{"type":"Polygon","coordinates":[[[12.2869442,51.3261635],[12.2870238,51.3261107],[12.287868300000001,51.326607800000005],[12.2877711,51.326672300000006],[12.287697300000001,51.3266288],[12.2876673,51.3266487],[12.2875467,51.3265777],[12.287582800000001,51.326553800000006],[12.287148,51.326297800000006],[12.2871109,51.3263224],[12.286957800000001,51.3262323],[12.287006400000001,51.3262001],[12.2869442,51.3261635]]]}},{"type":"Feature","properties":{"addr:housenumber":"21","amenity":"school","name":"Kurt-Biedermann-Grundschule","id":"25521958","addr:street":"Garskestraße","version":"5","addr:postcode":"04205","building":"yes","changeSetId":"0","timestamp":"1383658527000"},"geometry":{"type":"Polygon","coordinates":[[[12.2866814,51.3273839],[12.2874906,51.326856400000004],[12.2875919,51.3269171],[12.2875329,51.326955600000005],[12.2875592,51.326971300000004],[12.287438000000002,51.327050400000005],[12.2874049,51.3270306],[12.2869834,51.3273054],[12.287030600000001,51.327333700000004],[12.286915500000001,51.32740870000001],[12.2868765,51.3273853],[12.286784200000001,51.3274455],[12.2866814,51.3273839]]]}},{"type":"Feature","properties":{"addr:housenumber":"23","id":"25521974","addr:street":"Schönauer Ring","version":"3","building":"yes","changeSetId":"0","timestamp":"1290955266000"},"geometry":{"type":"Polygon","coordinates":[[[12.287669000000001,51.3283822],[12.2876218,51.3284905],[12.2866087,51.3283178],[12.286655900000001,51.3282095],[12.287669000000001,51.3283822]]]}},{"type":"Feature","properties":{"addr:housenumber":"17","amenity":"kindergarten","name":"Kindertagesstätte 'Kinderland'","id":"25521977","addr:street":"Garskestraße","version":"5","addr:postcode":"04205","building":"yes","changeSetId":"0","timestamp":"1383658577000"},"geometry":{"type":"Polygon","coordinates":[[[12.288335100000001,51.326089200000006],[12.288211800000001,51.326168900000006],[12.2874511,51.325709700000004],[12.287574300000001,51.3256299],[12.288335100000001,51.326089200000006]]]}},{"type":"Feature","properties":{"id":"25521988","version":"2","building":"yes","changeSetId":"0","timestamp":"1246113747000"},"geometry":{"type":"Polygon","coordinates":[[[12.288698700000001,51.3263965],[12.289054700000001,51.326177200000004],[12.2895105,51.326466200000006],[12.289397800000001,51.3265356],[12.2894921,51.3265954],[12.2893535,51.326680800000005],[12.289204300000002,51.3265861],[12.289325900000001,51.326511200000006],[12.289059,51.326342000000004],[12.288832600000001,51.326481400000006],[12.288698700000001,51.3263965]]]}},{"type":"Feature","properties":{"id":"25522033","version":"1","created_by":"JOSM","building":"yes","changeSetId":"0","timestamp":"1215943052000"},"geometry":{"type":"Polygon","coordinates":[[[12.2785036,51.3205491],[12.279008000000001,51.3199953],[12.279182400000002,51.3200574],[12.2786781,51.3206111],[12.2785036,51.3205491]]]}},{"type":"Feature","properties":{"id":"25522034","version":"1","created_by":"JOSM","building":"yes","changeSetId":"0","timestamp":"1215943052000"},"geometry":{"type":"Polygon","coordinates":[[[12.2787915,51.32059700000001],[12.279119900000001,51.3207114],[12.2790212,51.320822],[12.2786928,51.3207077],[12.2787915,51.32059700000001]]]}},{"type":"Feature","properties":{"id":"25522035","version":"1","created_by":"JOSM","building":"yes","changeSetId":"0","timestamp":"1215943053000"},"geometry":{"type":"Polygon","coordinates":[[[12.2784635,51.3215073],[12.2788985,51.3210452],[12.279071400000001,51.3211087],[12.2786363,51.3215708],[12.2784635,51.3215073]]]}},{"type":"Feature","properties":{"id":"25522037","version":"1","created_by":"JOSM","building":"yes","changeSetId":"0","timestamp":"1215943053000"},"geometry":{"type":"Polygon","coordinates":[[[12.2785077,51.320911],[12.278604900000001,51.3208065],[12.2789183,51.320920400000006],[12.278821,51.321024900000005],[12.2785077,51.320911]]]}},{"type":"Feature","properties":{"id":"25522038","version":"1","created_by":"JOSM","building":"yes","changeSetId":"0","timestamp":"1215943053000"},"geometry":{"type":"Polygon","coordinates":[[[12.2780076,51.3213128],[12.278424600000001,51.3208727],[12.2782526,51.320809100000005],[12.2778357,51.3212491],[12.2780076,51.3213128]]]}},{"type":"Feature","properties":{"id":"25522050","version":"2","building":"terrace","changeSetId":"0","timestamp":"1422742127000"},"geometry":{"type":"Polygon","coordinates":[[[12.2807592,51.323328100000005],[12.280802300000001,51.3232834],[12.280941400000001,51.3233358],[12.2808983,51.323380500000006],[12.2807592,51.323328100000005]]]}},{"type":"Feature","properties":{"addr:housenumber":"2","roof:orientation":"across","roof:shape":"gabled","building:levels":"2","id":"25522052","addr:street":"Ilmenauer Weg","version":"3","addr:postcode":"04205","building":"terrace","changeSetId":"0","timestamp":"1467875759000","addr:city":"Leipzig"},"geometry":{"type":"Polygon","coordinates":[[[12.281490900000001,51.3233443],[12.281418,51.323317200000005],[12.2814995,51.3232316],[12.2815723,51.323258700000004],[12.281490900000001,51.3233443]]]}},{"type":"Feature","properties":{"addr:housenumber":"8","roof:orientation":"across","roof:shape":"gabled","building:levels":"2","id":"25522053","addr:street":"Ilmenauer Weg","version":"4","addr:postcode":"04205","building":"terrace","changeSetId":"0","timestamp":"1467875759000","addr:city":"Leipzig"},"geometry":{"type":"Polygon","coordinates":[[[12.2812496,51.323526900000005],[12.281165000000001,51.323495300000005],[12.2812462,51.3234104],[12.281330800000001,51.323442],[12.2812496,51.323526900000005]]]}},{"type":"Feature","properties":{"roof:orientation":"along","roof:shape":"gabled","building:levels":"3","id":"25522104","version":"4","building":"yes","changeSetId":"0","timestamp":"1467805513000"},"geometry":{"type":"Polygon","coordinates":[[[12.2826716,51.323435800000006],[12.282770300000001,51.323334800000005],[12.283332000000001,51.3235493],[12.283233300000001,51.3236502],[12.2826716,51.323435800000006]]]}},{"type":"Feature","properties":{"addr:housenumber":"3","roof:orientation":"along","roof:shape":"gabled","building:levels":"3","id":"25522105","addr:street":"Arnstädter Kehre","version":"5","addr:postcode":"04205","building":"yes","changeSetId":"0","timestamp":"1467876318000","addr:city":"Leipzig"},"geometry":{"type":"Polygon","coordinates":[[[12.282666500000001,51.323946500000005],[12.282869000000002,51.3237776],[12.2830139,51.323845500000004],[12.282811500000001,51.3240143],[12.282666500000001,51.323946500000005]]]}},{"type":"Feature","properties":{"addr:housenumber":"9","roof:orientation":"along","roof:shape":"gabled","building:levels":"3","id":"25522106","addr:street":"Arnstädter Kehre","version":"5","addr:postcode":"04205","building":"yes","changeSetId":"0","timestamp":"1467876318000","addr:city":"Leipzig"},"geometry":{"type":"Polygon","coordinates":[[[12.2822957,51.3237766],[12.282497800000002,51.3236038],[12.2826505,51.323673500000005],[12.282448500000001,51.3238464],[12.2822957,51.3237766]]]}},{"type":"Feature","properties":{"roof:orientation":"along","roof:shape":"gabled","building:levels":"3","id":"25522107","version":"4","building":"yes","changeSetId":"0","timestamp":"1467805513000"},"geometry":{"type":"Polygon","coordinates":[[[12.282007,51.3240252],[12.282118800000001,51.3239316],[12.2826315,51.3241707],[12.2825197,51.3242643],[12.282007,51.3240252]]]}},{"type":"Feature","properties":{"roof:orientation":"along","roof:shape":"gabled","building:levels":"3","id":"25522108","version":"4","building":"yes","changeSetId":"0","timestamp":"1467805513000"},"geometry":{"type":"Polygon","coordinates":[[[12.282712,51.3244216],[12.2830942,51.3240993],[12.2832395,51.324166500000004],[12.282857300000002,51.324488900000006],[12.282712,51.3244216]]]}},{"type":"Feature","properties":{"roof:orientation":"along","roof:shape":"gabled","building:levels":"3","id":"25522109","version":"4","building":"yes","changeSetId":"0","timestamp":"1467805513000"},"geometry":{"type":"Polygon","coordinates":[[[12.2832252,51.3239832],[12.283594500000001,51.323658],[12.2837314,51.32371860000001],[12.283362100000002,51.32404390000001],[12.2832252,51.3239832]]]}},{"type":"Feature","properties":{"addr:housenumber":"1","building:levels":"3","id":"25522145","addr:street":"Dornburger Weg","version":"5","addr:postcode":"04205","building":"yes","changeSetId":"0","timestamp":"1467795723000","addr:city":"Leipzig"},"geometry":{"type":"Polygon","coordinates":[[[12.2815873,51.3246948],[12.2816746,51.324596400000004],[12.2819377,51.3246903],[12.2818433,51.324790400000005],[12.2815873,51.3246948]]]}},{"type":"Feature","properties":{"roof:shape":"gabled","building:levels":"1","id":"25522147","version":"5","building":"terrace","changeSetId":"0","timestamp":"1467796001000"},"geometry":{"type":"Polygon","coordinates":[[[12.2816927,51.3243713],[12.2817504,51.3243184],[12.281978200000001,51.324411700000006],[12.282152600000002,51.3245032],[12.282299700000001,51.3246048],[12.2823439,51.324640200000005],[12.2824232,51.3247037],[12.2823367,51.3247465],[12.2823057,51.3247228],[12.2821469,51.324601],[12.2820079,51.3245134],[12.281852200000001,51.324435400000006],[12.2816927,51.3243713]]]}},{"type":"Feature","properties":{"addr:housenumber":"1","roof:orientation":"across","roof:shape":"gabled","building:levels":"2","id":"25522148","addr:street":"Suhler Straße","version":"6","addr:postcode":"04205","building":"terrace","changeSetId":"0","timestamp":"1467803960000","addr:city":"Leipzig"},"geometry":{"type":"Polygon","coordinates":[[[12.2815524,51.324608000000005],[12.281478100000001,51.324581200000004],[12.281542900000002,51.324510800000006],[12.281617200000001,51.324537600000006],[12.2815524,51.324608000000005]]]}},{"type":"Feature","properties":{"addr:housenumber":"11","roof:orientation":"across","roof:shape":"gabled","building:levels":"2","id":"25522149","addr:street":"Suhler Straße","version":"6","addr:postcode":"04205","building":"terrace","changeSetId":"0","timestamp":"1467796002000","addr:city":"Leipzig"},"geometry":{"type":"Polygon","coordinates":[[[12.281096100000001,51.324443],[12.2810202,51.3244155],[12.2810862,51.3243444],[12.281162100000001,51.3243719],[12.281096100000001,51.324443]]]}},{"type":"Feature","properties":{"id":"25522168","version":"1","created_by":"JOSM","building":"yes","changeSetId":"0","timestamp":"1215943456000"},"geometry":{"type":"Polygon","coordinates":[[[12.2775241,51.322061100000006],[12.2776048,51.3219762],[12.2777337,51.3220241],[12.277653,51.322109000000005],[12.2775241,51.322061100000006]]]}},{"type":"Feature","properties":{"id":"25522169","version":"1","created_by":"JOSM","building":"yes","changeSetId":"0","timestamp":"1215943456000"},"geometry":{"type":"Polygon","coordinates":[[[12.2776732,51.321903600000006],[12.277754900000001,51.3218157],[12.2779091,51.3218716],[12.277827400000001,51.32195960000001],[12.2776732,51.321903600000006]]]}},{"type":"Feature","properties":{"id":"25522270","version":"3","building":"terrace","changeSetId":"0","timestamp":"1422708721000"},"geometry":{"type":"Polygon","coordinates":[[[12.2794974,51.3273133],[12.2795409,51.327266200000004],[12.2796672,51.3273117],[12.2796237,51.327358800000006],[12.2794974,51.3273133]]]}},{"type":"Feature","properties":{"id":"25522271","version":"3","building":"terrace","changeSetId":"0","timestamp":"1422708721000"},"geometry":{"type":"Polygon","coordinates":[[[12.280050500000002,51.32693870000001],[12.2800925,51.3268945],[12.2802147,51.326939900000006],[12.280172700000001,51.326984100000004],[12.280050500000002,51.32693870000001]]]}},{"type":"Feature","properties":{"id":"25522272","version":"3","building":"terrace","changeSetId":"0","timestamp":"1422708720000"},"geometry":{"type":"Polygon","coordinates":[[[12.279326600000001,51.327200000000005],[12.2792515,51.3271722],[12.279325,51.3270946],[12.2794001,51.3271224],[12.279326600000001,51.327200000000005]]]}},{"type":"Feature","properties":{"id":"25522273","version":"3","building":"terrace","changeSetId":"0","timestamp":"1422708721000"},"geometry":{"type":"Polygon","coordinates":[[[12.279889,51.326848600000005],[12.279819000000002,51.3268226],[12.2798917,51.3267461],[12.279961700000001,51.32677210000001],[12.279889,51.326848600000005]]]}},{"type":"Feature","properties":{"id":"25522274","version":"3","building":"terrace","changeSetId":"0","timestamp":"1422708721000"},"geometry":{"type":"Polygon","coordinates":[[[12.2808442,51.326932500000005],[12.280773700000001,51.326905800000006],[12.2808433,51.326833900000004],[12.2809138,51.3268606],[12.2808442,51.326932500000005]]]}},{"type":"Feature","properties":{"id":"25522275","version":"3","building":"terrace","changeSetId":"0","timestamp":"1422708720000"},"geometry":{"type":"Polygon","coordinates":[[[12.28045,51.32711260000001],[12.280490400000001,51.327068700000005],[12.2806086,51.3271111],[12.280568200000001,51.327155000000005],[12.28045,51.32711260000001]]]}},{"type":"Feature","properties":{"id":"25522283","version":"2","building":"yes","changeSetId":"0","timestamp":"1246113794000"},"geometry":{"type":"Polygon","coordinates":[[[12.278937,51.326189600000006],[12.279012900000001,51.3261005],[12.2791475,51.3261503],[12.279073200000001,51.3262384],[12.278937,51.326189600000006]]]}},{"type":"Feature","properties":{"id":"25522284","version":"3","building":"terrace","changeSetId":"0","timestamp":"1422708721000"},"geometry":{"type":"Polygon","coordinates":[[[12.279654,51.3264021],[12.2797254,51.3264283],[12.279789500000001,51.3263601],[12.2797181,51.3263339],[12.279654,51.3264021]]]}},{"type":"Feature","properties":{"id":"25522285","version":"2","building":"yes","changeSetId":"0","timestamp":"1246113785000"},"geometry":{"type":"Polygon","coordinates":[[[12.2792057,51.3262377],[12.2792817,51.3261522],[12.2794053,51.32619510000001],[12.2793294,51.326280600000004],[12.2792057,51.3262377]]]}},{"type":"Feature","properties":{"id":"26427723","version":"5","building":"yes","changeSetId":"0","timestamp":"1422563341000"},"geometry":{"type":"Polygon","coordinates":[[[12.2868122,51.3245811],[12.286832500000001,51.3245847],[12.286987600000002,51.3246119],[12.2870322,51.324512600000006],[12.2871023,51.3243567],[12.287156300000001,51.3242367],[12.2871859,51.324170800000005],[12.287010500000001,51.32414],[12.2868122,51.3245811]]]}},{"type":"Feature","properties":{"id":"57371460","version":"1","building":"yes","changeSetId":"0","timestamp":"1272624250000"},"geometry":{"type":"Polygon","coordinates":[[[12.2992556,51.3350548],[12.2989966,51.33491110000001],[12.2986216,51.3351759],[12.298875200000001,51.335318],[12.2992556,51.3350548]]]}},{"type":"Feature","properties":{"man_made":"silo","id":"57371461","version":"2","building":"yes","changeSetId":"0","timestamp":"1298306488000"},"geometry":{"type":"Polygon","coordinates":[[[12.2994827,51.334572300000005],[12.2989966,51.33491110000001],[12.2992556,51.3350548],[12.299740300000002,51.3347156],[12.2994827,51.334572300000005]]]}},{"type":"Feature","properties":{"addr:housenumber":"80","addr:country":"DE","id":"57371462","addr:street":"Plautstraße","version":"2","addr:postcode":"04179","building":"yes","changeSetId":"0","timestamp":"1278576386000","addr:city":"Leipzig"},"geometry":{"type":"Polygon","coordinates":[[[12.2987739,51.3353891],[12.298875200000001,51.335318],[12.2986216,51.3351759],[12.298516500000002,51.3352444],[12.2987739,51.3353891]]]}},{"type":"Feature","properties":{"man_made":"silo","ruins":"yes","id":"57371464","version":"4","building":"yes","changeSetId":"0","timestamp":"1305281158000"},"geometry":{"type":"Polygon","coordinates":[[[12.295380600000001,51.337658100000006],[12.2956959,51.3374412],[12.295498700000001,51.3373312],[12.295185700000001,51.33754810000001],[12.295380600000001,51.337658100000006]]]}},{"type":"Feature","properties":{"addr:housenumber":"78","man_made":"silo","addr:country":"DE","id":"57371465","addr:street":"Plautstraße","version":"3","addr:postcode":"04179","building":"yes","changeSetId":"0","timestamp":"1298306425000","addr:city":"Leipzig"},"geometry":{"type":"Polygon","coordinates":[[[12.296465300000001,51.336951400000004],[12.2968317,51.336696800000006],[12.2966011,51.336567200000005],[12.296234700000001,51.336821900000004],[12.296465300000001,51.336951400000004]]]}},{"type":"Feature","properties":{"smoking":"no","building:levels":"1","id":"57375789","version":"4","building":"yes","changeSetId":"0","timestamp":"1407939715000"},"geometry":{"type":"Polygon","coordinates":[[[12.299912800000001,51.335383400000005],[12.2999842,51.3353459],[12.2999468,51.3353181],[12.299917500000001,51.3353334],[12.299909300000001,51.3353273],[12.299888500000002,51.335338300000004],[12.2998969,51.335344600000006],[12.2998756,51.3353558],[12.299912800000001,51.335383400000005]]]}},{"type":"Feature","properties":{"smoking":"no","id":"57375790","version":"4","building":"yes","changeSetId":"0","timestamp":"1407939715000"},"geometry":{"type":"Polygon","coordinates":[[[12.2999928,51.335221000000004],[12.2999477,51.3351873],[12.299924500000001,51.3351994],[12.2998987,51.3351801],[12.2998135,51.335224700000005],[12.299884400000002,51.335277700000006],[12.2999928,51.335221000000004]]]}},{"type":"Feature","properties":{"smoking":"no","id":"57375791","version":"4","building":"yes","changeSetId":"0","timestamp":"1407939715000"},"geometry":{"type":"Polygon","coordinates":[[[12.3000506,51.335225900000005],[12.299917,51.335295900000006],[12.2999468,51.3353181],[12.2999842,51.3353459],[12.3000307,51.3353216],[12.3000222,51.335315300000005],[12.3001094,51.335269600000004],[12.3000506,51.335225900000005]]]}},{"type":"Feature","properties":{"smoking":"no","id":"57375792","version":"3","building":"yes","changeSetId":"0","timestamp":"1407939715000"},"geometry":{"type":"Polygon","coordinates":[[[12.300056000000001,51.3351892],[12.300229600000002,51.3350972],[12.3001924,51.33506980000001],[12.3000188,51.3351618],[12.300056000000001,51.3351892]]]}},{"type":"Feature","properties":{"amenity":"fuel","fuel:lpg":"yes","addr:country":"DE","version":"6","addr:postcode":"04179","building":"yes","addr:city":"Leipzig","addr:housenumber":"218","name":"Sprint","id":"66240634","addr:street":"Lützner Straße","changeSetId":"0","timestamp":"1442227947000"},"geometry":{"type":"Polygon","coordinates":[[[12.308707100000001,51.328600200000004],[12.308846200000001,51.328580900000006],[12.308842700000001,51.3285709],[12.308800100000001,51.3284499],[12.308660900000001,51.3284694],[12.308707100000001,51.328600200000004]]]}},{"type":"Feature","properties":{"man_made":"silo","id":"66650678","version":"2","building":"yes","changeSetId":"0","timestamp":"1298306523000"},"geometry":{"type":"Polygon","coordinates":[[[12.300605200000001,51.3344517],[12.3010616,51.334132800000006],[12.300750200000001,51.333956],[12.300677700000001,51.334003100000004],[12.300282500000002,51.334269600000006],[12.300605200000001,51.3344517]]]}},{"type":"Feature","properties":{"id":"66650692","version":"1","building":"yes","changeSetId":"0","timestamp":"1278576382000"},"geometry":{"type":"Polygon","coordinates":[[[12.3007076,51.3347137],[12.3013516,51.3342651],[12.301085700000002,51.334116800000004],[12.3010616,51.334132800000006],[12.300605200000001,51.3344517],[12.3004431,51.3345653],[12.3007076,51.3347137]]]}},{"type":"Feature","properties":{"id":"66650694","version":"2","building":"yes","changeSetId":"0","timestamp":"1447022785000"},"geometry":{"type":"Polygon","coordinates":[[[12.2998904,51.334534000000005],[12.300282500000002,51.334269600000006],[12.300677700000001,51.334003100000004],[12.300619800000002,51.3339702],[12.300535,51.3339221],[12.3004437,51.3338702],[12.300411800000001,51.3338521],[12.299629900000001,51.334390400000004],[12.2998904,51.334534000000005]]]}},{"type":"Feature","properties":{"id":"66668138","version":"2","building":"yes","changeSetId":"0","timestamp":"1327325127000"},"geometry":{"type":"Polygon","coordinates":[[[12.302773400000001,51.334535200000005],[12.3028493,51.3345902],[12.3030019,51.3345058],[12.3029259,51.334451200000004],[12.302773400000001,51.334535200000005]]]}},{"type":"Feature","properties":{"addr:housenumber":"41","addr:country":"DE","id":"66668140","addr:street":"Plautstraße","version":"1","addr:postcode":"04179","building":"yes","changeSetId":"0","timestamp":"1278584599000","addr:city":"Leipzig"},"geometry":{"type":"Polygon","coordinates":[[[12.298086000000001,51.3368449],[12.298142200000001,51.3368266],[12.298148600000001,51.336833600000006],[12.298288900000001,51.3367881],[12.298282500000001,51.3367811],[12.2983376,51.3367627],[12.298284500000001,51.3367001],[12.2981935,51.3367305],[12.2981286,51.3366526],[12.297979600000001,51.336702200000005],[12.2980444,51.3367787],[12.2980329,51.3367827],[12.298086000000001,51.3368449]]]}},{"type":"Feature","properties":{"id":"66668141","version":"1","building":"yes","changeSetId":"0","timestamp":"1278584599000"},"geometry":{"type":"Polygon","coordinates":[[[12.3034517,51.3341483],[12.303692600000002,51.334316900000005],[12.3038024,51.3342558],[12.3035609,51.334087200000006],[12.3034517,51.3341483]]]}},{"type":"Feature","properties":{"addr:housenumber":"27","addr:country":"DE","id":"66668143","addr:street":"Plautstraße","version":"3","addr:postcode":"04179","building":"yes","changeSetId":"0","timestamp":"1454849585000","addr:city":"Leipzig"},"geometry":{"type":"Polygon","coordinates":[[[12.304813300000001,51.333686500000006],[12.304751000000001,51.3336423],[12.304814400000001,51.3336076],[12.3047702,51.333572100000005],[12.3045649,51.33367560000001],[12.3044217,51.3337477],[12.304542300000001,51.3338346],[12.304781100000001,51.333704100000006],[12.304813300000001,51.333686500000006]]]}},{"type":"Feature","properties":{"addr:housenumber":"37a","addr:country":"DE","id":"66668145","addr:street":"Plautstraße","version":"1","addr:postcode":"04179","building":"yes","changeSetId":"0","timestamp":"1278584600000","addr:city":"Leipzig"},"geometry":{"type":"Polygon","coordinates":[[[12.301160900000001,51.3356834],[12.3012049,51.3357151],[12.301282700000002,51.335672800000005],[12.301305200000002,51.3355436],[12.3012119,51.335536700000006],[12.301199700000002,51.3355934],[12.301141900000001,51.3355893],[12.3011339,51.335633900000005],[12.301221,51.335640100000006],[12.3012191,51.335652200000006],[12.301160900000001,51.3356834]]]}},{"type":"Feature","properties":{"addr:housenumber":"17","addr:country":"DE","id":"66668152","addr:street":"Plautstraße","version":"1","addr:postcode":"04179","building":"yes","changeSetId":"0","timestamp":"1278584601000","addr:city":"Leipzig"},"geometry":{"type":"Polygon","coordinates":[[[12.307826500000001,51.331555400000006],[12.3078667,51.3316358],[12.308231600000001,51.331564300000004],[12.308181000000001,51.3314631],[12.3079798,51.3315026],[12.307991000000001,51.33152320000001],[12.307826500000001,51.331555400000006]]]}},{"type":"Feature","properties":{"id":"66668154","version":"1","building":"yes","changeSetId":"0","timestamp":"1278584601000"},"geometry":{"type":"Polygon","coordinates":[[[12.300601,51.335467400000006],[12.3007848,51.3355985],[12.300866200000002,51.335553700000006],[12.300682400000001,51.3354226],[12.300601,51.335467400000006]]]}},{"type":"Feature","properties":{"addr:housenumber":"19b","addr:country":"DE","id":"66668155","addr:street":"Plautstraße","version":"1","addr:postcode":"04179","building":"yes","changeSetId":"0","timestamp":"1278584601000","addr:city":"Leipzig"},"geometry":{"type":"Polygon","coordinates":[[[12.3073156,51.332313000000006],[12.307446700000002,51.3322246],[12.3073422,51.3321605],[12.3072452,51.3322232],[12.3072394,51.332219900000005],[12.307203000000001,51.332244200000005],[12.3073156,51.332313000000006]]]}},{"type":"Feature","properties":{"addr:housenumber":"33","addr:country":"DE","id":"66668156","source":"Bing","addr:street":"Plautstraße","version":"2","addr:postcode":"04179","building":"yes","changeSetId":"0","timestamp":"1388236994000","addr:city":"Leipzig"},"geometry":{"type":"Polygon","coordinates":[[[12.303022200000001,51.3343281],[12.303061900000001,51.3343368],[12.303103700000001,51.334262300000006],[12.303064000000001,51.334253600000004],[12.303022200000001,51.3343281]]]}},{"type":"Feature","properties":{"addr:housenumber":"25","addr:country":"DE","id":"66668158","addr:street":"Plautstraße","version":"2","addr:postcode":"04179","building":"industrial","changeSetId":"0","timestamp":"1465077642000","addr:city":"Leipzig"},"geometry":{"type":"Polygon","coordinates":[[[12.305571500000001,51.333288],[12.3058458,51.33313750000001],[12.305700900000001,51.333036],[12.305457200000001,51.332864900000004],[12.305400500000001,51.3328244],[12.305348200000001,51.3328799],[12.3052829,51.3329578],[12.3052498,51.333001700000004],[12.305395500000001,51.3331017],[12.3053495,51.3331281],[12.305571500000001,51.333288]]]}},{"type":"Feature","properties":{"id":"66668159","version":"2","building":"industrial","changeSetId":"0","timestamp":"1465077639000"},"geometry":{"type":"Polygon","coordinates":[[[12.306985200000002,51.33236],[12.3071403,51.3322676],[12.3067986,51.332057400000004],[12.306454800000001,51.3322626],[12.306398600000001,51.332225400000006],[12.3063,51.332283700000005],[12.306407100000001,51.3323547],[12.3064499,51.332329400000006],[12.3065558,51.3323997],[12.306761400000001,51.332276400000005],[12.3068077,51.332307400000005],[12.3068591,51.3322766],[12.306985200000002,51.33236]]]}},{"type":"Feature","properties":{"id":"66668160","version":"1","building":"yes","changeSetId":"0","timestamp":"1278584602000"},"geometry":{"type":"Polygon","coordinates":[[[12.297993900000002,51.3369208],[12.297877000000002,51.3369591],[12.297918500000002,51.337007400000005],[12.2980359,51.3369689],[12.297993900000002,51.3369208]]]}},{"type":"Feature","properties":{"id":"66668161","version":"1","building":"yes","changeSetId":"0","timestamp":"1278584602000"},"geometry":{"type":"Polygon","coordinates":[[[12.2999258,51.336169000000005],[12.3000489,51.3361268],[12.3000003,51.3360665],[12.2999054,51.3360354],[12.300011300000001,51.335909900000004],[12.300177000000001,51.335748800000005],[12.300050500000001,51.335698],[12.299998400000002,51.3357436],[12.299884800000001,51.335858300000005],[12.2997747,51.3359875],[12.2999258,51.336169000000005]]]}},{"type":"Feature","properties":{"id":"66668164","version":"2","building":"yes","changeSetId":"0","timestamp":"1388236995000"},"geometry":{"type":"Polygon","coordinates":[[[12.301802700000001,51.33512],[12.3017462,51.3350961],[12.301614800000001,51.3350407],[12.301587300000001,51.335079500000006],[12.3017359,51.335186900000004],[12.301802700000001,51.33512]]]}},{"type":"Feature","properties":{"id":"66668165","version":"2","building":"yes","changeSetId":"0","timestamp":"1327325127000"},"geometry":{"type":"Polygon","coordinates":[[[12.302867200000001,51.3346024],[12.3029665,51.334674],[12.302993,51.3345752],[12.3029588,51.334551700000006],[12.302867200000001,51.3346024]]]}},{"type":"Feature","properties":{"addr:housenumber":"23","addr:country":"DE","id":"66668170","addr:street":"Plautstraße","version":"2","addr:postcode":"04179","building":"industrial","changeSetId":"0","timestamp":"1465077641000","addr:city":"Leipzig"},"geometry":{"type":"Polygon","coordinates":[[[12.3065352,51.332790100000004],[12.306766000000001,51.332656],[12.3068112,51.3326274],[12.3062695,51.3322708],[12.306208100000001,51.3323047],[12.3061561,51.332269600000004],[12.3059344,51.3323927],[12.305848600000001,51.332451000000006],[12.305741900000001,51.332529],[12.305799100000002,51.3325673],[12.305744,51.332598700000005],[12.3056342,51.3326885],[12.305507200000001,51.3327991],[12.305457200000001,51.332864900000004],[12.305700900000001,51.333036],[12.306033500000002,51.3328458],[12.306091100000002,51.33288700000001],[12.3064093,51.332705600000004],[12.306476900000002,51.332751],[12.306455000000001,51.3327645],[12.306498300000001,51.332794500000006],[12.3065216,51.3327809],[12.3065352,51.332790100000004]]]}},{"type":"Feature","properties":{"id":"66668173","version":"3","building":"yes","changeSetId":"0","timestamp":"1327325127000"},"geometry":{"type":"Polygon","coordinates":[[[12.2989735,51.33547170000001],[12.299119800000001,51.335554],[12.2993837,51.335373100000005],[12.2992342,51.335290500000006],[12.2989735,51.33547170000001]]]}},{"type":"Feature","properties":{"id":"66668176","source":"Bing","version":"2","building":"yes","changeSetId":"0","timestamp":"1388236995000"},"geometry":{"type":"Polygon","coordinates":[[[12.3011341,51.3355309],[12.3012119,51.335536700000006],[12.301305200000002,51.3355436],[12.301324500000002,51.3354578],[12.3013724,51.335326200000004],[12.301430300000002,51.335203500000006],[12.301481500000001,51.3351112],[12.3015126,51.3350604],[12.301588500000001,51.3349527],[12.3016158,51.334916500000006],[12.3015243,51.3348863],[12.3014963,51.334919400000004],[12.3013819,51.33488800000001],[12.3012055,51.334985100000004],[12.300862,51.335174300000006],[12.3009301,51.335223500000005],[12.301209400000001,51.335072000000004],[12.301328100000001,51.3351571],[12.301303,51.3352024],[12.3012572,51.335193200000006],[12.301208500000001,51.3352942],[12.3011557,51.335436400000006],[12.3011341,51.3355309]]]}},{"type":"Feature","properties":{"id":"66668180","version":"2","building":"yes","changeSetId":"0","timestamp":"1388236996000"},"geometry":{"type":"Polygon","coordinates":[[[12.3008366,51.335188200000005],[12.300696700000001,51.335267800000004],[12.300764800000001,51.3353164],[12.3007795,51.335326800000004],[12.300921500000001,51.3352468],[12.3008366,51.335188200000005]]]}},{"type":"Feature","properties":{"addr:housenumber":"31a","addr:country":"DE","id":"66668181","addr:street":"Plautstraße","version":"1","addr:postcode":"04179","building":"yes","changeSetId":"0","timestamp":"1278584605000","addr:city":"Leipzig"},"geometry":{"type":"Polygon","coordinates":[[[12.3032958,51.3343743],[12.303411,51.3344553],[12.303501,51.3344061],[12.303510900000001,51.334408200000006],[12.3035312,51.334397100000004],[12.3035335,51.3343828],[12.3035166,51.334370500000006],[12.303502900000002,51.3343695],[12.3034824,51.3343554],[12.3034891,51.3343513],[12.3034969,51.334335200000005],[12.3034709,51.334316900000005],[12.303445100000001,51.33431950000001],[12.3034376,51.3343232],[12.303415900000001,51.334307900000006],[12.3032958,51.3343743]]]}},{"type":"Feature","properties":{"addr:housenumber":"33","addr:country":"DE","id":"66668183","addr:street":"Plautstraße","version":"1","addr:postcode":"04179","building":"yes","changeSetId":"0","timestamp":"1278584605000","addr:city":"Leipzig"},"geometry":{"type":"Polygon","coordinates":[[[12.302888600000001,51.334682],[12.302908400000002,51.3346717],[12.3028732,51.334646000000006],[12.3028534,51.3346577],[12.302741000000001,51.33458],[12.3026321,51.3346395],[12.3026672,51.3346645],[12.3026543,51.334672000000005],[12.3026818,51.3346919],[12.302695100000001,51.334684300000006],[12.3028148,51.3347695],[12.302927,51.334708600000006],[12.302888600000001,51.334682]]]}},{"type":"Feature","properties":{"id":"66668185","version":"1","building":"yes","changeSetId":"0","timestamp":"1278584605000"},"geometry":{"type":"Polygon","coordinates":[[[12.3022671,51.334775300000004],[12.3025774,51.3346013],[12.3025134,51.334554600000004],[12.302580800000001,51.3345186],[12.3024432,51.334418500000005],[12.3021572,51.3345744],[12.3021495,51.334569300000005],[12.302059900000001,51.3346449],[12.302230300000002,51.334752],[12.3022671,51.334775300000004]]]}},{"type":"Feature","properties":{"id":"66668187","version":"2","building":"yes","changeSetId":"0","timestamp":"1327325127000"},"geometry":{"type":"Polygon","coordinates":[[[12.300871,51.3356864],[12.3010377,51.335804800000005],[12.3011081,51.3357661],[12.300942000000001,51.3356475],[12.300871,51.3356864]]]}},{"type":"Feature","properties":{"id":"66668190","version":"1","building":"yes","changeSetId":"0","timestamp":"1278584606000"},"geometry":{"type":"Polygon","coordinates":[[[12.302558300000001,51.3349654],[12.3027513,51.334860400000004],[12.3027145,51.334832600000006],[12.3025204,51.334938],[12.302524,51.334940700000004],[12.302558300000001,51.3349654]]]}},{"type":"Feature","properties":{"id":"66668191","version":"1","building":"yes","changeSetId":"0","timestamp":"1278584606000"},"geometry":{"type":"Polygon","coordinates":[[[12.304252900000002,51.333778800000005],[12.304372800000001,51.333713100000004],[12.304361400000001,51.333704600000004],[12.3044285,51.333666],[12.304363400000002,51.333618],[12.3042943,51.333656700000006],[12.304261100000002,51.3336338],[12.304309100000001,51.333607300000004],[12.3041648,51.3335042],[12.3041313,51.3335225],[12.304109200000001,51.3335066],[12.3040485,51.3335396],[12.3040078,51.3335103],[12.303923900000001,51.3335701],[12.3037337,51.333725],[12.303676600000001,51.3337754],[12.3035831,51.3338668],[12.3034146,51.334039600000004],[12.3035116,51.3340771],[12.3035492,51.334039100000005],[12.3036065,51.3340614],[12.303740900000001,51.33392430000001],[12.303819800000001,51.333956400000005],[12.3038857,51.3338881],[12.3039345,51.333921000000004],[12.303979400000001,51.3338994],[12.304074900000002,51.3338471],[12.3039935,51.333791100000006],[12.3039552,51.333811000000004],[12.3039319,51.333794100000006],[12.3039432,51.333787300000004],[12.3039223,51.3337724],[12.304103900000001,51.3336727],[12.304252900000002,51.333778800000005]]]}},{"type":"Feature","properties":{"id":"66668193","version":"1","building":"yes","changeSetId":"0","timestamp":"1278584607000"},"geometry":{"type":"Polygon","coordinates":[[[12.2977255,51.337111300000004],[12.2977132,51.337095100000006],[12.2976665,51.337110200000005],[12.297679400000002,51.3371258],[12.2977255,51.337111300000004]]]}},{"type":"Feature","properties":{"id":"66668194","version":"1","building":"yes","changeSetId":"0","timestamp":"1278584607000"},"geometry":{"type":"Polygon","coordinates":[[[12.307163000000001,51.3316646],[12.307275200000001,51.3317452],[12.3075427,51.331598500000005],[12.30743,51.3315179],[12.307163000000001,51.3316646]]]}},{"type":"Feature","properties":{"addr:housenumber":"19","addr:country":"DE","id":"66668197","addr:street":"Plautstraße","version":"1","addr:postcode":"04179","building":"yes","changeSetId":"0","timestamp":"1278584607000","addr:city":"Leipzig"},"geometry":{"type":"Polygon","coordinates":[[[12.307771800000001,51.3317654],[12.3076758,51.331836700000004],[12.307852400000002,51.3319303],[12.3078549,51.331931600000004],[12.307951200000002,51.3318597],[12.3079478,51.3318579],[12.307771800000001,51.3317654]]]}},{"type":"Feature","properties":{"addr:housenumber":"37","addr:country":"DE","id":"66668198","addr:street":"Plautstraße","version":"1","addr:postcode":"04179","building":"yes","changeSetId":"0","timestamp":"1278584607000","addr:city":"Leipzig"},"geometry":{"type":"Polygon","coordinates":[[[12.302050900000001,51.335115200000004],[12.3018952,51.335199700000004],[12.302004100000001,51.335278900000006],[12.302161900000002,51.3351929],[12.302050900000001,51.335115200000004]]]}},{"type":"Feature","properties":{"id":"66668200","source":"Bing","version":"2","building":"yes","changeSetId":"0","timestamp":"1388236996000"},"geometry":{"type":"Polygon","coordinates":[[[12.2985357,51.3365701],[12.298483800000001,51.336587300000005],[12.2983892,51.336476100000006],[12.298440800000002,51.3364587],[12.2985646,51.3364175],[12.298659500000001,51.336528900000005],[12.2985357,51.3365701]]]}},{"type":"Feature","properties":{"id":"66668202","version":"1","building":"yes","changeSetId":"0","timestamp":"1278584608000"},"geometry":{"type":"Polygon","coordinates":[[[12.297918500000002,51.337007400000005],[12.297877000000002,51.3369591],[12.2977541,51.3370003],[12.297829700000001,51.3370885],[12.297952700000002,51.3370473],[12.297918500000002,51.337007400000005]]]}},{"type":"Feature","properties":{"addr:housenumber":"39","addr:country":"DE","id":"66668203","addr:street":"Plautstraße","version":"1","addr:postcode":"04179","building":"yes","changeSetId":"0","timestamp":"1278584608000","addr:city":"Leipzig"},"geometry":{"type":"Polygon","coordinates":[[[12.299992300000001,51.336246700000004],[12.300047300000001,51.336310100000006],[12.300104000000001,51.3363164],[12.3002493,51.3362367],[12.300146400000001,51.336163400000004],[12.299992300000001,51.336246700000004]]]}},{"type":"Feature","properties":{"addr:housenumber":"19a","addr:country":"DE","id":"66668205","addr:street":"Plautstraße","version":"2","addr:postcode":"04179","building":"yes","changeSetId":"0","timestamp":"1327325123000","addr:city":"Leipzig"},"geometry":{"type":"Polygon","coordinates":[[[12.3074806,51.33206130000001],[12.307388000000001,51.3321193],[12.307396800000001,51.3321252],[12.3073422,51.3321605],[12.307446700000002,51.3322246],[12.307587300000002,51.3321266],[12.3074806,51.33206130000001]]]}},{"type":"Feature","properties":{"id":"66668207","version":"2","building":"industrial","changeSetId":"0","timestamp":"1465077640000"},"geometry":{"type":"Polygon","coordinates":[[[12.307314000000002,51.332057600000006],[12.307494700000001,51.3320026],[12.307536,51.3319819],[12.3074706,51.331943],[12.307379500000001,51.3318711],[12.3073654,51.331858700000005],[12.3069737,51.331968100000005],[12.3071023,51.3321393],[12.3073271,51.332074000000006],[12.307314000000002,51.332057600000006]]]}},{"type":"Feature","properties":{"addr:housenumber":"13","addr:country":"DE","id":"66668208","addr:street":"Plautstraße","version":"1","addr:postcode":"04179","building":"yes","changeSetId":"0","timestamp":"1278584609000","addr:city":"Leipzig"},"geometry":{"type":"Polygon","coordinates":[[[12.309386900000002,51.3302527],[12.309368800000001,51.3302458],[12.309443600000002,51.3301688],[12.3092947,51.330111900000006],[12.3089931,51.330419600000006],[12.3088783,51.3305366],[12.309003800000001,51.3305853],[12.3091194,51.3304679],[12.3091437,51.3304771],[12.3093309,51.330284600000006],[12.309349200000002,51.3302916],[12.309358000000001,51.3302903],[12.3093591,51.330290100000006],[12.309370600000001,51.3302862],[12.3093807,51.33027980000001],[12.309387200000002,51.330271700000004],[12.3093894,51.3302628],[12.3093891,51.330258900000004],[12.309386900000002,51.330253000000006],[12.309386900000002,51.3302527]]]}},{"type":"Feature","properties":{"addr:housenumber":"31","addr:country":"DE","id":"66668210","addr:street":"Plautstraße","version":"2","addr:postcode":"04179","building":"yes","changeSetId":"0","timestamp":"1327325124000","addr:city":"Leipzig"},"geometry":{"type":"Polygon","coordinates":[[[12.303934600000002,51.3342156],[12.3041505,51.3340976],[12.3039701,51.333970900000004],[12.303751100000001,51.3340891],[12.303934600000002,51.3342156]]]}},{"type":"Feature","properties":{"addr:housenumber":"21","addr:country":"DE","id":"66668212","addr:street":"Plautstraße","version":"1","addr:postcode":"04179","building":"yes","changeSetId":"0","timestamp":"1278584609000","addr:city":"Leipzig"},"geometry":{"type":"Polygon","coordinates":[[[12.3067419,51.332506],[12.306873900000001,51.332590800000006],[12.307040200000001,51.332489200000005],[12.306908700000001,51.3324051],[12.306824800000001,51.3324555],[12.306814000000001,51.3324489],[12.3067738,51.332474000000005],[12.3067832,51.3324804],[12.3067419,51.332506]]]}},{"type":"Feature","properties":{"addr:housenumber":"39a","addr:country":"DE","id":"66668214","addr:street":"Plautstraße","version":"1","addr:postcode":"04179","building":"yes","changeSetId":"0","timestamp":"1278584609000","addr:city":"Leipzig"},"geometry":{"type":"Polygon","coordinates":[[[12.300462600000001,51.3361193],[12.300988,51.3358312],[12.3004177,51.3354231],[12.300380800000001,51.335445400000005],[12.3003315,51.3354805],[12.3002509,51.335537900000006],[12.300124,51.335633800000004],[12.300050500000001,51.335698],[12.300177000000001,51.335748800000005],[12.300387,51.335586400000004],[12.300712800000001,51.3358177],[12.300333,51.3360257],[12.300462600000001,51.3361193]]]}},{"type":"Feature","properties":{"id":"66668215","version":"1","building":"yes","changeSetId":"0","timestamp":"1278584610000"},"geometry":{"type":"Polygon","coordinates":[[[12.304209700000001,51.333427500000006],[12.3045649,51.33367560000001],[12.3047702,51.333572100000005],[12.304408100000002,51.3333189],[12.304209700000001,51.333427500000006]]]}},{"type":"Feature","properties":{"addr:housenumber":"35","addr:country":"DE","id":"66668218","addr:street":"Plautstraße","version":"1","addr:postcode":"04179","building":"yes","changeSetId":"0","timestamp":"1278584610000","addr:city":"Leipzig"},"geometry":{"type":"Polygon","coordinates":[[[12.3023413,51.335088000000006],[12.3025131,51.33499380000001],[12.302510600000002,51.334991900000006],[12.3024755,51.3349667],[12.302524,51.334940700000004],[12.3025204,51.334938],[12.3024293,51.3348724],[12.3023796,51.334900700000006],[12.3024079,51.334921200000004],[12.3022378,51.3350141],[12.3023413,51.335088000000006]]]}},{"type":"Feature","properties":{"id":"66668220","version":"3","building":"yes","changeSetId":"0","timestamp":"1327325128000"},"geometry":{"type":"Polygon","coordinates":[[[12.299307800000001,51.3352188],[12.299439300000001,51.3352939],[12.2994468,51.33528870000001],[12.299513300000001,51.3353267],[12.2999185,51.335041700000005],[12.2998518,51.3350037],[12.299857300000001,51.334999800000006],[12.299725,51.334925000000005],[12.299307800000001,51.3352188]]]}},{"type":"Feature","properties":{"building:levels":"1","id":"100603633","source":"Bing","version":"2","building":"yes","changeSetId":"0","timestamp":"1444974962000"},"geometry":{"type":"Polygon","coordinates":[[[12.2828709,51.324907200000006],[12.2829656,51.3248976],[12.282982,51.324960700000005],[12.282887200000001,51.324970300000004],[12.2828709,51.324907200000006]]]}},{"type":"Feature","properties":{"amenity":"place_of_worship","name":"Kirche Schönau","id":"100964062","version":"4","building":"yes","changeSetId":"0","timestamp":"1383650687000","religion":"christian"},"geometry":{"type":"Polygon","coordinates":[[[12.288771500000001,51.327170200000005],[12.288688400000002,51.3271487],[12.2886948,51.327139],[12.288565,51.3271054],[12.288606000000001,51.3270435],[12.2887602,51.32708340000001],[12.2887696,51.327069200000004],[12.288828400000002,51.327084400000004],[12.288771500000001,51.327170200000005]]]}},{"type":"Feature","properties":{"addr:housenumber":"20","roof:orientation":"across","roof:shape":"gabled","building:levels":"2","id":"100964223","addr:street":"Arnstädter Kehre","version":"2","addr:postcode":"04205","building":"yes","changeSetId":"0","timestamp":"1467875760000","addr:city":"Leipzig"},"geometry":{"type":"Polygon","coordinates":[[[12.282304100000001,51.323313000000006],[12.282441100000002,51.323372400000004],[12.282494100000001,51.3233248],[12.2823571,51.3232653],[12.282304100000001,51.323313000000006]]]}},{"type":"Feature","properties":{"addr:housename":"AWO Seniorenheim Schönau Haus 2","addr:housenumber":"29","name":"AWO Seniorenheim Schönau","id":"113805499","addr:street":"Jenaer Straße","version":"1","addr:postcode":"04205","building":"yes","changeSetId":"0","timestamp":"1305721429000"},"geometry":{"type":"Polygon","coordinates":[[[12.2797198,51.321974600000004],[12.279873100000001,51.32180760000001],[12.2798458,51.321797000000004],[12.2799019,51.3217459],[12.2799545,51.321721600000004],[12.2801471,51.321512000000006],[12.28035,51.3215847],[12.279924600000001,51.322048],[12.2797198,51.321974600000004]]]}},{"type":"Feature","properties":{"addr:housename":"AWO Seniorenheim Schönau Haus 1","addr:housenumber":"29","name":"AWO Seniorenheim Schönau","id":"113805502","addr:street":"Jenaer Straße","version":"3","addr:postcode":"04205","building":"yes","changeSetId":"0","timestamp":"1422784515000"},"geometry":{"type":"Polygon","coordinates":[[[12.279501600000001,51.3212684],[12.2797035,51.3213402],[12.2795137,51.3215487],[12.2795071,51.3215737],[12.279504000000001,51.321604],[12.2794585,51.321654],[12.279419,51.32164],[12.279262800000001,51.3218115],[12.2790698,51.321742900000004],[12.279501600000001,51.3212684]]]}},{"type":"Feature","properties":{"id":"116801384","source":"Bing","version":"2","building":"yes","changeSetId":"0","timestamp":"1379233082000"},"geometry":{"type":"Polygon","coordinates":[[[12.303991600000002,51.330669900000004],[12.303261200000001,51.331114400000004],[12.3031711,51.331055500000005],[12.3032634,51.3309993],[12.3039018,51.330611100000006],[12.303991600000002,51.330669900000004]]]}},{"type":"Feature","properties":{"id":"116801385","source":"Bing","version":"2","building":"yes","changeSetId":"0","timestamp":"1379233083000"},"geometry":{"type":"Polygon","coordinates":[[[12.302973300000001,51.3309501],[12.302992000000001,51.3309385],[12.303066900000001,51.3308936],[12.302934200000001,51.330809300000006],[12.3028413,51.330866400000005],[12.302973300000001,51.3309501]]]}},{"type":"Feature","properties":{"id":"116801387","source":"Bing","version":"2","building":"yes","changeSetId":"0","timestamp":"1379233083000"},"geometry":{"type":"Polygon","coordinates":[[[12.3031711,51.331055500000005],[12.3032634,51.3309993],[12.3030854,51.3308826],[12.303066900000001,51.3308936],[12.302992000000001,51.3309385],[12.3031711,51.331055500000005]]]}},{"type":"Feature","properties":{"id":"130042518","version":"1","building":"yes","changeSetId":"0","timestamp":"1316093310000"},"geometry":{"type":"Polygon","coordinates":[[[12.280495,51.3231666],[12.280657300000001,51.323227100000004],[12.2807346,51.323146200000004],[12.280572300000001,51.323085600000006],[12.280495,51.3231666]]]}},{"type":"Feature","properties":{"id":"130042519","version":"1","building":"yes","changeSetId":"0","timestamp":"1316093310000"},"geometry":{"type":"Polygon","coordinates":[[[12.280669600000001,51.3230293],[12.2807966,51.3230774],[12.280893200000001,51.322977800000004],[12.2807662,51.3229297],[12.280669600000001,51.3230293]]]}},{"type":"Feature","properties":{"id":"130043326","version":"1","building":"yes","changeSetId":"0","timestamp":"1316093885000"},"geometry":{"type":"Polygon","coordinates":[[[12.2802273,51.323045],[12.2803488,51.32308930000001],[12.280410600000002,51.3230231],[12.280289100000001,51.3229788],[12.2802273,51.323045]]]}},{"type":"Feature","properties":{"id":"130043327","version":"1","building":"yes","changeSetId":"0","timestamp":"1316093885000"},"geometry":{"type":"Polygon","coordinates":[[[12.2778693,51.322892],[12.277939700000001,51.3228188],[12.2780623,51.322864900000006],[12.2779919,51.322938],[12.2778693,51.322892]]]}},{"type":"Feature","properties":{"id":"130043328","version":"1","building":"yes","changeSetId":"0","timestamp":"1316093885000"},"geometry":{"type":"Polygon","coordinates":[[[12.2771229,51.322515],[12.2771585,51.322439800000005],[12.2772971,51.3224655],[12.277261500000002,51.322540700000005],[12.2771229,51.322515]]]}},{"type":"Feature","properties":{"id":"130043329","version":"1","building":"yes","changeSetId":"0","timestamp":"1316093885000"},"geometry":{"type":"Polygon","coordinates":[[[12.277580200000001,51.322989400000004],[12.2776698,51.3228901],[12.277804900000001,51.3229376],[12.2777153,51.3230371],[12.277580200000001,51.322989400000004]]]}},{"type":"Feature","properties":{"id":"130043330","version":"1","building":"yes","changeSetId":"0","timestamp":"1316093885000"},"geometry":{"type":"Polygon","coordinates":[[[12.276761700000002,51.322917000000004],[12.2768817,51.3229595],[12.276949100000001,51.3228852],[12.2768291,51.322842800000004],[12.276761700000002,51.322917000000004]]]}},{"type":"Feature","properties":{"id":"130043331","version":"1","building":"yes","changeSetId":"0","timestamp":"1316093885000"},"geometry":{"type":"Polygon","coordinates":[[[12.277220100000001,51.3228346],[12.2773021,51.322746300000006],[12.2774566,51.322802300000006],[12.2773827,51.3228893],[12.277220100000001,51.3228346]]]}},{"type":"Feature","properties":{"id":"130043332","version":"1","building":"yes","changeSetId":"0","timestamp":"1316093885000"},"geometry":{"type":"Polygon","coordinates":[[[12.280156400000001,51.322577800000005],[12.2803155,51.322636800000005],[12.280387800000002,51.3225605],[12.2802287,51.3225016],[12.280156400000001,51.322577800000005]]]}},{"type":"Feature","properties":{"id":"130043333","version":"1","building":"yes","changeSetId":"0","timestamp":"1316093886000"},"geometry":{"type":"Polygon","coordinates":[[[12.2803725,51.322892800000005],[12.280504,51.3229387],[12.280571,51.3228638],[12.2804395,51.3228178],[12.2803725,51.322892800000005]]]}},{"type":"Feature","properties":{"id":"130043334","version":"1","building":"yes","changeSetId":"0","timestamp":"1316093886000"},"geometry":{"type":"Polygon","coordinates":[[[12.2766874,51.322445300000005],[12.276705300000001,51.3223172],[12.276832800000001,51.322324200000004],[12.276814900000002,51.3224523],[12.2766874,51.322445300000005]]]}},{"type":"Feature","properties":{"id":"130043335","version":"1","building":"yes","changeSetId":"0","timestamp":"1316093886000"},"geometry":{"type":"Polygon","coordinates":[[[12.280512000000002,51.3227112],[12.2806683,51.322766900000005],[12.280750900000001,51.322676300000005],[12.2805946,51.3226206],[12.280512000000002,51.3227112]]]}},{"type":"Feature","properties":{"id":"130043336","version":"1","building":"yes","changeSetId":"0","timestamp":"1316093886000"},"geometry":{"type":"Polygon","coordinates":[[[12.279643700000001,51.322703100000005],[12.2798028,51.3227622],[12.2799242,51.3226346],[12.279765000000001,51.322575500000006],[12.279643700000001,51.322703100000005]]]}},{"type":"Feature","properties":{"id":"130043337","version":"1","building":"yes","changeSetId":"0","timestamp":"1316093886000"},"geometry":{"type":"Polygon","coordinates":[[[12.280807800000002,51.3228188],[12.2809732,51.322875700000004],[12.2810462,51.3227929],[12.2809767,51.3227689],[12.280997900000001,51.3227448],[12.280902000000001,51.3227118],[12.280807800000002,51.3228188]]]}},{"type":"Feature","properties":{"id":"130043338","version":"1","building":"yes","changeSetId":"0","timestamp":"1316093886000"},"geometry":{"type":"Polygon","coordinates":[[[12.2798672,51.322470300000006],[12.2799899,51.322515200000005],[12.2800585,51.3224421],[12.2799358,51.3223971],[12.2798672,51.322470300000006]]]}},{"type":"Feature","properties":{"id":"130043339","version":"1","building":"yes","changeSetId":"0","timestamp":"1316093886000"},"geometry":{"type":"Polygon","coordinates":[[[12.280003,51.32276],[12.2801284,51.3228037],[12.280199600000001,51.322723700000004],[12.280074200000001,51.32268010000001],[12.280003,51.32276]]]}},{"type":"Feature","properties":{"id":"130043340","version":"1","building":"yes","changeSetId":"0","timestamp":"1316093887000"},"geometry":{"type":"Polygon","coordinates":[[[12.279903200000001,51.3229228],[12.280011,51.3229607],[12.2800817,51.3228822],[12.2799739,51.3228443],[12.279903200000001,51.3229228]]]}},{"type":"Feature","properties":{"id":"130043341","version":"1","building":"yes","changeSetId":"0","timestamp":"1316093887000"},"geometry":{"type":"Polygon","coordinates":[[[12.2768873,51.322715200000005],[12.277042300000002,51.3227727],[12.277145800000001,51.3226638],[12.2770267,51.3226196],[12.2769697,51.3226796],[12.2769338,51.3226663],[12.2768873,51.322715200000005]]]}},{"type":"Feature","properties":{"id":"130043342","version":"1","building":"yes","changeSetId":"0","timestamp":"1316093887000"},"geometry":{"type":"Polygon","coordinates":[[[12.276959100000001,51.3229884],[12.2770849,51.3230348],[12.2771606,51.3229546],[12.277034800000001,51.3229082],[12.276959100000001,51.3229884]]]}},{"type":"Feature","properties":{"id":"130043343","version":"1","building":"yes","changeSetId":"0","timestamp":"1316093887000"},"geometry":{"type":"Polygon","coordinates":[[[12.279546000000002,51.322873400000006],[12.2796564,51.3229145],[12.2797254,51.322842],[12.279615000000002,51.322800900000004],[12.279546000000002,51.322873400000006]]]}},{"type":"Feature","properties":{"id":"130043344","version":"1","building":"yes","changeSetId":"0","timestamp":"1316093887000"},"geometry":{"type":"Polygon","coordinates":[[[12.2811888,51.3229491],[12.2813423,51.323004700000006],[12.281413800000001,51.3229278],[12.281260300000001,51.322872100000005],[12.2811888,51.3229491]]]}},{"type":"Feature","properties":{"id":"130043345","version":"2","building":"yes","changeSetId":"0","timestamp":"1422737750000"},"geometry":{"type":"Polygon","coordinates":[[[12.27688,51.322479],[12.2769033,51.3223605],[12.277069500000001,51.3223733],[12.277054000000001,51.32245210000001],[12.2770156,51.3224492],[12.277007800000002,51.3224888],[12.27688,51.322479]]]}},{"type":"Feature","properties":{"id":"130043346","version":"1","building":"yes","changeSetId":"0","timestamp":"1316093887000"},"geometry":{"type":"Polygon","coordinates":[[[12.2764471,51.32256700000001],[12.2765787,51.322614800000004],[12.2766409,51.322548000000005],[12.2765093,51.3225002],[12.2764471,51.32256700000001]]]}},{"type":"Feature","properties":{"id":"130043347","version":"1","building":"yes","changeSetId":"0","timestamp":"1316093887000"},"geometry":{"type":"Polygon","coordinates":[[[12.2762556,51.32273240000001],[12.276390600000001,51.3227793],[12.2764599,51.3227014],[12.276325,51.322654500000006],[12.2762556,51.32273240000001]]]}},{"type":"Feature","properties":{"id":"130043348","version":"1","building":"yes","changeSetId":"0","timestamp":"1316093888000"},"geometry":{"type":"Polygon","coordinates":[[[12.2774085,51.3231528],[12.277474600000001,51.3230821],[12.2775932,51.3231254],[12.2775271,51.323196100000004],[12.2774085,51.3231528]]]}},{"type":"Feature","properties":{"id":"130043349","version":"1","building":"yes","changeSetId":"0","timestamp":"1316093888000"},"geometry":{"type":"Polygon","coordinates":[[[12.277394800000001,51.322628200000004],[12.2774578,51.32255910000001],[12.277579600000001,51.3226025],[12.2775166,51.322671500000006],[12.277394800000001,51.322628200000004]]]}},{"type":"Feature","properties":{"id":"130043350","version":"1","building":"yes","changeSetId":"0","timestamp":"1316093888000"},"geometry":{"type":"Polygon","coordinates":[[[12.277657000000001,51.322768200000006],[12.277733000000001,51.322682500000006],[12.2778782,51.32273300000001],[12.277802000000001,51.322818600000005],[12.277657000000001,51.322768200000006]]]}},{"type":"Feature","properties":{"id":"130112238","version":"1","building":"yes","changeSetId":"0","timestamp":"1316163465000"},"geometry":{"type":"Polygon","coordinates":[[[12.277345200000001,51.321563700000006],[12.2775026,51.321620800000005],[12.277590700000001,51.321526000000006],[12.2774333,51.321468900000006],[12.277345200000001,51.321563700000006]]]}},{"type":"Feature","properties":{"id":"130112240","version":"1","building":"yes","changeSetId":"0","timestamp":"1316163465000"},"geometry":{"type":"Polygon","coordinates":[[[12.2782947,51.3219153],[12.2784224,51.3219603],[12.278486000000001,51.32189],[12.278358200000001,51.3218449],[12.2782947,51.3219153]]]}},{"type":"Feature","properties":{"id":"130112241","version":"1","building":"yes","changeSetId":"0","timestamp":"1316163465000"},"geometry":{"type":"Polygon","coordinates":[[[12.2765582,51.321772700000004],[12.2767903,51.321834200000005],[12.277214800000001,51.3212082],[12.2769826,51.3211467],[12.2765582,51.321772700000004]]]}},{"type":"Feature","properties":{"id":"130112242","version":"1","building":"yes","changeSetId":"0","timestamp":"1316163465000"},"geometry":{"type":"Polygon","coordinates":[[[12.2785136,51.322227000000005],[12.2786282,51.322266400000004],[12.278692900000001,51.322192900000005],[12.2785782,51.322153500000006],[12.2785136,51.322227000000005]]]}},{"type":"Feature","properties":{"id":"130112244","version":"1","building":"yes","changeSetId":"0","timestamp":"1316163466000"},"geometry":{"type":"Polygon","coordinates":[[[12.279338000000001,51.322514700000006],[12.279477400000001,51.3225695],[12.2795606,51.3224895],[12.279421000000001,51.3224354],[12.279338000000001,51.322514700000006]]]}},{"type":"Feature","properties":{"id":"130112245","version":"1","building":"yes","changeSetId":"0","timestamp":"1316163466000"},"geometry":{"type":"Polygon","coordinates":[[[12.278064,51.3218309],[12.2782031,51.32188360000001],[12.278272300000001,51.321812200000004],[12.2781333,51.321759500000006],[12.278064,51.3218309]]]}},{"type":"Feature","properties":{"id":"130112246","version":"1","building":"yes","changeSetId":"0","timestamp":"1316163466000"},"geometry":{"type":"Polygon","coordinates":[[[12.279026400000001,51.322181900000004],[12.2791411,51.3222255],[12.279214000000001,51.322150500000006],[12.2790993,51.3221069],[12.279026400000001,51.322181900000004]]]}},{"type":"Feature","properties":{"id":"130112247","version":"1","building":"yes","changeSetId":"0","timestamp":"1316163466000"},"geometry":{"type":"Polygon","coordinates":[[[12.2795625,51.322377],[12.279677300000001,51.3224193],[12.2797379,51.322355],[12.279623200000001,51.322312700000005],[12.2795625,51.322377]]]}},{"type":"Feature","properties":{"id":"130112248","version":"1","building":"yes","changeSetId":"0","timestamp":"1316163466000"},"geometry":{"type":"Polygon","coordinates":[[[12.277970300000002,51.322022000000004],[12.278091400000001,51.3220638],[12.278159500000001,51.321986900000006],[12.278038400000002,51.3219451],[12.277970300000002,51.322022000000004]]]}},{"type":"Feature","properties":{"id":"130112249","version":"1","building":"yes","changeSetId":"0","timestamp":"1316163466000"},"geometry":{"type":"Polygon","coordinates":[[[12.2793112,51.3222783],[12.2794076,51.3223148],[12.2794694,51.3222515],[12.2793729,51.3222146],[12.2793112,51.3222783]]]}},{"type":"Feature","properties":{"id":"130112250","version":"1","building":"yes","changeSetId":"0","timestamp":"1316163466000"},"geometry":{"type":"Polygon","coordinates":[[[12.278530700000001,51.321991700000005],[12.2786567,51.322038600000006],[12.278710400000001,51.3219749],[12.2785869,51.321930900000005],[12.278530700000001,51.321991700000005]]]}},{"type":"Feature","properties":{"id":"130112251","version":"1","building":"yes","changeSetId":"0","timestamp":"1316163467000"},"geometry":{"type":"Polygon","coordinates":[[[12.279161,51.322675600000004],[12.2792817,51.3227191],[12.279346100000001,51.3226504],[12.279228000000002,51.3226085],[12.279161,51.322675600000004]]]}},{"type":"Feature","properties":{"id":"130112252","version":"1","building":"yes","changeSetId":"0","timestamp":"1316163467000"},"geometry":{"type":"Polygon","coordinates":[[[12.2782166,51.322099],[12.278365,51.322154000000005],[12.2784407,51.3220741],[12.2782923,51.3220192],[12.2782166,51.322099]]]}},{"type":"Feature","properties":{"id":"130112253","version":"1","building":"yes","changeSetId":"0","timestamp":"1316163467000"},"geometry":{"type":"Polygon","coordinates":[[[12.2772641,51.3219094],[12.2774342,51.3219688],[12.2774985,51.321896800000005],[12.2773284,51.3218374],[12.2772641,51.3219094]]]}},{"type":"Feature","properties":{"id":"130112254","version":"1","building":"yes","changeSetId":"0","timestamp":"1316163467000"},"geometry":{"type":"Polygon","coordinates":[[[12.2790832,51.32287],[12.2792065,51.32291480000001],[12.2792762,51.3228444],[12.2791609,51.3228025],[12.2790832,51.32287]]]}},{"type":"Feature","properties":{"id":"130112255","version":"1","building":"yes","changeSetId":"0","timestamp":"1316163467000"},"geometry":{"type":"Polygon","coordinates":[[[12.278080300000001,51.322238600000006],[12.2782102,51.322285],[12.2782791,51.3222097],[12.278149200000001,51.3221633],[12.278080300000001,51.322238600000006]]]}},{"type":"Feature","properties":{"id":"130112256","version":"1","building":"yes","changeSetId":"0","timestamp":"1316163467000"},"geometry":{"type":"Polygon","coordinates":[[[12.277172400000001,51.322029],[12.277294600000001,51.3220735],[12.2773544,51.322009400000006],[12.2772322,51.3219648],[12.277172400000001,51.322029]]]}},{"type":"Feature","properties":{"id":"130112257","version":"1","building":"yes","changeSetId":"0","timestamp":"1316163467000"},"geometry":{"type":"Polygon","coordinates":[[[12.277432500000002,51.3218046],[12.2775432,51.3218461],[12.2776096,51.321777000000004],[12.277498900000001,51.3217355],[12.277432500000002,51.3218046]]]}},{"type":"Feature","properties":{"id":"130112258","version":"1","building":"yes","changeSetId":"0","timestamp":"1316163467000"},"geometry":{"type":"Polygon","coordinates":[[[12.2783203,51.3223873],[12.2784613,51.3224413],[12.2785665,51.322334000000005],[12.2784256,51.322280000000006],[12.2783203,51.3223873]]]}},{"type":"Feature","properties":{"id":"130112259","version":"1","building":"yes","changeSetId":"0","timestamp":"1316163468000"},"geometry":{"type":"Polygon","coordinates":[[[12.2776025,51.3216644],[12.2777101,51.321702900000005],[12.2777796,51.321626900000005],[12.277672,51.3215884],[12.2776025,51.3216644]]]}},{"type":"Feature","properties":{"id":"130112260","version":"1","building":"yes","changeSetId":"0","timestamp":"1316163468000"},"geometry":{"type":"Polygon","coordinates":[[[12.2845077,51.32192250000001],[12.28476,51.32203560000001],[12.284843500000001,51.3219628],[12.284591200000001,51.3218497],[12.2845077,51.32192250000001]]]}},{"type":"Feature","properties":{"id":"130112261","version":"1","building":"yes","changeSetId":"0","timestamp":"1316163468000"},"geometry":{"type":"Polygon","coordinates":[[[12.277893800000001,51.3221495],[12.278004300000001,51.3221903],[12.2780714,51.322119300000004],[12.2779609,51.3220785],[12.277893800000001,51.3221495]]]}},{"type":"Feature","properties":{"id":"130112262","version":"1","building":"yes","changeSetId":"0","timestamp":"1316163468000"},"geometry":{"type":"Polygon","coordinates":[[[12.2785702,51.3225611],[12.2787197,51.3226166],[12.2788196,51.322511600000006],[12.278670100000001,51.322456100000004],[12.2785702,51.3225611]]]}},{"type":"Feature","properties":{"id":"130112263","version":"1","building":"yes","changeSetId":"0","timestamp":"1316163468000"},"geometry":{"type":"Polygon","coordinates":[[[12.278768600000001,51.3223484],[12.278898700000001,51.322394200000005],[12.2789753,51.3223094],[12.278845200000001,51.32226360000001],[12.278768600000001,51.3223484]]]}},{"type":"Feature","properties":{"id":"130112264","version":"1","building":"yes","changeSetId":"0","timestamp":"1316163468000"},"geometry":{"type":"Polygon","coordinates":[[[12.2787362,51.3226968],[12.278941000000001,51.32277130000001],[12.2790131,51.3226937],[12.278930200000001,51.322663600000006],[12.278961,51.3226305],[12.2788391,51.3225862],[12.2787362,51.3226968]]]}},{"type":"Feature","properties":{"id":"130112265","version":"1","building":"yes","changeSetId":"0","timestamp":"1316163468000"},"geometry":{"type":"Polygon","coordinates":[[[12.277811000000002,51.321717500000005],[12.277935600000001,51.321761900000006],[12.278010700000001,51.321679700000004],[12.2778861,51.321635300000004],[12.277811000000002,51.321717500000005]]]}},{"type":"Feature","properties":{"id":"130112266","version":"1","building":"yes","changeSetId":"0","timestamp":"1316163468000"},"geometry":{"type":"Polygon","coordinates":[[[12.277951300000002,51.3198243],[12.2782329,51.3199064],[12.278316100000001,51.319790700000006],[12.278369600000001,51.319807100000006],[12.2785922,51.3195087],[12.278375100000002,51.319453800000005],[12.2783429,51.319418600000006],[12.278141600000001,51.3194852],[12.27819,51.319500700000006],[12.277951300000002,51.3198243]]]}},{"type":"Feature","properties":{"id":"130112267","version":"1","building":"yes","changeSetId":"0","timestamp":"1316163469000"},"geometry":{"type":"Polygon","coordinates":[[[12.279053900000001,51.32240710000001],[12.279187,51.322456],[12.2792586,51.3223798],[12.279125500000001,51.322330900000004],[12.279053900000001,51.32240710000001]]]}},{"type":"Feature","properties":{"addr:housenumber":"101","addr:country":"DE","id":"166113031","addr:street":"Horburger Straße","version":"1","addr:postcode":"04205","building":"yes","changeSetId":"0","timestamp":"1338809241000","addr:city":"Leipzig"},"geometry":{"type":"Polygon","coordinates":[[[12.280787,51.331092100000006],[12.280864300000001,51.331029],[12.2806578,51.33093],[12.280514400000001,51.3310473],[12.280598300000001,51.3310862],[12.2806663,51.331033100000006],[12.280787,51.331092100000006]]]}},{"type":"Feature","properties":{"addr:housenumber":"103","addr:country":"DE","id":"166113032","addr:street":"Horburger Straße","version":"1","addr:postcode":"04205","building":"yes","changeSetId":"0","timestamp":"1338809241000","addr:city":"Leipzig"},"geometry":{"type":"Polygon","coordinates":[[[12.2793623,51.3316401],[12.2795071,51.331610700000006],[12.2794618,51.331524300000005],[12.2793165,51.331553500000005],[12.2793623,51.3316401]]]}},{"type":"Feature","properties":{"addr:housenumber":"105","addr:country":"DE","id":"166113033","addr:street":"Horburger Straße","version":"1","addr:postcode":"04205","building":"yes","changeSetId":"0","timestamp":"1338809241000","addr:city":"Leipzig"},"geometry":{"type":"Polygon","coordinates":[[[12.279098300000001,51.331698300000006],[12.279254,51.3316631],[12.2791548,51.3314742],[12.279001500000001,51.331506100000006],[12.279098300000001,51.331698300000006]]]}},{"type":"Feature","properties":{"id":"167164362","version":"1","building":"yes","changeSetId":"0","timestamp":"1339573140000"},"geometry":{"type":"Polygon","coordinates":[[[12.279698000000002,51.323486800000005],[12.279844800000001,51.3235182],[12.279892700000001,51.3234307],[12.279746000000001,51.323399300000005],[12.279698000000002,51.323486800000005]]]}},{"type":"Feature","properties":{"id":"167164363","version":"2","building":"yes","changeSetId":"0","timestamp":"1422737750000"},"geometry":{"type":"Polygon","coordinates":[[[12.2797915,51.3237978],[12.279861700000001,51.3237241],[12.2799189,51.3237455],[12.279938300000001,51.323725100000004],[12.2801097,51.323788900000004],[12.280020100000002,51.3238829],[12.2797915,51.3237978]]]}},{"type":"Feature","properties":{"id":"167164365","version":"2","building":"yes","changeSetId":"0","timestamp":"1422737750000"},"geometry":{"type":"Polygon","coordinates":[[[12.2794804,51.323660600000004],[12.2796803,51.323732],[12.279745400000001,51.323660800000006],[12.2797155,51.3236501],[12.279736000000002,51.3236277],[12.279566,51.323567000000004],[12.2794804,51.323660600000004]]]}},{"type":"Feature","properties":{"id":"167164366","version":"1","building":"yes","changeSetId":"0","timestamp":"1339573140000"},"geometry":{"type":"Polygon","coordinates":[[[12.279045700000001,51.3233301],[12.2792002,51.3233838],[12.2792677,51.323308000000004],[12.279113200000001,51.3232543],[12.279045700000001,51.3233301]]]}},{"type":"Feature","properties":{"roof:orientation":"along","roof:shape":"hipped","building:levels":"1","id":"167164367","version":"2","building":"yes","changeSetId":"0","timestamp":"1467805512000"},"geometry":{"type":"Polygon","coordinates":[[[12.2803038,51.3239766],[12.2804813,51.3240421],[12.280558800000001,51.32396000000001],[12.2803813,51.3238945],[12.2803038,51.3239766]]]}},{"type":"Feature","properties":{"id":"167164368","version":"1","building":"yes","changeSetId":"0","timestamp":"1339573141000"},"geometry":{"type":"Polygon","coordinates":[[[12.280099700000001,51.323622],[12.2799478,51.3235504],[12.2800332,51.3234797],[12.2801851,51.323551300000005],[12.280099700000001,51.323622]]]}},{"type":"Feature","properties":{"id":"167164369","version":"1","building":"yes","changeSetId":"0","timestamp":"1339573141000"},"geometry":{"type":"Polygon","coordinates":[[[12.280252500000001,51.323736600000004],[12.280148400000002,51.3236678],[12.280276500000001,51.323592000000005],[12.2803807,51.323660700000005],[12.280252500000001,51.323736600000004]]]}},{"type":"Feature","properties":{"roof:orientation":"along","roof:shape":"gabled","building:levels":"1","id":"167164370","version":"2","building":"yes","changeSetId":"0","timestamp":"1467805512000"},"geometry":{"type":"Polygon","coordinates":[[[12.2803258,51.323838],[12.280478200000001,51.3238506],[12.2804953,51.3237698],[12.2803429,51.3237572],[12.2803258,51.323838]]]}},{"type":"Feature","properties":{"id":"167164372","version":"2","building":"yes","changeSetId":"0","timestamp":"1422737750000"},"geometry":{"type":"Polygon","coordinates":[[[12.2790054,51.3234884],[12.279203200000001,51.3235589],[12.2792635,51.3234927],[12.279179000000001,51.323462600000006],[12.2791957,51.323444300000006],[12.2790824,51.3234039],[12.2790054,51.3234884]]]}},{"type":"Feature","properties":{"id":"167164373","version":"1","building":"yes","changeSetId":"0","timestamp":"1339573141000"},"geometry":{"type":"Polygon","coordinates":[[[12.2793433,51.3233795],[12.2795371,51.323456400000005],[12.2796157,51.3233789],[12.279422,51.32330210000001],[12.2793433,51.3233795]]]}},{"type":"Feature","properties":{"addr:housenumber":"21","roof:orientation":"along","roof:shape":"gabled","building:levels":"1","id":"167164374","addr:street":"Suhler Straße","version":"4","addr:postcode":"04205","building":"residential","changeSetId":"0","timestamp":"1469256913000","addr:city":"Leipzig"},"geometry":{"type":"Polygon","coordinates":[[[12.2802834,51.3241024],[12.280213300000002,51.3241748],[12.280357400000002,51.324229300000006],[12.2804277,51.324156900000006],[12.2802834,51.3241024]]]}},{"type":"Feature","properties":{"id":"167164853","version":"1","building":"yes","changeSetId":"0","timestamp":"1339573361000"},"geometry":{"type":"Polygon","coordinates":[[[12.2788935,51.3236974],[12.279016,51.323742700000004],[12.279097400000001,51.323657000000004],[12.278974900000001,51.32361160000001],[12.2788935,51.3236974]]]}},{"type":"Feature","properties":{"id":"167164854","version":"1","building":"yes","changeSetId":"0","timestamp":"1339573361000"},"geometry":{"type":"Polygon","coordinates":[[[12.2798336,51.3240397],[12.279958200000001,51.32408220000001],[12.2800328,51.3239968],[12.279908200000001,51.323954300000004],[12.2798336,51.3240397]]]}},{"type":"Feature","properties":{"id":"167164856","version":"1","building":"yes","changeSetId":"0","timestamp":"1339573361000"},"geometry":{"type":"Polygon","coordinates":[[[12.2786945,51.3236233],[12.278822,51.3236701],[12.278904,51.323582800000004],[12.278776500000001,51.323536000000004],[12.2786945,51.3236233]]]}},{"type":"Feature","properties":{"id":"167164858","version":"1","building":"yes","changeSetId":"0","timestamp":"1339573361000"},"geometry":{"type":"Polygon","coordinates":[[[12.2765675,51.3228455],[12.2766803,51.322887],[12.2767529,51.3228099],[12.276640100000002,51.3227684],[12.2765675,51.3228455]]]}},{"type":"Feature","properties":{"id":"167164860","version":"1","building":"yes","changeSetId":"0","timestamp":"1339573361000"},"geometry":{"type":"Polygon","coordinates":[[[12.277155800000001,51.3230608],[12.277276800000001,51.323105000000005],[12.2773467,51.323030300000006],[12.2772257,51.322986],[12.277155800000001,51.3230608]]]}},{"type":"Feature","properties":{"id":"167164861","version":"1","building":"yes","changeSetId":"0","timestamp":"1339573362000"},"geometry":{"type":"Polygon","coordinates":[[[12.2793817,51.3238721],[12.279497000000001,51.323913100000006],[12.2795638,51.3238398],[12.2794485,51.323798800000006],[12.2793817,51.3238721]]]}},{"type":"Feature","properties":{"id":"167164862","version":"1","building":"yes","changeSetId":"0","timestamp":"1339573362000"},"geometry":{"type":"Polygon","coordinates":[[[12.2795865,51.3239438],[12.279713200000002,51.323989000000005],[12.279780200000001,51.3239158],[12.2796535,51.323870500000005],[12.2795865,51.3239438]]]}},{"type":"Feature","properties":{"id":"167164863","version":"1","building":"yes","changeSetId":"0","timestamp":"1339573362000"},"geometry":{"type":"Polygon","coordinates":[[[12.279181600000001,51.323805300000004],[12.279305800000001,51.323847],[12.2793714,51.3237706],[12.2792472,51.323728900000006],[12.279181600000001,51.323805300000004]]]}},{"type":"Feature","properties":{"id":"167165669","version":"1","building":"yes","changeSetId":"0","timestamp":"1339573562000"},"geometry":{"type":"Polygon","coordinates":[[[12.277618400000001,51.3232298],[12.277732100000001,51.32327],[12.2778028,51.3231921],[12.277689200000001,51.323151800000005],[12.277618400000001,51.3232298]]]}},{"type":"Feature","properties":{"id":"167165671","version":"1","building":"yes","changeSetId":"0","timestamp":"1339573562000"},"geometry":{"type":"Polygon","coordinates":[[[12.2780009,51.323370600000004],[12.2781198,51.3234147],[12.278193300000002,51.3233374],[12.2780743,51.3232933],[12.2780009,51.323370600000004]]]}},{"type":"Feature","properties":{"id":"167165672","version":"1","building":"yes","changeSetId":"0","timestamp":"1339573562000"},"geometry":{"type":"Polygon","coordinates":[[[12.2778082,51.323303300000006],[12.2779351,51.323346400000005],[12.2780044,51.3232669],[12.277877400000001,51.3232237],[12.2778082,51.323303300000006]]]}},{"type":"Feature","properties":{"id":"167166593","version":"1","building":"yes","changeSetId":"0","timestamp":"1339573675000"},"geometry":{"type":"Polygon","coordinates":[[[12.2784823,51.3232045],[12.2786156,51.3232542],[12.2786927,51.323173600000004],[12.2785594,51.323123800000005],[12.2784823,51.3232045]]]}},{"type":"Feature","properties":{"id":"167166598","version":"1","building":"yes","changeSetId":"0","timestamp":"1339573676000"},"geometry":{"type":"Polygon","coordinates":[[[12.278239600000001,51.323102500000005],[12.278399400000001,51.323160200000004],[12.2784635,51.3230908],[12.2783037,51.3230331],[12.278239600000001,51.323102500000005]]]}},{"type":"Feature","properties":{"id":"167166600","version":"1","building":"yes","changeSetId":"0","timestamp":"1339573676000"},"geometry":{"type":"Polygon","coordinates":[[[12.278284800000002,51.323455900000006],[12.278414000000001,51.323502700000006],[12.2784908,51.323419900000005],[12.2783615,51.323373100000005],[12.278284800000002,51.323455900000006]]]}},{"type":"Feature","properties":{"id":"167166603","version":"1","building":"yes","changeSetId":"0","timestamp":"1339573676000"},"geometry":{"type":"Polygon","coordinates":[[[12.2786953,51.3232902],[12.2788161,51.323331800000005],[12.2788936,51.323244200000005],[12.2787728,51.3232025],[12.2786953,51.3232902]]]}},{"type":"Feature","properties":{"id":"167166606","version":"1","building":"yes","changeSetId":"0","timestamp":"1339573676000"},"geometry":{"type":"Polygon","coordinates":[[[12.2784735,51.323542800000006],[12.278589100000001,51.3235839],[12.278658400000001,51.323508000000004],[12.2785428,51.323466800000006],[12.2784735,51.323542800000006]]]}},{"type":"Feature","properties":{"id":"167166607","version":"1","building":"yes","changeSetId":"0","timestamp":"1339573676000"},"geometry":{"type":"Polygon","coordinates":[[[12.2780391,51.3230859],[12.278172000000001,51.32313430000001],[12.2782672,51.323032100000006],[12.278134300000001,51.3229838],[12.2780391,51.3230859]]]}},{"type":"Feature","properties":{"id":"167167490","version":"1","building":"yes","changeSetId":"0","timestamp":"1339574240000"},"geometry":{"type":"Polygon","coordinates":[[[12.280519700000001,51.325973700000006],[12.280649400000001,51.3260195],[12.280745000000001,51.3259138],[12.280615300000001,51.325868],[12.280519700000001,51.325973700000006]]]}},{"type":"Feature","properties":{"id":"167167491","version":"1","building":"yes","changeSetId":"0","timestamp":"1339574240000"},"geometry":{"type":"Polygon","coordinates":[[[12.2810156,51.3254439],[12.2811499,51.325493200000004],[12.2812371,51.3254005],[12.2811027,51.3253512],[12.2810156,51.3254439]]]}},{"type":"Feature","properties":{"id":"167167493","version":"1","building":"yes","changeSetId":"0","timestamp":"1339574240000"},"geometry":{"type":"Polygon","coordinates":[[[12.280881200000001,51.3256201],[12.2810232,51.3256737],[12.281111000000001,51.325583],[12.280969,51.32552930000001],[12.280881200000001,51.3256201]]]}},{"type":"Feature","properties":{"id":"167167494","version":"2","building":"yes","changeSetId":"0","timestamp":"1422690892000"},"geometry":{"type":"Polygon","coordinates":[[[12.281253900000001,51.325181300000004],[12.2814204,51.325241500000004],[12.2814736,51.3251841],[12.2814259,51.325166900000006],[12.281477200000001,51.325111500000006],[12.2813583,51.3250685],[12.281253900000001,51.325181300000004]]]}},{"type":"Feature","properties":{"id":"167167495","version":"1","building":"yes","changeSetId":"0","timestamp":"1339574240000"},"geometry":{"type":"Polygon","coordinates":[[[12.2807331,51.3257993],[12.2808487,51.3258421],[12.2809352,51.3257509],[12.2808197,51.3257081],[12.2807331,51.3257993]]]}},{"type":"Feature","properties":{"id":"167167496","version":"2","building":"yes","changeSetId":"0","timestamp":"1422690892000"},"geometry":{"type":"Polygon","coordinates":[[[12.281409100000001,51.3250217],[12.2815724,51.3250815],[12.2816522,51.3249964],[12.281611900000001,51.3249816],[12.2816522,51.3249386],[12.2815291,51.3248936],[12.281409100000001,51.3250217]]]}},{"type":"Feature","properties":{"addr:housenumber":"5","id":"167167498","addr:street":"Weimarer Straße","version":"2","addr:postcode":"04205","building":"yes","changeSetId":"0","timestamp":"1444118303000","addr:city":"Leipzig"},"geometry":{"type":"Polygon","coordinates":[[[12.280320900000001,51.326222900000005],[12.280468500000001,51.3262748],[12.2805686,51.3261636],[12.280421,51.326111700000006],[12.280320900000001,51.326222900000005]]]}},{"type":"Feature","properties":{"id":"176157698","version":"1","building":"yes","changeSetId":"0","timestamp":"1345028131000"},"geometry":{"type":"Polygon","coordinates":[[[12.2804149,51.321345300000004],[12.2805364,51.3213906],[12.2806052,51.321318600000005],[12.2804836,51.3212733],[12.2804149,51.321345300000004]]]}},{"type":"Feature","properties":{"id":"176157702","version":"1","building":"yes","changeSetId":"0","timestamp":"1345028131000"},"geometry":{"type":"Polygon","coordinates":[[[12.2808814,51.3207986],[12.281039400000001,51.3208533],[12.2811132,51.320770100000004],[12.280955200000001,51.3207153],[12.2808814,51.3207986]]]}},{"type":"Feature","properties":{"id":"176157703","version":"1","building":"yes","changeSetId":"0","timestamp":"1345028131000"},"geometry":{"type":"Polygon","coordinates":[[[12.280669900000001,51.321068700000005],[12.280797600000001,51.321112400000004],[12.2808705,51.321029300000006],[12.2807428,51.320985500000006],[12.280669900000001,51.321068700000005]]]}},{"type":"Feature","properties":{"id":"176157705","version":"2","building":"yes","changeSetId":"0","timestamp":"1422784515000"},"geometry":{"type":"Polygon","coordinates":[[[12.2805321,51.320556700000004],[12.2804246,51.3205132],[12.280467400000001,51.3204654],[12.2803453,51.3204232],[12.280296,51.3204743],[12.2799253,51.3203345],[12.2798818,51.320381000000005],[12.280286400000001,51.3205631],[12.280247800000001,51.3205905],[12.280120400000001,51.320544700000006],[12.279693600000002,51.3207323],[12.279658600000001,51.3207693],[12.280173900000001,51.320946500000005],[12.2805321,51.320556700000004]]]}},{"type":"Feature","properties":{"id":"176157707","version":"1","building":"yes","changeSetId":"0","timestamp":"1345028132000"},"geometry":{"type":"Polygon","coordinates":[[[12.2807864,51.3209419],[12.280910400000002,51.320987200000005],[12.2809925,51.3208993],[12.2808685,51.320854100000005],[12.2807864,51.3209419]]]}},{"type":"Feature","properties":{"roof:orientation":"along","roof:shape":"gabled","building:levels":"2","id":"176158213","version":"2","building":"yes","changeSetId":"0","timestamp":"1467875758000"},"geometry":{"type":"Polygon","coordinates":[[[12.2817732,51.323879100000006],[12.2818661,51.3238003],[12.2817732,51.3237576],[12.2816805,51.323836500000006],[12.2817732,51.323879100000006]]]}},{"type":"Feature","properties":{"id":"182691145","version":"1","building":"yes","changeSetId":"0","timestamp":"1348491077000"},"geometry":{"type":"Polygon","coordinates":[[[12.2836899,51.322366200000005],[12.283805800000001,51.322422100000004],[12.283924200000001,51.322326100000005],[12.2838083,51.322270200000006],[12.2836899,51.322366200000005]]]}},{"type":"Feature","properties":{"id":"182691146","version":"1","building":"yes","changeSetId":"0","timestamp":"1348491077000"},"geometry":{"type":"Polygon","coordinates":[[[12.283252500000001,51.3227271],[12.283375900000001,51.3227861],[12.283475300000001,51.322704900000005],[12.283351900000001,51.322645900000005],[12.283252500000001,51.3227271]]]}},{"type":"Feature","properties":{"id":"182691147","version":"1","building":"yes","changeSetId":"0","timestamp":"1348491077000"},"geometry":{"type":"Polygon","coordinates":[[[12.283418800000002,51.3222767],[12.2835382,51.3223338],[12.283669000000002,51.3222267],[12.2835496,51.3221697],[12.283418800000002,51.3222767]]]}},{"type":"Feature","properties":{"id":"182691148","version":"1","building":"yes","changeSetId":"0","timestamp":"1348491077000"},"geometry":{"type":"Polygon","coordinates":[[[12.2830446,51.3229015],[12.283172800000001,51.3229631],[12.283273000000001,51.3228817],[12.2831449,51.3228201],[12.2830446,51.3229015]]]}},{"type":"Feature","properties":{"id":"182691149","version":"1","building":"yes","changeSetId":"0","timestamp":"1348491077000"},"geometry":{"type":"Polygon","coordinates":[[[12.284110700000001,51.3224163],[12.284279300000001,51.3224953],[12.2843861,51.322406300000004],[12.2842175,51.322327300000005],[12.284110700000001,51.3224163]]]}},{"type":"Feature","properties":{"id":"182691150","version":"1","building":"yes","changeSetId":"0","timestamp":"1348491077000"},"geometry":{"type":"Polygon","coordinates":[[[12.282682300000001,51.3228449],[12.2828269,51.3229121],[12.282952600000002,51.3228063],[12.282808000000001,51.3227392],[12.282682300000001,51.3228449]]]}},{"type":"Feature","properties":{"id":"182691152","version":"2","building":"yes","changeSetId":"0","timestamp":"1422802067000"},"geometry":{"type":"Polygon","coordinates":[[[12.2832135,51.322402200000006],[12.2833594,51.3224728],[12.2834766,51.3223782],[12.2833825,51.322332700000004],[12.2833328,51.3223727],[12.2832811,51.3223476],[12.2832135,51.322402200000006]]]}},{"type":"Feature","properties":{"id":"182691153","version":"1","building":"yes","changeSetId":"0","timestamp":"1348491078000"},"geometry":{"type":"Polygon","coordinates":[[[12.2843678,51.322506100000005],[12.2845259,51.3225877],[12.284620700000001,51.322515900000006],[12.284462600000001,51.322434300000005],[12.2843678,51.322506100000005]]]}},{"type":"Feature","properties":{"id":"182691154","version":"1","building":"yes","changeSetId":"0","timestamp":"1348491078000"},"geometry":{"type":"Polygon","coordinates":[[[12.2836104,51.3228263],[12.2837732,51.3229039],[12.2836827,51.3229782],[12.2835198,51.3229005],[12.2836104,51.3228263]]]}},{"type":"Feature","properties":{"id":"182691155","version":"1","building":"yes","changeSetId":"0","timestamp":"1348491078000"},"geometry":{"type":"Polygon","coordinates":[[[12.283726900000001,51.323017400000005],[12.2838311,51.3229362],[12.2839714,51.32300660000001],[12.2838673,51.3230877],[12.283726900000001,51.323017400000005]]]}},{"type":"Feature","properties":{"id":"182691156","version":"2","building":"yes","changeSetId":"0","timestamp":"1422802067000"},"geometry":{"type":"Polygon","coordinates":[[[12.283859900000001,51.3222388],[12.2839974,51.322301800000005],[12.2840769,51.3222341],[12.2840468,51.322220300000005],[12.2840805,51.322191600000004],[12.2839732,51.322142400000004],[12.283859900000001,51.3222388]]]}},{"type":"Feature","properties":{"id":"182691157","version":"1","building":"yes","changeSetId":"0","timestamp":"1348491078000"},"geometry":{"type":"Polygon","coordinates":[[[12.2845428,51.322781400000004],[12.284691200000001,51.3228542],[12.2848082,51.322760900000006],[12.2846597,51.3226882],[12.2845428,51.322781400000004]]]}},{"type":"Feature","properties":{"id":"182691158","version":"1","building":"yes","changeSetId":"0","timestamp":"1348491078000"},"geometry":{"type":"Polygon","coordinates":[[[12.2830258,51.3225587],[12.283166900000001,51.32262600000001],[12.283284400000001,51.322529900000006],[12.2831433,51.3224625],[12.2830258,51.3225587]]]}},{"type":"Feature","properties":{"id":"182691159","version":"1","building":"yes","changeSetId":"0","timestamp":"1348491078000"},"geometry":{"type":"Polygon","coordinates":[[[12.282866700000001,51.322704],[12.282990600000002,51.322765100000005],[12.2831033,51.3226759],[12.2829794,51.3226147],[12.282866700000001,51.322704]]]}},{"type":"Feature","properties":{"id":"182691160","version":"1","building":"yes","changeSetId":"0","timestamp":"1348491078000"},"geometry":{"type":"Polygon","coordinates":[[[12.283572900000001,51.322104],[12.2837247,51.322177200000006],[12.2838498,51.3220759],[12.2836979,51.322002700000006],[12.283572900000001,51.322104]]]}},{"type":"Feature","properties":{"id":"182691161","version":"1","building":"yes","changeSetId":"0","timestamp":"1348491079000"},"geometry":{"type":"Polygon","coordinates":[[[12.283933600000001,51.3232682],[12.2840713,51.3233326],[12.2841757,51.3232453],[12.284038,51.323180900000004],[12.283933600000001,51.3232682]]]}},{"type":"Feature","properties":{"id":"182691162","version":"1","building":"yes","changeSetId":"0","timestamp":"1348491079000"},"geometry":{"type":"Polygon","coordinates":[[[12.284408500000001,51.32292150000001],[12.2845329,51.3229824],[12.2846249,51.322909],[12.2845005,51.3228481],[12.284408500000001,51.32292150000001]]]}},{"type":"Feature","properties":{"id":"182691163","version":"1","building":"yes","changeSetId":"0","timestamp":"1348491079000"},"geometry":{"type":"Polygon","coordinates":[[[12.2847284,51.32264240000001],[12.2848681,51.322707300000005],[12.284958600000001,51.322631200000004],[12.284818900000001,51.322566300000005],[12.2847284,51.32264240000001]]]}},{"type":"Feature","properties":{"id":"182692281","version":"1","building":"yes","changeSetId":"0","timestamp":"1348491884000"},"geometry":{"type":"Polygon","coordinates":[[[12.278765100000001,51.3272782],[12.2788877,51.3273239],[12.2789566,51.327251800000006],[12.2788339,51.327206100000005],[12.278765100000001,51.3272782]]]}},{"type":"Feature","properties":{"id":"182692283","version":"2","building":"terrace","changeSetId":"0","timestamp":"1422708721000"},"geometry":{"type":"Polygon","coordinates":[[[12.280022800000001,51.326540800000004],[12.280097000000001,51.3265669],[12.280162,51.3264949],[12.2800878,51.3264688],[12.280022800000001,51.326540800000004]]]}},{"type":"Feature","properties":{"id":"182692285","version":"1","building":"yes","changeSetId":"0","timestamp":"1348491884000"},"geometry":{"type":"Polygon","coordinates":[[[12.278537700000001,51.3261477],[12.2787105,51.326209600000006],[12.2787845,51.326129],[12.2786117,51.3260671],[12.278537700000001,51.3261477]]]}},{"type":"Feature","properties":{"id":"182692287","version":"1","building":"yes","changeSetId":"0","timestamp":"1348491884000"},"geometry":{"type":"Polygon","coordinates":[[[12.279911,51.3274534],[12.2800267,51.327495500000005],[12.2800963,51.327420700000005],[12.2799806,51.3273786],[12.279911,51.3274534]]]}},{"type":"Feature","properties":{"id":"182692288","version":"1","building":"yes","changeSetId":"0","timestamp":"1348491884000"},"geometry":{"type":"Polygon","coordinates":[[[12.279567,51.3275578],[12.279685800000001,51.327603100000005],[12.279750900000002,51.32753640000001],[12.2796321,51.3274911],[12.279567,51.3275578]]]}},{"type":"Feature","properties":{"id":"182692289","version":"1","building":"yes","changeSetId":"0","timestamp":"1348491884000"},"geometry":{"type":"Polygon","coordinates":[[[12.278107700000001,51.3264949],[12.278247100000002,51.326546300000004],[12.2783142,51.326475300000006],[12.2781748,51.326424],[12.278107700000001,51.3264949]]]}},{"type":"Feature","properties":{"id":"182692292","version":"1","building":"yes","changeSetId":"0","timestamp":"1348491884000"},"geometry":{"type":"Polygon","coordinates":[[[12.277697400000001,51.32696910000001],[12.2778159,51.327010400000006],[12.2778861,51.326931800000004],[12.2777676,51.326890500000005],[12.277697400000001,51.32696910000001]]]}},{"type":"Feature","properties":{"id":"182692294","version":"1","building":"yes","changeSetId":"0","timestamp":"1348491885000"},"geometry":{"type":"Polygon","coordinates":[[[12.279328600000001,51.3265193],[12.2794816,51.326570100000005],[12.279534900000002,51.32650760000001],[12.2793819,51.3264567],[12.279328600000001,51.3265193]]]}},{"type":"Feature","properties":{"id":"182692295","version":"1","building":"yes","changeSetId":"0","timestamp":"1348491885000"},"geometry":{"type":"Polygon","coordinates":[[[12.279754500000001,51.32762820000001],[12.27989,51.327676100000005],[12.2799568,51.3276024],[12.2798213,51.327554500000005],[12.279754500000001,51.32762820000001]]]}},{"type":"Feature","properties":{"id":"182692297","version":"2","building":"yes","changeSetId":"0","timestamp":"1422708721000"},"geometry":{"type":"Polygon","coordinates":[[[12.2788289,51.3268842],[12.2789905,51.3269448],[12.279080700000002,51.326851000000005],[12.278953900000001,51.3268034],[12.2789055,51.3268537],[12.2788707,51.326840700000005],[12.2788289,51.3268842]]]}},{"type":"Feature","properties":{"id":"182692299","version":"1","building":"yes","changeSetId":"0","timestamp":"1348491885000"},"geometry":{"type":"Polygon","coordinates":[[[12.2786688,51.3270003],[12.278826500000001,51.327055800000004],[12.278892,51.326983000000006],[12.2787343,51.326927600000005],[12.2786688,51.3270003]]]}},{"type":"Feature","properties":{"id":"182692301","version":"1","building":"yes","changeSetId":"0","timestamp":"1348491885000"},"geometry":{"type":"Polygon","coordinates":[[[12.277795000000001,51.326813800000004],[12.2779386,51.326865500000004],[12.2780105,51.326784200000006],[12.277866300000001,51.3267328],[12.277795000000001,51.326813800000004]]]}},{"type":"Feature","properties":{"id":"182692302","version":"1","building":"yes","changeSetId":"0","timestamp":"1348491885000"},"geometry":{"type":"Polygon","coordinates":[[[12.2785442,51.3272228],[12.2786749,51.3272703],[12.2787536,51.3271858],[12.2786229,51.3271383],[12.2785442,51.3272228]]]}},{"type":"Feature","properties":{"id":"182692305","version":"1","building":"yes","changeSetId":"0","timestamp":"1348491885000"},"geometry":{"type":"Polygon","coordinates":[[[12.2784811,51.326638900000006],[12.278614500000002,51.3266841],[12.2786875,51.326599900000005],[12.2785542,51.3265547],[12.2784811,51.326638900000006]]]}},{"type":"Feature","properties":{"id":"182692307","version":"1","building":"yes","changeSetId":"0","timestamp":"1348491885000"},"geometry":{"type":"Polygon","coordinates":[[[12.2780141,51.3270002],[12.278114500000001,51.3270361],[12.2781903,51.326953200000005],[12.278089900000001,51.326917300000005],[12.2780141,51.3270002]]]}},{"type":"Feature","properties":{"id":"182692309","version":"1","building":"yes","changeSetId":"0","timestamp":"1348491885000"},"geometry":{"type":"Polygon","coordinates":[[[12.278361100000001,51.327154400000005],[12.2784768,51.327195800000005],[12.278549700000001,51.327116200000006],[12.2784341,51.327074800000005],[12.278361100000001,51.327154400000005]]]}},{"type":"Feature","properties":{"id":"182692310","version":"1","building":"yes","changeSetId":"0","timestamp":"1348491885000"},"geometry":{"type":"Polygon","coordinates":[[[12.2789552,51.327338100000006],[12.2790984,51.327390400000006],[12.2791612,51.3273233],[12.279018,51.327271],[12.2789552,51.327338100000006]]]}},{"type":"Feature","properties":{"id":"182692312","version":"1","building":"yes","changeSetId":"0","timestamp":"1348491885000"},"geometry":{"type":"Polygon","coordinates":[[[12.2800516,51.3271711],[12.2801901,51.327218300000006],[12.2802582,51.3271402],[12.2801197,51.327093000000005],[12.2800516,51.3271711]]]}},{"type":"Feature","properties":{"id":"182692314","version":"2","building":"yes","changeSetId":"0","timestamp":"1422708721000"},"geometry":{"type":"Polygon","coordinates":[[[12.2782374,51.326850300000004],[12.2784429,51.326925100000004],[12.2785566,51.326803000000005],[12.278460800000001,51.3267681],[12.2784432,51.3267869],[12.278333600000002,51.326747100000006],[12.2782374,51.326850300000004]]]}},{"type":"Feature","properties":{"id":"182692315","version":"1","building":"yes","changeSetId":"0","timestamp":"1348491886000"},"geometry":{"type":"Polygon","coordinates":[[[12.2793814,51.326334800000005],[12.2795074,51.326379700000004],[12.279578200000001,51.3263022],[12.2794523,51.3262572],[12.2793814,51.326334800000005]]]}},{"type":"Feature","properties":{"id":"182692318","version":"2","building":"terrace","changeSetId":"0","timestamp":"1422708721000"},"geometry":{"type":"Polygon","coordinates":[[[12.280432000000001,51.326736100000005],[12.2803605,51.3267103],[12.2804277,51.3266374],[12.2804993,51.326663200000006],[12.280432000000001,51.326736100000005]]]}},{"type":"Feature","properties":{"id":"182692320","version":"1","building":"yes","changeSetId":"0","timestamp":"1348491886000"},"geometry":{"type":"Polygon","coordinates":[[[12.279956400000001,51.327291100000004],[12.2800762,51.327333800000005],[12.2801466,51.32725670000001],[12.2800268,51.327214000000005],[12.279956400000001,51.327291100000004]]]}},{"type":"Feature","properties":{"id":"182692322","version":"1","building":"yes","changeSetId":"0","timestamp":"1348491886000"},"geometry":{"type":"Polygon","coordinates":[[[12.2784235,51.3262762],[12.2785904,51.326334100000004],[12.278667500000001,51.326247200000005],[12.278500600000001,51.326189400000004],[12.2784235,51.3262762]]]}},{"type":"Feature","properties":{"id":"182692324","version":"1","building":"yes","changeSetId":"0","timestamp":"1348491886000"},"geometry":{"type":"Polygon","coordinates":[[[12.278197700000002,51.3270582],[12.2783069,51.3270951],[12.278376600000001,51.327014600000005],[12.2782674,51.3269777],[12.278197700000002,51.3270582]]]}},{"type":"Feature","properties":{"id":"182692326","version":"2","building":"terrace","changeSetId":"0","timestamp":"1422708720000"},"geometry":{"type":"Polygon","coordinates":[[[12.2794311,51.326809000000004],[12.279361000000002,51.326883],[12.279451700000001,51.326916600000004],[12.279521800000001,51.326842600000006],[12.2794311,51.326809000000004]]]}},{"type":"Feature","properties":{"id":"182692327","version":"1","building":"yes","changeSetId":"0","timestamp":"1348491886000"},"geometry":{"type":"Polygon","coordinates":[[[12.2778785,51.3266824],[12.278058900000001,51.3267469],[12.2781379,51.326660700000005],[12.2779576,51.3265961],[12.2778785,51.3266824]]]}},{"type":"Feature","properties":{"id":"182692328","version":"1","building":"yes","changeSetId":"0","timestamp":"1348491886000"},"geometry":{"type":"Polygon","coordinates":[[[12.2791659,51.327423200000005],[12.2792907,51.3274673],[12.2793635,51.3273869],[12.2792387,51.327342800000004],[12.2791659,51.327423200000005]]]}},{"type":"Feature","properties":{"id":"182692331","version":"1","building":"yes","changeSetId":"0","timestamp":"1348491887000"},"geometry":{"type":"Polygon","coordinates":[[[12.2786813,51.326014],[12.2788432,51.3260677],[12.278906600000001,51.325993100000005],[12.278744600000001,51.3259394],[12.2786813,51.326014]]]}},{"type":"Feature","properties":{"id":"182692333","version":"1","building":"yes","changeSetId":"0","timestamp":"1348491887000"},"geometry":{"type":"Polygon","coordinates":[[[12.2789119,51.3265018],[12.279049800000001,51.3265479],[12.279118,51.3264683],[12.2789801,51.3264222],[12.2789119,51.3265018]]]}},{"type":"Feature","properties":{"id":"182692334","version":"1","building":"yes","changeSetId":"0","timestamp":"1348491887000"},"geometry":{"type":"Polygon","coordinates":[[[12.279006800000001,51.3267674],[12.2791315,51.3268107],[12.2792069,51.3267261],[12.279082200000001,51.3266828],[12.279006800000001,51.3267674]]]}},{"type":"Feature","properties":{"id":"182692336","version":"1","building":"yes","changeSetId":"0","timestamp":"1348491887000"},"geometry":{"type":"Polygon","coordinates":[[[12.2792499,51.3266379],[12.2793708,51.3266794],[12.279431800000001,51.32661],[12.2793109,51.3265685],[12.2792499,51.3266379]]]}},{"type":"Feature","properties":{"id":"182692338","version":"2","building":"yes","changeSetId":"0","timestamp":"1422708721000"},"geometry":{"type":"Polygon","coordinates":[[[12.2793548,51.32751510000001],[12.2794699,51.3275574],[12.2795196,51.327504600000005],[12.2795556,51.327517900000004],[12.2796119,51.327458],[12.2795205,51.327424400000005],[12.2794918,51.327454800000005],[12.2794322,51.327432900000005],[12.2793548,51.32751510000001]]]}},{"type":"Feature","properties":{"id":"182823750","version":"1","building":"yes","changeSetId":"0","timestamp":"1348562712000"},"geometry":{"type":"Polygon","coordinates":[[[12.283853200000001,51.322610700000006],[12.283965100000001,51.3226639],[12.284054500000002,51.322590500000004],[12.283942600000001,51.3225373],[12.283853200000001,51.322610700000006]]]}},{"type":"Feature","properties":{"id":"182823752","version":"1","building":"yes","changeSetId":"0","timestamp":"1348562712000"},"geometry":{"type":"Polygon","coordinates":[[[12.283518800000001,51.3224985],[12.283644,51.3225574],[12.283749700000001,51.322469600000005],[12.2836245,51.322410700000006],[12.283518800000001,51.3224985]]]}},{"type":"Feature","properties":{"id":"182823756","version":"1","building":"yes","changeSetId":"0","timestamp":"1348562713000"},"geometry":{"type":"Polygon","coordinates":[[[12.284131700000001,51.322743300000006],[12.2842537,51.3227996],[12.284335100000002,51.3227308],[12.2842132,51.322674400000004],[12.284131700000001,51.322743300000006]]]}},{"type":"Feature","properties":{"id":"182824799","version":"1","building":"yes","changeSetId":"0","timestamp":"1348563304000"},"geometry":{"type":"Polygon","coordinates":[[[12.2782215,51.3237168],[12.2783431,51.3237626],[12.278420800000001,51.323682000000005],[12.2782993,51.3236362],[12.2782215,51.3237168]]]}},{"type":"Feature","properties":{"id":"182824801","version":"1","building":"yes","changeSetId":"0","timestamp":"1348563304000"},"geometry":{"type":"Polygon","coordinates":[[[12.2779482,51.3244057],[12.2780831,51.3244526],[12.2781616,51.3243644],[12.278026700000002,51.32431750000001],[12.2779482,51.3244057]]]}},{"type":"Feature","properties":{"id":"182824802","version":"1","building":"yes","changeSetId":"0","timestamp":"1348563305000"},"geometry":{"type":"Polygon","coordinates":[[[12.2781394,51.3241578],[12.278277500000002,51.324211500000004],[12.278354700000001,51.324134],[12.2782166,51.324080300000006],[12.2781394,51.3241578]]]}},{"type":"Feature","properties":{"id":"182824803","version":"1","building":"yes","changeSetId":"0","timestamp":"1348563305000"},"geometry":{"type":"Polygon","coordinates":[[[12.277864300000001,51.324091900000006],[12.277984700000001,51.3241327],[12.2780853,51.324016900000004],[12.2779649,51.323976],[12.277864300000001,51.324091900000006]]]}},{"type":"Feature","properties":{"id":"182824804","version":"1","building":"yes","changeSetId":"0","timestamp":"1348563305000"},"geometry":{"type":"Polygon","coordinates":[[[12.277837600000002,51.324888800000004],[12.2779656,51.3249378],[12.2780412,51.3248551],[12.2779105,51.324803900000006],[12.277837600000002,51.324888800000004]]]}},{"type":"Feature","properties":{"id":"182824805","version":"1","building":"yes","changeSetId":"0","timestamp":"1348563305000"},"geometry":{"type":"Polygon","coordinates":[[[12.278035500000001,51.323908200000005],[12.2781786,51.3239594],[12.2782663,51.323863800000005],[12.278123200000001,51.3238125],[12.278035500000001,51.323908200000005]]]}},{"type":"Feature","properties":{"id":"182824806","version":"1","building":"yes","changeSetId":"0","timestamp":"1348563305000"},"geometry":{"type":"Polygon","coordinates":[[[12.2775441,51.324780000000004],[12.277715500000001,51.3248431],[12.2777969,51.324756900000004],[12.2776256,51.324693700000005],[12.2775441,51.324780000000004]]]}},{"type":"Feature","properties":{"id":"182824807","version":"1","building":"yes","changeSetId":"0","timestamp":"1348563305000"},"geometry":{"type":"Polygon","coordinates":[[[12.2782882,51.3240038],[12.2784405,51.324059500000004],[12.278516100000001,51.323978800000006],[12.2783637,51.3239231],[12.2782882,51.3240038]]]}},{"type":"Feature","properties":{"id":"182824808","version":"1","building":"yes","changeSetId":"0","timestamp":"1348563305000"},"geometry":{"type":"Polygon","coordinates":[[[12.277394200000002,51.3249372],[12.277552400000001,51.3249943],[12.2776311,51.324909000000005],[12.277472900000001,51.324851900000006],[12.277394200000002,51.3249372]]]}},{"type":"Feature","properties":{"id":"182824809","version":"1","building":"yes","changeSetId":"0","timestamp":"1348563305000"},"geometry":{"type":"Polygon","coordinates":[[[12.2784721,51.3238027],[12.278598700000002,51.3238506],[12.2786662,51.3237809],[12.278539700000001,51.323733000000004],[12.2784721,51.3238027]]]}},{"type":"Feature","properties":{"id":"182824810","version":"1","building":"yes","changeSetId":"0","timestamp":"1348563305000"},"geometry":{"type":"Polygon","coordinates":[[[12.277018,51.3252139],[12.2771168,51.32524900000001],[12.2771906,51.325168000000005],[12.2770918,51.3251329],[12.277018,51.3252139]]]}},{"type":"Feature","properties":{"id":"182824811","version":"1","building":"yes","changeSetId":"0","timestamp":"1348563305000"},"geometry":{"type":"Polygon","coordinates":[[[12.277490700000001,51.3244668],[12.277651700000002,51.3245261],[12.2777396,51.324432900000005],[12.2775786,51.3243736],[12.277490700000001,51.3244668]]]}},{"type":"Feature","properties":{"id":"182824812","version":"1","building":"yes","changeSetId":"0","timestamp":"1348563306000"},"geometry":{"type":"Polygon","coordinates":[[[12.2772754,51.3247032],[12.2774202,51.3247556],[12.277521100000001,51.3246467],[12.277376400000001,51.3245943],[12.2772754,51.3247032]]]}},{"type":"Feature","properties":{"id":"182824813","version":"1","building":"yes","changeSetId":"0","timestamp":"1348563306000"},"geometry":{"type":"Polygon","coordinates":[[[12.2787425,51.323913100000006],[12.278844000000001,51.323947100000005],[12.2789164,51.3238629],[12.2788149,51.3238288],[12.2787425,51.323913100000006]]]}},{"type":"Feature","properties":{"id":"182824814","version":"1","building":"yes","changeSetId":"0","timestamp":"1348563306000"},"geometry":{"type":"Polygon","coordinates":[[[12.2780038,51.3246375],[12.278169100000001,51.3247006],[12.278245100000001,51.3246229],[12.278079900000002,51.3245598],[12.2780038,51.3246375]]]}},{"type":"Feature","properties":{"id":"182824815","version":"1","building":"yes","changeSetId":"0","timestamp":"1348563306000"},"geometry":{"type":"Polygon","coordinates":[[[12.2775008,51.3252862],[12.2776104,51.3253258],[12.2776902,51.325239800000006],[12.2775806,51.3252001],[12.2775008,51.3252862]]]}},{"type":"Feature","properties":{"id":"182824816","version":"1","building":"yes","changeSetId":"0","timestamp":"1348563306000"},"geometry":{"type":"Polygon","coordinates":[[[12.2781575,51.324477400000006],[12.278267900000001,51.3245176],[12.2783388,51.3244417],[12.2782285,51.3244015],[12.2781575,51.324477400000006]]]}},{"type":"Feature","properties":{"id":"182824817","version":"1","building":"yes","changeSetId":"0","timestamp":"1348563306000"},"geometry":{"type":"Polygon","coordinates":[[[12.2777635,51.3245469],[12.277897300000001,51.324595900000006],[12.277970300000002,51.324517900000004],[12.277836500000001,51.324469],[12.2777635,51.3245469]]]}},{"type":"Feature","properties":{"id":"182824818","version":"1","building":"yes","changeSetId":"0","timestamp":"1348563306000"},"geometry":{"type":"Polygon","coordinates":[[[12.281447900000002,51.323049700000006],[12.281592100000001,51.323101300000005],[12.2816621,51.3230249],[12.2815179,51.3229733],[12.281447900000002,51.323049700000006]]]}},{"type":"Feature","properties":{"id":"182824819","version":"1","building":"yes","changeSetId":"0","timestamp":"1348563306000"},"geometry":{"type":"Polygon","coordinates":[[[12.278602800000002,51.324093500000004],[12.2787281,51.32413510000001],[12.278800100000002,51.324050400000004],[12.278674700000002,51.3240088],[12.278602800000002,51.324093500000004]]]}},{"type":"Feature","properties":{"id":"182824820","version":"1","building":"yes","changeSetId":"0","timestamp":"1348563306000"},"geometry":{"type":"Polygon","coordinates":[[[12.277663400000002,51.3242982],[12.2778144,51.324350800000005],[12.2778855,51.324271100000004],[12.2777344,51.3242185],[12.277663400000002,51.3242982]]]}},{"type":"Feature","properties":{"id":"182824821","version":"1","building":"yes","changeSetId":"0","timestamp":"1348563306000"},"geometry":{"type":"Polygon","coordinates":[[[12.277282000000001,51.325247100000006],[12.277397500000001,51.3252904],[12.277471400000001,51.325213500000004],[12.277356000000001,51.3251702],[12.277282000000001,51.325247100000006]]]}},{"type":"Feature","properties":{"id":"182824822","version":"1","building":"yes","changeSetId":"0","timestamp":"1348563307000"},"geometry":{"type":"Polygon","coordinates":[[[12.277667800000001,51.3250412],[12.2778302,51.3250989],[12.2779088,51.3250125],[12.277746400000002,51.3249548],[12.277667800000001,51.3250412]]]}},{"type":"Feature","properties":{"id":"182824823","version":"1","building":"yes","changeSetId":"0","timestamp":"1348563307000"},"geometry":{"type":"Polygon","coordinates":[[[12.2784224,51.324273500000004],[12.278551,51.324320900000004],[12.278633300000001,51.32423360000001],[12.278504700000001,51.3241862],[12.2784224,51.324273500000004]]]}},{"type":"Feature","properties":{"id":"187656479","version":"2","building":"yes","changeSetId":"0","timestamp":"1424040168000"},"geometry":{"type":"Polygon","coordinates":[[[12.3003996,51.3349502],[12.300464100000001,51.3349148],[12.300441200000002,51.3348985],[12.300376700000001,51.3349339],[12.3003879,51.334941900000004],[12.3003996,51.3349502]]]}},{"type":"Feature","properties":{"smoking":"no","id":"187656480","version":"6","building":"yes","changeSetId":"0","timestamp":"1407939715000"},"geometry":{"type":"Polygon","coordinates":[[[12.2992513,51.3356842],[12.299463800000002,51.335602],[12.2994044,51.3355423],[12.2993088,51.3355796],[12.2991921,51.3356246],[12.2992513,51.3356842]]]}},{"type":"Feature","properties":{"id":"190420759","version":"1","building":"yes","changeSetId":"0","timestamp":"1352722165000"},"geometry":{"type":"Polygon","coordinates":[[[12.282528300000001,51.3229994],[12.282641600000002,51.3230512],[12.2827202,51.322984000000005],[12.282606900000001,51.322932300000005],[12.282528300000001,51.3229994]]]}},{"type":"Feature","properties":{"id":"214650136","source":"Bing","version":"1","building":"yes","changeSetId":"0","timestamp":"1364808097000"},"geometry":{"type":"Polygon","coordinates":[[[12.3063579,51.329183300000004],[12.3062079,51.329100100000005],[12.305817800000002,51.3293747],[12.305967800000001,51.3294579],[12.3063579,51.329183300000004]]]}},{"type":"Feature","properties":{"id":"214650137","source":"Bing","version":"1","building":"yes","changeSetId":"0","timestamp":"1364808097000"},"geometry":{"type":"Polygon","coordinates":[[[12.304756900000001,51.3285216],[12.3046672,51.3285886],[12.304483600000001,51.328492600000004],[12.3045734,51.3284256],[12.304756900000001,51.3285216]]]}},{"type":"Feature","properties":{"id":"214650139","source":"Bing","version":"1","building":"yes","changeSetId":"0","timestamp":"1364808097000"},"geometry":{"type":"Polygon","coordinates":[[[12.306455000000001,51.328927300000004],[12.3064034,51.328896900000004],[12.3063398,51.328938900000004],[12.3063914,51.328969300000004],[12.306455000000001,51.328927300000004]]]}},{"type":"Feature","properties":{"id":"214650141","source":"Bing","version":"1","building":"yes","changeSetId":"0","timestamp":"1364808097000"},"geometry":{"type":"Polygon","coordinates":[[[12.304984600000001,51.3284874],[12.3050777,51.328422800000006],[12.3048482,51.3282937],[12.3047552,51.328358300000005],[12.304984600000001,51.3284874]]]}},{"type":"Feature","properties":{"id":"214650143","source":"Bing","version":"1","building":"yes","changeSetId":"0","timestamp":"1364808097000"},"geometry":{"type":"Polygon","coordinates":[[[12.3055936,51.3285756],[12.3056663,51.328527400000006],[12.305511000000001,51.3284359],[12.3054383,51.328484100000004],[12.3055936,51.3285756]]]}},{"type":"Feature","properties":{"id":"214650145","source":"Bing","version":"1","building":"yes","changeSetId":"0","timestamp":"1364808097000"},"geometry":{"type":"Polygon","coordinates":[[[12.305877800000001,51.3288601],[12.305757300000002,51.328943100000004],[12.305106,51.328573600000006],[12.305226500000002,51.3284907],[12.305877800000001,51.3288601]]]}},{"type":"Feature","properties":{"id":"214650147","source":"Bing","version":"1","building":"yes","changeSetId":"0","timestamp":"1364808097000"},"geometry":{"type":"Polygon","coordinates":[[[12.306650900000001,51.329122600000005],[12.3067349,51.3290671],[12.3064754,51.3289138],[12.306455000000001,51.328927300000004],[12.3063914,51.328969300000004],[12.306650900000001,51.329122600000005]]]}},{"type":"Feature","properties":{"id":"214651036","source":"Bing","version":"1","building":"yes","changeSetId":"0","timestamp":"1364808192000"},"geometry":{"type":"Polygon","coordinates":[[[12.308519400000002,51.328497500000005],[12.3084685,51.328549900000006],[12.3083162,51.32849220000001],[12.308367200000001,51.328439700000004],[12.308519400000002,51.328497500000005]]]}},{"type":"Feature","properties":{"addr:housenumber":"218b","addr:country":"DE","id":"214651037","source":"Bing","addr:street":"Lützner Straße","version":"2","addr:postcode":"04179","building":"yes","changeSetId":"0","timestamp":"1390830894000","addr:city":"Leipzig"},"geometry":{"type":"Polygon","coordinates":[[[12.3083921,51.3281512],[12.3083019,51.3282425],[12.3079824,51.328119300000004],[12.308072600000001,51.328028],[12.3083921,51.3281512]]]}},{"type":"Feature","properties":{"id":"214651039","source":"Bing","version":"1","building":"roof","changeSetId":"0","timestamp":"1364808192000"},"geometry":{"type":"Polygon","coordinates":[[[12.308842700000001,51.3285709],[12.3089875,51.328551000000004],[12.308999,51.3285837],[12.3091472,51.328563300000006],[12.309057800000001,51.328309700000005],[12.3089071,51.328330400000006],[12.308942400000001,51.3284304],[12.308800100000001,51.3284499],[12.308842700000001,51.3285709]]]}},{"type":"Feature","properties":{"roof:orientation":"along","roof:shape":"gabled","building:levels":"2","id":"230841171","version":"2","building":"residential","changeSetId":"0","timestamp":"1467875759000"},"geometry":{"type":"Polygon","coordinates":[[[12.2818245,51.323711100000004],[12.281940200000001,51.3237631],[12.2820424,51.3236745],[12.281926700000001,51.323622400000005],[12.2818245,51.323711100000004]]]}},{"type":"Feature","properties":{"id":"230841172","version":"2","building":"yes","changeSetId":"0","timestamp":"1420639991000"},"geometry":{"type":"Polygon","coordinates":[[[12.282052700000001,51.323522200000006],[12.282161400000001,51.3235729],[12.282194200000001,51.3235454],[12.2822125,51.323554],[12.282251400000002,51.3235213],[12.282233100000001,51.3235128],[12.2822651,51.323486],[12.2821706,51.323441900000006],[12.2821028,51.3234987],[12.282088600000002,51.3234921],[12.282052700000001,51.323522200000006]]]}},{"type":"Feature","properties":{"id":"230841255","version":"1","building":"yes","changeSetId":"0","timestamp":"1374496754000"},"geometry":{"type":"Polygon","coordinates":[[[12.284238,51.323206600000006],[12.2841249,51.3231526],[12.2842044,51.3230875],[12.2843175,51.323141500000006],[12.284238,51.323206600000006]]]}},{"type":"Feature","properties":{"id":"230841256","version":"1","building":"yes","changeSetId":"0","timestamp":"1374496754000"},"geometry":{"type":"Polygon","coordinates":[[[12.2831223,51.3232316],[12.2832529,51.323291600000005],[12.283356900000001,51.3232032],[12.2832263,51.323143200000004],[12.2831223,51.3232316]]]}},{"type":"Feature","properties":{"wheelchair":"yes","shop":"supermarket","name":"Lidl","id":"237806180","version":"2","building":"yes","changeSetId":"0","timestamp":"1422485310000"},"geometry":{"type":"Polygon","coordinates":[[[12.2885264,51.3245869],[12.2889727,51.3246613],[12.289092100000001,51.3243817],[12.2891653,51.324393900000004],[12.289243800000001,51.32420990000001],[12.288878500000001,51.324149000000006],[12.288817600000002,51.3241389],[12.2888009,51.324178100000005],[12.288707500000001,51.3241626],[12.2885264,51.3245869]]]}},{"type":"Feature","properties":{"id":"238034723","source":"Bing","version":"1","building":"yes","changeSetId":"0","timestamp":"1379233078000"},"geometry":{"type":"Polygon","coordinates":[[[12.301996200000001,51.3299803],[12.302043600000001,51.329966000000006],[12.3019884,51.3298945],[12.30142,51.3300661],[12.3014753,51.3301376],[12.3015775,51.3301067],[12.301589600000002,51.3301218],[12.3016357,51.330107500000004],[12.301623900000001,51.3300927],[12.301765600000001,51.330049900000006],[12.301778800000001,51.330066300000006],[12.301824900000002,51.330052],[12.301812,51.330035900000006],[12.301949800000001,51.3299943],[12.301963,51.330010800000004],[12.302009100000001,51.3299965],[12.301996200000001,51.3299803]]]}},{"type":"Feature","properties":{"id":"238034725","source":"Bing","version":"1","building":"yes","changeSetId":"0","timestamp":"1379233078000"},"geometry":{"type":"Polygon","coordinates":[[[12.299489300000001,51.3313235],[12.299621700000001,51.33138640000001],[12.2995066,51.331481000000004],[12.2993742,51.331418000000006],[12.299489300000001,51.3313235]]]}},{"type":"Feature","properties":{"id":"238034729","source":"Bing","version":"1","building":"yes","changeSetId":"0","timestamp":"1379233078000"},"geometry":{"type":"Polygon","coordinates":[[[12.2977424,51.332819900000004],[12.297537100000001,51.332703300000006],[12.297076500000001,51.3330198],[12.2972818,51.3331364],[12.2977424,51.332819900000004]]]}},{"type":"Feature","properties":{"id":"238034730","source":"Bing","version":"1","building":"yes","changeSetId":"0","timestamp":"1379233078000"},"geometry":{"type":"Polygon","coordinates":[[[12.3028717,51.3304248],[12.302801,51.3303316],[12.3024851,51.33042510000001],[12.302555900000002,51.3305184],[12.3028717,51.3304248]]]}},{"type":"Feature","properties":{"id":"238034732","source":"Bing","version":"1","building":"yes","changeSetId":"0","timestamp":"1379233078000"},"geometry":{"type":"Polygon","coordinates":[[[12.2989618,51.3309447],[12.298853600000001,51.331065300000006],[12.298638100000002,51.3309897],[12.2987464,51.3308692],[12.2989618,51.3309447]]]}},{"type":"Feature","properties":{"id":"238034734","source":"Bing","version":"1","building":"yes","changeSetId":"0","timestamp":"1379233078000"},"geometry":{"type":"Polygon","coordinates":[[[12.2977541,51.3370003],[12.2976825,51.3369167],[12.2978015,51.3368775],[12.297877000000002,51.3369591],[12.2977541,51.3370003]]]}},{"type":"Feature","properties":{"id":"238034736","source":"Bing","version":"1","building":"yes","changeSetId":"0","timestamp":"1379233078000"},"geometry":{"type":"Polygon","coordinates":[[[12.302302500000001,51.329650900000004],[12.3022156,51.3295405],[12.301904700000001,51.329636],[12.3019917,51.329746500000006],[12.302302500000001,51.329650900000004]]]}},{"type":"Feature","properties":{"id":"238034737","source":"Bing","version":"1","building":"yes","changeSetId":"0","timestamp":"1379233078000"},"geometry":{"type":"Polygon","coordinates":[[[12.3037451,51.330507100000005],[12.303653200000001,51.3304465],[12.30314,51.3307507],[12.3032319,51.3308113],[12.3037451,51.330507100000005]]]}},{"type":"Feature","properties":{"id":"238034739","source":"Bing","version":"2","building":"yes","changeSetId":"0","timestamp":"1447022785000"},"geometry":{"type":"Polygon","coordinates":[[[12.300660200000001,51.3306836],[12.3005475,51.330533],[12.2999752,51.3307002],[12.300087900000001,51.3308508],[12.300400600000001,51.330759400000005],[12.300472500000001,51.330857900000005],[12.300733200000002,51.330783600000004],[12.300660200000001,51.3306836]]]}},{"type":"Feature","properties":{"id":"238034741","source":"Bing","version":"1","building":"yes","changeSetId":"0","timestamp":"1379233079000"},"geometry":{"type":"Polygon","coordinates":[[[12.297104200000001,51.33194760000001],[12.2969375,51.3318607],[12.2966598,51.33206860000001],[12.2968265,51.332155500000006],[12.297104200000001,51.33194760000001]]]}},{"type":"Feature","properties":{"id":"238034743","source":"Bing","version":"1","building":"yes","changeSetId":"0","timestamp":"1379233079000"},"geometry":{"type":"Polygon","coordinates":[[[12.300937600000001,51.3312041],[12.301165500000002,51.331327800000004],[12.301052100000001,51.331409300000004],[12.3008243,51.3312855],[12.300937600000001,51.3312041]]]}},{"type":"Feature","properties":{"id":"238034744","source":"Bing","version":"1","building":"yes","changeSetId":"0","timestamp":"1379233079000"},"geometry":{"type":"Polygon","coordinates":[[[12.3000179,51.3321022],[12.2986187,51.3330946],[12.2983449,51.332943900000004],[12.299744100000002,51.3319514],[12.3000179,51.3321022]]]}},{"type":"Feature","properties":{"id":"238034746","source":"Bing","version":"1","building":"yes","changeSetId":"0","timestamp":"1379233079000"},"geometry":{"type":"Polygon","coordinates":[[[12.302687500000001,51.330192600000004],[12.3028101,51.330156200000005],[12.3025979,51.3298767],[12.302475300000001,51.329913000000005],[12.302687500000001,51.330192600000004]]]}},{"type":"Feature","properties":{"id":"238034748","source":"Bing","version":"1","building":"yes","changeSetId":"0","timestamp":"1379233079000"},"geometry":{"type":"Polygon","coordinates":[[[12.2984497,51.333208400000004],[12.2981797,51.333059000000006],[12.297722400000001,51.333381700000004],[12.2979924,51.3335311],[12.2984497,51.333208400000004]]]}},{"type":"Feature","properties":{"id":"238034750","source":"Bing","version":"1","building":"yes","changeSetId":"0","timestamp":"1379233079000"},"geometry":{"type":"Polygon","coordinates":[[[12.299205200000001,51.3305955],[12.2993679,51.3306709],[12.299257,51.330764300000006],[12.299094400000001,51.330688900000006],[12.299205200000001,51.3305955]]]}},{"type":"Feature","properties":{"id":"238034751","source":"Bing","version":"1","building":"yes","changeSetId":"0","timestamp":"1379233079000"},"geometry":{"type":"Polygon","coordinates":[[[12.300937600000001,51.3312041],[12.3008243,51.3312855],[12.3005923,51.331159500000005],[12.3007056,51.331078100000006],[12.300937600000001,51.3312041]]]}},{"type":"Feature","properties":{"id":"238034753","source":"Bing","version":"1","building":"yes","changeSetId":"0","timestamp":"1379233079000"},"geometry":{"type":"Polygon","coordinates":[[[12.2988788,51.3310745],[12.2988306,51.331104800000006],[12.2988966,51.331139300000004],[12.298949100000002,51.331100000000006],[12.2988788,51.3310745]]]}},{"type":"Feature","properties":{"id":"238034755","source":"Bing","version":"1","building":"yes","changeSetId":"0","timestamp":"1379233079000"},"geometry":{"type":"Polygon","coordinates":[[[12.2993599,51.3305257],[12.299305200000001,51.3304953],[12.299257500000001,51.3305287],[12.299312200000001,51.3305592],[12.2993599,51.3305257]]]}},{"type":"Feature","properties":{"id":"238034757","source":"Bing","version":"1","building":"yes","changeSetId":"0","timestamp":"1379233079000"},"geometry":{"type":"Polygon","coordinates":[[[12.2964794,51.332688000000005],[12.296544500000001,51.3326421],[12.2961638,51.3324312],[12.296098800000001,51.332477100000006],[12.2964794,51.332688000000005]]]}},{"type":"Feature","properties":{"id":"238034758","source":"Bing","version":"1","building":"yes","changeSetId":"0","timestamp":"1379233079000"},"geometry":{"type":"Polygon","coordinates":[[[12.2976503,51.3334447],[12.2975048,51.3335481],[12.2970146,51.3332789],[12.297160100000001,51.3331755],[12.2976503,51.3334447]]]}},{"type":"Feature","properties":{"id":"238034762","source":"Bing","version":"1","building":"yes","changeSetId":"0","timestamp":"1379233079000"},"geometry":{"type":"Polygon","coordinates":[[[12.296610800000002,51.3325052],[12.2967501,51.332405200000004],[12.296441300000001,51.3322372],[12.296302,51.332337100000004],[12.296610800000002,51.3325052]]]}},{"type":"Feature","properties":{"id":"238034764","source":"Bing","version":"1","building":"yes","changeSetId":"0","timestamp":"1379233079000"},"geometry":{"type":"Polygon","coordinates":[[[12.2982221,51.331614],[12.2981209,51.3315587],[12.2978337,51.3317636],[12.297934900000001,51.331819],[12.2982221,51.331614]]]}},{"type":"Feature","properties":{"id":"238034767","power":"substation","source":"Bing","version":"3","building":"yes","changeSetId":"0","timestamp":"1420876897000"},"geometry":{"type":"Polygon","coordinates":[[[12.302662600000001,51.3297048],[12.3026298,51.32965900000001],[12.302551900000001,51.329680800000006],[12.3025847,51.3297266],[12.302662600000001,51.3297048]]]}},{"type":"Feature","properties":{"id":"238034768","source":"Bing","version":"1","building":"yes","changeSetId":"0","timestamp":"1379233080000"},"geometry":{"type":"Polygon","coordinates":[[[12.2988446,51.330899300000006],[12.298755400000001,51.330857900000005],[12.2991159,51.3305541],[12.299205200000001,51.3305955],[12.299094400000001,51.330688900000006],[12.2988446,51.330899300000006]]]}},{"type":"Feature","properties":{"id":"238034772","source":"Bing","version":"1","building":"yes","changeSetId":"0","timestamp":"1379233080000"},"geometry":{"type":"Polygon","coordinates":[[[12.300186700000001,51.332049100000006],[12.3000708,51.3321313],[12.3000179,51.3321022],[12.299744100000002,51.3319514],[12.2990214,51.3315537],[12.2991373,51.331471500000006],[12.300186700000001,51.332049100000006]]]}},{"type":"Feature","properties":{"id":"238034774","source":"Bing","version":"1","building":"yes","changeSetId":"0","timestamp":"1379233080000"},"geometry":{"type":"Polygon","coordinates":[[[12.3012245,51.3302308],[12.301213200000001,51.3302167],[12.301287400000001,51.3301943],[12.301232200000001,51.330122900000006],[12.301042,51.3301803],[12.3010973,51.330251700000005],[12.3011669,51.3302307],[12.301178400000001,51.3302452],[12.3012245,51.3302308]]]}},{"type":"Feature","properties":{"id":"238034776","source":"Bing","version":"1","building":"yes","changeSetId":"0","timestamp":"1379233080000"},"geometry":{"type":"Polygon","coordinates":[[[12.301042,51.3301803],[12.300854000000001,51.330237100000005],[12.3009093,51.3303085],[12.300976100000002,51.33028830000001],[12.3009883,51.3303036],[12.301034300000001,51.3302892],[12.3010225,51.330274300000006],[12.3010973,51.330251700000005],[12.301042,51.3301803]]]}},{"type":"Feature","properties":{"id":"238034778","source":"Bing","version":"1","building":"yes","changeSetId":"0","timestamp":"1379233080000"},"geometry":{"type":"Polygon","coordinates":[[[12.301412000000001,51.330173200000004],[12.3014013,51.330159900000005],[12.3014753,51.3301376],[12.30142,51.3300661],[12.301232200000001,51.330122900000006],[12.301287400000001,51.3301943],[12.301355000000001,51.330173900000005],[12.3013659,51.3301876],[12.301412000000001,51.330173200000004]]]}},{"type":"Feature","properties":{"id":"239284943","version":"1","building":"yes","changeSetId":"0","timestamp":"1380098294000"},"geometry":{"type":"Polygon","coordinates":[[[12.288917600000001,51.324790300000004],[12.2889727,51.3246613],[12.289557,51.324758700000004],[12.289502,51.324887700000005],[12.288917600000001,51.324790300000004]]]}},{"type":"Feature","properties":{"id":"239284950","version":"1","building":"yes","changeSetId":"0","timestamp":"1380098295000"},"geometry":{"type":"Polygon","coordinates":[[[12.2894872,51.325318800000005],[12.289385300000001,51.325251900000005],[12.289715300000001,51.3250558],[12.2898172,51.3251227],[12.2894872,51.325318800000005]]]}},{"type":"Feature","properties":{"id":"239284951","version":"2","building":"yes","changeSetId":"0","timestamp":"1470382994000"},"geometry":{"type":"Polygon","coordinates":[[[12.289060000000001,51.325492100000005],[12.2889987,51.3254474],[12.288844800000001,51.325335100000004],[12.288757200000001,51.325271300000004],[12.288868800000001,51.3252115],[12.289171600000001,51.325432400000004],[12.289060000000001,51.325492100000005]]]}},{"type":"Feature","properties":{"id":"239286192","version":"2","leisure":"sports_centre","building":"yes","changeSetId":"0","timestamp":"1422627968000"},"geometry":{"type":"Polygon","coordinates":[[[12.2862866,51.3265862],[12.286579600000001,51.326396200000005],[12.2870871,51.3267018],[12.286896100000002,51.3268257],[12.28677,51.3267498],[12.286668200000001,51.3268159],[12.2862866,51.3265862]]]}},{"type":"Feature","properties":{"id":"240253918","version":"1","building":"yes","changeSetId":"0","timestamp":"1380711807000"},"geometry":{"type":"Polygon","coordinates":[[[12.282811,51.3230956],[12.2829283,51.323156000000004],[12.2830344,51.3230754],[12.2829171,51.323015100000006],[12.282811,51.3230956]]]}},{"type":"Feature","properties":{"id":"240253919","version":"1","building":"yes","changeSetId":"0","timestamp":"1380711807000"},"geometry":{"type":"Polygon","coordinates":[[[12.2833962,51.323337900000006],[12.2834949,51.3232511],[12.2836371,51.323314100000005],[12.283538400000001,51.323401000000004],[12.2833962,51.323337900000006]]]}},{"type":"Feature","properties":{"addr:housenumber":"1","id":"244829916","addr:street":"Schönauer Ring","version":"3","building":"yes","changeSetId":"0","timestamp":"1384641260000"},"geometry":{"type":"Polygon","coordinates":[[[12.2883128,51.328220400000006],[12.28861,51.32827],[12.2886754,51.3281171],[12.288714500000001,51.328123600000005],[12.2887822,51.3279653],[12.2884954,51.327917400000004],[12.288431300000001,51.3280674],[12.288381800000002,51.328059100000004],[12.288374000000001,51.328077400000005],[12.2883128,51.328220400000006]]]}},{"type":"Feature","properties":{"official_name":"Freiwillige Feuerwehr Leipzig - Grünau","website":"http://www.feuerwehr-gruenau.de.gg/","amenity":"fire_station","addr:country":"DE","version":"3","addr:postcode":"04205","building":"yes","addr:city":"Leipzig","addr:housenumber":"35","name":"Freiwillige Feuerwehr Grünau","id":"245958235","addr:street":"Garskestraße","changeSetId":"0","timestamp":"1446247473000"},"geometry":{"type":"Polygon","coordinates":[[[12.291349400000001,51.3252212],[12.2911414,51.3251969],[12.2912084,51.3249725],[12.291155100000001,51.3249663],[12.2912271,51.3247251],[12.291488500000002,51.3247556],[12.291416400000001,51.3249968],[12.291349400000001,51.3252212]]]}},{"type":"Feature","properties":{"id":"253985926","version":"1","building":"yes","changeSetId":"0","timestamp":"1388236986000"},"geometry":{"type":"Polygon","coordinates":[[[12.3017462,51.3350961],[12.301821400000001,51.3350208],[12.301886000000001,51.3350463],[12.302131900000001,51.3348129],[12.302230300000002,51.334752],[12.302059900000001,51.3346449],[12.3020058,51.334616800000006],[12.3018181,51.3347885],[12.3017344,51.334884],[12.3016748,51.3349562],[12.301614800000001,51.3350407],[12.3017462,51.3350961]]]}},{"type":"Feature","properties":{"id":"253985935","source":"Bing","version":"1","building":"yes","changeSetId":"0","timestamp":"1388236987000"},"geometry":{"type":"Polygon","coordinates":[[[12.3021136,51.3334108],[12.3019327,51.3333087],[12.3022185,51.3331109],[12.3023994,51.333213],[12.3021136,51.3334108]]]}},{"type":"Feature","properties":{"id":"253985940","source":"Bing","version":"1","building":"yes","changeSetId":"0","timestamp":"1388236987000"},"geometry":{"type":"Polygon","coordinates":[[[12.300025600000001,51.335120100000005],[12.3000118,51.335109200000005],[12.2999281,51.3351508],[12.2999419,51.3351617],[12.300025600000001,51.335120100000005]]]}},{"type":"Feature","properties":{"id":"253985941","source":"Bing","version":"1","building":"yes","changeSetId":"0","timestamp":"1388236987000"},"geometry":{"type":"Polygon","coordinates":[[[12.298287700000001,51.336520300000004],[12.2982303,51.336539300000005],[12.2982729,51.3365896],[12.298330400000001,51.3365706],[12.298287700000001,51.336520300000004]]]}},{"type":"Feature","properties":{"id":"253985945","source":"Bing","version":"1","building":"yes","changeSetId":"0","timestamp":"1388236987000"},"geometry":{"type":"Polygon","coordinates":[[[12.2975045,51.336206700000005],[12.2975656,51.3361637],[12.297398800000002,51.3360713],[12.2973377,51.336114300000006],[12.2975045,51.336206700000005]]]}},{"type":"Feature","properties":{"id":"253985949","source":"Bing","version":"1","building":"yes","changeSetId":"0","timestamp":"1388236988000"},"geometry":{"type":"Polygon","coordinates":[[[12.301427200000001,51.335407700000005],[12.3014469,51.335365700000004],[12.301538200000001,51.335382300000006],[12.301518600000001,51.3354243],[12.301427200000001,51.335407700000005]]]}},{"type":"Feature","properties":{"id":"253985951","source":"Bing","version":"1","building":"yes","changeSetId":"0","timestamp":"1388236988000"},"geometry":{"type":"Polygon","coordinates":[[[12.3002929,51.3348718],[12.3003999,51.334796700000005],[12.300229900000001,51.334702],[12.3001228,51.334777100000004],[12.3002929,51.3348718]]]}},{"type":"Feature","properties":{"id":"253985953","source":"Bing","version":"1","building":"yes","changeSetId":"0","timestamp":"1388236988000"},"geometry":{"type":"Polygon","coordinates":[[[12.3044667,51.3339221],[12.3043799,51.333859800000006],[12.304151200000002,51.3339842],[12.304238000000002,51.33404650000001],[12.3044667,51.3339221]]]}},{"type":"Feature","properties":{"id":"253985955","source":"Bing","version":"1","building":"roof","changeSetId":"0","timestamp":"1388236988000"},"geometry":{"type":"Polygon","coordinates":[[[12.298287700000001,51.336520300000004],[12.298251800000001,51.336477900000006],[12.298343500000001,51.33644760000001],[12.298379500000001,51.336489900000004],[12.298287700000001,51.336520300000004]]]}},{"type":"Feature","properties":{"id":"253985959","source":"Bing","version":"1","building":"yes","changeSetId":"0","timestamp":"1388236988000"},"geometry":{"type":"Polygon","coordinates":[[[12.300764800000001,51.3353164],[12.3005358,51.335441900000006],[12.3004677,51.3353934],[12.300696700000001,51.335267800000004],[12.300764800000001,51.3353164]]]}},{"type":"Feature","properties":{"id":"253985961","source":"Bing","version":"1","building":"yes","changeSetId":"0","timestamp":"1388236988000"},"geometry":{"type":"Polygon","coordinates":[[[12.302273300000001,51.333680300000005],[12.3021071,51.333587900000005],[12.3028347,51.33307730000001],[12.3030009,51.3331698],[12.302273300000001,51.333680300000005]]]}},{"type":"Feature","properties":{"id":"253985963","source":"Bing","version":"1","building":"yes","changeSetId":"0","timestamp":"1388236989000"},"geometry":{"type":"Polygon","coordinates":[[[12.3097344,51.329796400000006],[12.309823000000002,51.3297047],[12.309729200000001,51.3296694],[12.309640700000001,51.329761100000006],[12.3097344,51.329796400000006]]]}},{"type":"Feature","properties":{"id":"253985964","source":"Bing","version":"1","building":"yes","changeSetId":"0","timestamp":"1388236989000"},"geometry":{"type":"Polygon","coordinates":[[[12.3002131,51.3350232],[12.300193400000001,51.335008900000005],[12.3000906,51.335064200000005],[12.3001103,51.3350785],[12.3002131,51.3350232]]]}},{"type":"Feature","properties":{"id":"253985969","source":"Bing","version":"1","building":"yes","changeSetId":"0","timestamp":"1388236989000"},"geometry":{"type":"Polygon","coordinates":[[[12.2974049,51.336269800000004],[12.2973414,51.336313700000005],[12.2971733,51.3362187],[12.2972368,51.3361748],[12.2974049,51.336269800000004]]]}},{"type":"Feature","properties":{"id":"253985973","source":"Bing","version":"1","building":"yes","changeSetId":"0","timestamp":"1388236989000"},"geometry":{"type":"Polygon","coordinates":[[[12.301805600000002,51.335389600000006],[12.301760900000001,51.335412600000005],[12.3016854,51.335355500000006],[12.3017301,51.335332400000006],[12.301805600000002,51.335389600000006]]]}},{"type":"Feature","properties":{"id":"253985977","source":"Bing","version":"1","building":"yes","changeSetId":"0","timestamp":"1388236990000"},"geometry":{"type":"Polygon","coordinates":[[[12.3008208,51.333903600000006],[12.3008951,51.333853100000006],[12.301224300000001,51.334042100000005],[12.301150000000002,51.334092600000005],[12.3008208,51.333903600000006]]]}},{"type":"Feature","properties":{"id":"253985978","source":"Bing","version":"1","building":"yes","changeSetId":"0","timestamp":"1388236990000"},"geometry":{"type":"Polygon","coordinates":[[[12.3015866,51.3352787],[12.3016299,51.3352865],[12.301610100000001,51.3353363],[12.301563600000001,51.3353278],[12.3015866,51.3352787]]]}},{"type":"Feature","properties":{"id":"253985980","source":"Bing","version":"1","building":"yes","changeSetId":"0","timestamp":"1388236990000"},"geometry":{"type":"Polygon","coordinates":[[[12.3019257,51.335321500000006],[12.3018636,51.335356100000006],[12.301761800000001,51.335284800000004],[12.3018239,51.335250200000004],[12.3019257,51.335321500000006]]]}},{"type":"Feature","properties":{"id":"253985983","source":"Bing","version":"1","building":"yes","changeSetId":"0","timestamp":"1388236990000"},"geometry":{"type":"Polygon","coordinates":[[[12.303229400000001,51.3346066],[12.3031345,51.3346627],[12.303074800000001,51.334623300000004],[12.303111000000001,51.3345284],[12.303229400000001,51.3346066]]]}},{"type":"Feature","properties":{"id":"253985984","source":"Bing","version":"1","building":"roof","changeSetId":"0","timestamp":"1388236990000"},"geometry":{"type":"Polygon","coordinates":[[[12.2974937,51.3362345],[12.2974478,51.3362684],[12.297535300000002,51.3363146],[12.297581200000002,51.3362807],[12.2974937,51.3362345]]]}},{"type":"Feature","properties":{"id":"253985985","source":"Bing","version":"1","building":"yes","changeSetId":"0","timestamp":"1388236990000"},"geometry":{"type":"Polygon","coordinates":[[[12.3033642,51.3342718],[12.3034382,51.334236800000006],[12.3033204,51.334139300000004],[12.303294000000001,51.33421370000001],[12.3033642,51.3342718]]]}},{"type":"Feature","properties":{"id":"253985989","source":"Bing","version":"1","building":"yes","changeSetId":"0","timestamp":"1388236990000"},"geometry":{"type":"Polygon","coordinates":[[[12.298798900000001,51.336752800000006],[12.2987552,51.336699700000004],[12.298481800000001,51.3367877],[12.2985255,51.3368407],[12.298798900000001,51.336752800000006]]]}},{"type":"Feature","properties":{"id":"253985990","source":"Bing","version":"1","building":"yes","changeSetId":"0","timestamp":"1388236990000"},"geometry":{"type":"Polygon","coordinates":[[[12.309443600000002,51.3301688],[12.309625100000002,51.3299834],[12.3094762,51.329926500000006],[12.3092947,51.330111900000006],[12.309443600000002,51.3301688]]]}},{"type":"Feature","properties":{"id":"253985992","source":"Bing","version":"1","building":"yes","changeSetId":"0","timestamp":"1388236991000"},"geometry":{"type":"Polygon","coordinates":[[[12.3091194,51.3304679],[12.3091437,51.3304771],[12.309243200000001,51.330515500000004],[12.3091276,51.330632900000005],[12.309003800000001,51.3305853],[12.3091194,51.3304679]]]}},{"type":"Feature","properties":{"id":"253985998","source":"Bing","version":"1","building":"yes","changeSetId":"0","timestamp":"1388236991000"},"geometry":{"type":"Polygon","coordinates":[[[12.301538200000001,51.335382300000006],[12.301563600000001,51.3353278],[12.3015866,51.3352787],[12.301495300000001,51.335262],[12.3014469,51.335365700000004],[12.301538200000001,51.335382300000006]]]}},{"type":"Feature","properties":{"id":"253986001","source":"Bing","version":"1","building":"yes","changeSetId":"0","timestamp":"1388236991000"},"geometry":{"type":"Polygon","coordinates":[[[12.3095666,51.3298378],[12.3096853,51.329882600000005],[12.3097594,51.329805900000004],[12.3097344,51.329796400000006],[12.309640700000001,51.329761100000006],[12.3095666,51.3298378]]]}},{"type":"Feature","properties":{"id":"253986007","source":"Bing","version":"1","building":"yes","changeSetId":"0","timestamp":"1388236991000"},"geometry":{"type":"Polygon","coordinates":[[[12.2985357,51.3365701],[12.298630500000002,51.3366813],[12.299116900000001,51.3365202],[12.299023,51.336409100000004],[12.298659500000001,51.336528900000005],[12.2985357,51.3365701]]]}},{"type":"Feature","properties":{"id":"253986011","source":"Bing","version":"1","building":"yes","changeSetId":"0","timestamp":"1388236992000"},"geometry":{"type":"Polygon","coordinates":[[[12.2999372,51.334874000000006],[12.299981800000001,51.3349842],[12.3000732,51.3349698],[12.3000553,51.334925500000004],[12.300125600000001,51.3349144],[12.3000989,51.3348485],[12.2999372,51.334874000000006]]]}},{"type":"Feature","properties":{"id":"253986013","source":"Bing","version":"1","building":"yes","changeSetId":"0","timestamp":"1388236992000"},"geometry":{"type":"Polygon","coordinates":[[[12.3014253,51.335590800000006],[12.301611800000002,51.3354945],[12.3015319,51.3354541],[12.3014653,51.3354945],[12.301518600000001,51.3354243],[12.301427200000001,51.335407700000005],[12.3013911,51.3355717],[12.3014253,51.335590800000006]]]}},{"type":"Feature","properties":{"id":"253986014","source":"Bing","version":"1","building":"yes","changeSetId":"0","timestamp":"1388236992000"},"geometry":{"type":"Polygon","coordinates":[[[12.3015866,51.3352787],[12.3016299,51.3352865],[12.301654800000001,51.335233300000006],[12.3017359,51.335186900000004],[12.301587300000001,51.335079500000006],[12.301537000000001,51.3351726],[12.301495300000001,51.335262],[12.3015866,51.3352787]]]}},{"type":"Feature","properties":{"id":"270843403","version":"1","building":"garages","changeSetId":"0","timestamp":"1396349864000"},"geometry":{"type":"Polygon","coordinates":[[[12.2812853,51.3265776],[12.280826600000001,51.326296000000006],[12.2813014,51.3258518],[12.281215600000001,51.3258099],[12.2806791,51.326297700000005],[12.281215600000001,51.3266245],[12.2812853,51.3265776]]]}},{"type":"Feature","properties":{"id":"270843404","version":"1","building":"garages","changeSetId":"0","timestamp":"1396349864000"},"geometry":{"type":"Polygon","coordinates":[[[12.281749300000001,51.3262793],[12.2818752,51.3261971],[12.281435400000001,51.3259339],[12.2813095,51.326016100000004],[12.281749300000001,51.3262793]]]}},{"type":"Feature","properties":{"id":"270843405","version":"1","building":"garages","changeSetId":"0","timestamp":"1396349864000"},"geometry":{"type":"Polygon","coordinates":[[[12.281376600000002,51.3265242],[12.2815021,51.326441800000005],[12.281089600000001,51.326196700000004],[12.2809641,51.3262792],[12.281376600000002,51.3265242]]]}},{"type":"Feature","properties":{"id":"270843406","version":"1","building":"garages","changeSetId":"0","timestamp":"1396349864000"},"geometry":{"type":"Polygon","coordinates":[[[12.2819424,51.326155],[12.2820674,51.326073],[12.281408800000001,51.325681],[12.2812838,51.325763],[12.2819424,51.326155]]]}},{"type":"Feature","properties":{"id":"270843407","version":"1","building":"garages","changeSetId":"0","timestamp":"1396349864000"},"geometry":{"type":"Polygon","coordinates":[[[12.2815615,51.326402300000005],[12.2816877,51.3263194],[12.2812774,51.3260756],[12.2811511,51.32615860000001],[12.2815615,51.326402300000005]]]}},{"type":"Feature","properties":{"smoking":"no","id":"283404744","version":"2","building":"yes","changeSetId":"0","timestamp":"1407939715000"},"geometry":{"type":"Polygon","coordinates":[[[12.2992842,51.33555500000001],[12.2993798,51.3355176],[12.2994044,51.3355423],[12.2993088,51.3355796],[12.2992842,51.33555500000001]]]}},{"type":"Feature","properties":{"id":"292867979","version":"1","building":"residential","changeSetId":"0","timestamp":"1405424894000"},"geometry":{"type":"Polygon","coordinates":[[[12.283744800000001,51.323440500000004],[12.283884400000002,51.3234957],[12.2839811,51.3234002],[12.283841500000001,51.323345],[12.283744800000001,51.323440500000004]]]}},{"type":"Feature","properties":{"id":"293036389","version":"1","building":"residential","changeSetId":"0","timestamp":"1405514036000"},"geometry":{"type":"Polygon","coordinates":[[[12.2771533,51.3248782],[12.277281,51.324922300000004],[12.2773546,51.324839000000004],[12.2772269,51.324795],[12.2771533,51.3248782]]]}},{"type":"Feature","properties":{"id":"293036390","version":"1","building":"residential","changeSetId":"0","timestamp":"1405514036000"},"geometry":{"type":"Polygon","coordinates":[[[12.2767963,51.325174100000005],[12.2769182,51.3252146],[12.2769844,51.325136900000004],[12.2768625,51.32509640000001],[12.2767963,51.325174100000005]]]}},{"type":"Feature","properties":{"id":"293036391","version":"1","building":"residential","changeSetId":"0","timestamp":"1405514036000"},"geometry":{"type":"Polygon","coordinates":[[[12.280802900000001,51.3246825],[12.2809469,51.324741],[12.2810328,51.324658400000004],[12.2808889,51.3245999],[12.280802900000001,51.3246825]]]}},{"type":"Feature","properties":{"id":"293036392","version":"1","building":"residential","changeSetId":"0","timestamp":"1405514036000"},"geometry":{"type":"Polygon","coordinates":[[[12.2791049,51.3240561],[12.2792337,51.3240995],[12.2793089,51.3240125],[12.279180100000001,51.323969000000005],[12.2791049,51.3240561]]]}},{"type":"Feature","properties":{"id":"293036393","version":"1","building":"residential","changeSetId":"0","timestamp":"1405514036000"},"geometry":{"type":"Polygon","coordinates":[[[12.2794168,51.324146400000004],[12.2794903,51.324072900000004],[12.279629700000001,51.3241274],[12.2795562,51.3242009],[12.2794168,51.324146400000004]]]}},{"type":"Feature","properties":{"addr:housenumber":"17","roof:orientation":"across","roof:shape":"gabled","building:levels":"2","id":"320806644","addr:street":"Suhler Straße","version":"4","addr:postcode":"04205","building":"terrace","changeSetId":"0","timestamp":"1467796002000","addr:city":"Leipzig"},"geometry":{"type":"Polygon","coordinates":[[[12.2808685,51.324360500000004],[12.280792600000002,51.324333],[12.2808586,51.3242619],[12.2809345,51.324289400000005],[12.2808685,51.324360500000004]]]}},{"type":"Feature","properties":{"addr:housenumber":"9","roof:orientation":"across","roof:shape":"gabled","building:levels":"2","id":"320806647","addr:street":"Suhler Straße","version":"4","addr:postcode":"04205","building":"terrace","changeSetId":"0","timestamp":"1467803959000","addr:city":"Leipzig"},"geometry":{"type":"Polygon","coordinates":[[[12.281255300000002,51.3245008],[12.281181,51.324474],[12.281245700000001,51.324403700000005],[12.281320000000001,51.324430500000005],[12.281255300000002,51.3245008]]]}},{"type":"Feature","properties":{"addr:housenumber":"13","roof:orientation":"across","roof:shape":"gabled","building:levels":"2","id":"320806648","addr:street":"Suhler Straße","version":"4","addr:postcode":"04205","building":"terrace","changeSetId":"0","timestamp":"1467796002000","addr:city":"Leipzig"},"geometry":{"type":"Polygon","coordinates":[[[12.2810202,51.3244155],[12.280944300000002,51.324388000000006],[12.2810103,51.32431690000001],[12.2810862,51.3243444],[12.2810202,51.3244155]]]}},{"type":"Feature","properties":{"addr:housenumber":"5","roof:orientation":"across","roof:shape":"gabled","building:levels":"2","id":"320806649","addr:street":"Suhler Straße","version":"4","addr:postcode":"04205","building":"terrace","changeSetId":"0","timestamp":"1467803960000","addr:city":"Leipzig"},"geometry":{"type":"Polygon","coordinates":[[[12.2814039,51.324554400000004],[12.281329600000001,51.3245276],[12.2813943,51.324457300000006],[12.2814686,51.32448410000001],[12.2814039,51.324554400000004]]]}},{"type":"Feature","properties":{"addr:housenumber":"19","roof:orientation":"across","roof:shape":"gabled","building:levels":"2","id":"320806650","addr:street":"Suhler Straße","version":"4","addr:postcode":"04205","building":"terrace","changeSetId":"0","timestamp":"1467796002000","addr:city":"Leipzig"},"geometry":{"type":"Polygon","coordinates":[[[12.280792600000002,51.324333],[12.2807168,51.3243055],[12.2807828,51.3242344],[12.2808586,51.3242619],[12.280792600000002,51.324333]]]}},{"type":"Feature","properties":{"addr:housenumber":"15","roof:orientation":"across","roof:shape":"gabled","building:levels":"2","id":"320806651","addr:street":"Suhler Straße","version":"5","addr:postcode":"04205","building":"terrace","changeSetId":"0","timestamp":"1467803959000","addr:city":"Leipzig"},"geometry":{"type":"Polygon","coordinates":[[[12.280944300000002,51.324388000000006],[12.2808685,51.324360500000004],[12.2809345,51.324289400000005],[12.2810103,51.32431690000001],[12.280944300000002,51.324388000000006]]]}},{"type":"Feature","properties":{"addr:housenumber":"7","roof:orientation":"across","roof:shape":"gabled","building:levels":"2","id":"320806652","addr:street":"Suhler Straße","version":"4","addr:postcode":"04205","building":"terrace","changeSetId":"0","timestamp":"1467803959000","addr:city":"Leipzig"},"geometry":{"type":"Polygon","coordinates":[[[12.281329600000001,51.3245276],[12.281255300000002,51.3245008],[12.281320000000001,51.324430500000005],[12.2813943,51.324457300000006],[12.281329600000001,51.3245276]]]}},{"type":"Feature","properties":{"addr:housenumber":"3","roof:orientation":"across","roof:shape":"gabled","building:levels":"2","id":"320806654","addr:street":"Suhler Straße","version":"4","addr:postcode":"04205","building":"terrace","changeSetId":"0","timestamp":"1467803960000","addr:city":"Leipzig"},"geometry":{"type":"Polygon","coordinates":[[[12.281478100000001,51.324581200000004],[12.2814039,51.324554400000004],[12.2814686,51.32448410000001],[12.281542900000002,51.324510800000006],[12.281478100000001,51.324581200000004]]]}},{"type":"Feature","properties":{"fixme":"Gaststätte? Öffnungszeiten?","id":"320808767","version":"2","building":"yes","changeSetId":"0","timestamp":"1461380970000"},"geometry":{"type":"Polygon","coordinates":[[[12.2918009,51.334704900000006],[12.2919482,51.3346931],[12.2919175,51.3345435],[12.2917702,51.334555300000005],[12.2918009,51.334704900000006]]]}},{"type":"Feature","properties":{"id":"325094394","version":"1","building":"yes","changeSetId":"0","timestamp":"1422485305000"},"geometry":{"type":"Polygon","coordinates":[[[12.2850085,51.32464220000001],[12.2861329,51.325318900000006],[12.2862649,51.32523320000001],[12.2861948,51.325191000000004],[12.285997400000001,51.3250723],[12.2858119,51.324960600000004],[12.2856193,51.3248447],[12.285439100000001,51.324736200000004],[12.285246800000001,51.3246205],[12.285140400000001,51.3245565],[12.285042,51.3246204],[12.2850085,51.32464220000001]]]}},{"type":"Feature","properties":{"id":"325094395","version":"1","building":"yes","changeSetId":"0","timestamp":"1422485305000"},"geometry":{"type":"Polygon","coordinates":[[[12.2873902,51.325194],[12.287517600000001,51.3252706],[12.287560000000001,51.3252235],[12.2873902,51.325194]]]}},{"type":"Feature","properties":{"id":"325094396","version":"1","building":"yes","changeSetId":"0","timestamp":"1422485305000"},"geometry":{"type":"Polygon","coordinates":[[[12.2869454,51.325523600000004],[12.286821100000001,51.3256044],[12.286298200000001,51.325290200000005],[12.2864225,51.325209400000006],[12.2865347,51.325276900000006],[12.286723700000001,51.3253904],[12.2868788,51.325483600000005],[12.286913100000001,51.325504200000005],[12.2869454,51.325523600000004]]]}},{"type":"Feature","properties":{"id":"325094397","version":"1","building":"yes","changeSetId":"0","timestamp":"1422485305000"},"geometry":{"type":"Polygon","coordinates":[[[12.286913100000001,51.325504200000005],[12.2869776,51.325462200000004],[12.287091100000001,51.3253884],[12.2872196,51.325304900000006],[12.287344500000001,51.3252237],[12.2873902,51.325194],[12.287517600000001,51.3252706],[12.287040500000002,51.3255807],[12.2869454,51.325523600000004],[12.286913100000001,51.325504200000005]]]}},{"type":"Feature","properties":{"id":"325158563","version":"1","building":"yes","changeSetId":"0","timestamp":"1422523020000"},"geometry":{"type":"Polygon","coordinates":[[[12.2868983,51.323638200000005],[12.286811700000001,51.3236405],[12.286865,51.3237491],[12.2868983,51.323638200000005]]]}},{"type":"Feature","properties":{"id":"325158564","version":"1","building":"yes","changeSetId":"0","timestamp":"1422523021000"},"geometry":{"type":"Polygon","coordinates":[[[12.286111700000001,51.3238934],[12.286058500000001,51.323785300000004],[12.285982800000001,51.323818100000004],[12.286111700000001,51.3238934]]]}},{"type":"Feature","properties":{"id":"325158565","version":"2","building":"yes","changeSetId":"0","timestamp":"1422563341000"},"geometry":{"type":"Polygon","coordinates":[[[12.286111700000001,51.3238934],[12.286865,51.3237491],[12.286811700000001,51.3236405],[12.2867025,51.3236615],[12.2864558,51.3237089],[12.2862103,51.323756100000004],[12.286058500000001,51.323785300000004],[12.286111700000001,51.3238934]]]}},{"type":"Feature","properties":{"id":"325158566","version":"3","building":"yes","changeSetId":"0","timestamp":"1422608529000"},"geometry":{"type":"Polygon","coordinates":[[[12.2860838,51.3246145],[12.2861422,51.3246247],[12.2863208,51.324656100000006],[12.2864897,51.324682200000005],[12.2866516,51.3247099],[12.2867525,51.3247269],[12.2868002,51.324615900000005],[12.2861319,51.324503400000005],[12.2860838,51.3246145]]]}},{"type":"Feature","properties":{"id":"325158567","version":"2","building":"yes","changeSetId":"0","timestamp":"1422563341000"},"geometry":{"type":"Polygon","coordinates":[[[12.2861319,51.324503400000005],[12.2856409,51.3242077],[12.2856076,51.3241876],[12.2854837,51.3242679],[12.285560700000001,51.324314300000005],[12.285748600000002,51.324427400000005],[12.2859306,51.32453700000001],[12.2860081,51.324583700000005],[12.2861319,51.324503400000005]]]}},{"type":"Feature","properties":{"id":"325158568","version":"2","building":"yes","changeSetId":"0","timestamp":"1422563341000"},"geometry":{"type":"Polygon","coordinates":[[[12.2856409,51.3242077],[12.286111700000001,51.3238934],[12.285982800000001,51.323818100000004],[12.2859406,51.323846200000006],[12.285822600000001,51.323925],[12.2856991,51.3240075],[12.285593500000001,51.324077900000006],[12.2855124,51.3241321],[12.2856076,51.3241876],[12.2856409,51.3242077]]]}},{"type":"Feature","properties":{"id":"325370813","version":"1","building":"yes","changeSetId":"0","timestamp":"1422608528000"},"geometry":{"type":"Polygon","coordinates":[[[12.2860081,51.324583700000005],[12.2860838,51.3246145],[12.2861319,51.324503400000005],[12.2860081,51.324583700000005]]]}},{"type":"Feature","properties":{"id":"325417567","version":"1","building":"yes","changeSetId":"0","timestamp":"1422627967000"},"geometry":{"type":"Polygon","coordinates":[[[12.2884995,51.327407],[12.288403800000001,51.32733330000001],[12.288549600000001,51.3272594],[12.2885112,51.327229800000005],[12.288611600000001,51.3271789],[12.288745700000002,51.327282100000005],[12.2884995,51.327407]]]}},{"type":"Feature","properties":{"id":"325418154","version":"1","building":"yes","changeSetId":"0","timestamp":"1422628215000"},"geometry":{"type":"Polygon","coordinates":[[[12.286069300000001,51.328141800000004],[12.2861153,51.3280961],[12.2861475,51.328115600000004],[12.2862372,51.328170400000005],[12.286069300000001,51.328141800000004]]]}},{"type":"Feature","properties":{"id":"325418156","version":"2","building":"yes","changeSetId":"0","timestamp":"1422651419000"},"geometry":{"type":"Polygon","coordinates":[[[12.286069300000001,51.328141800000004],[12.2862372,51.328170400000005],[12.286054,51.3285897],[12.285886000000001,51.328561],[12.2859183,51.328487],[12.2859634,51.328384],[12.286009900000002,51.3282777],[12.286056,51.328172200000004],[12.286069300000001,51.328141800000004]]]}},{"type":"Feature","properties":{"id":"325418158","version":"2","building":"yes","changeSetId":"0","timestamp":"1422651307000"},"geometry":{"type":"Polygon","coordinates":[[[12.288210600000001,51.3288492],[12.2881636,51.328955300000004],[12.288077600000001,51.3289405],[12.287864200000001,51.328903600000004],[12.2876215,51.328861700000004],[12.287360900000001,51.328816700000004],[12.2871112,51.328773600000005],[12.286856700000001,51.328729700000004],[12.286608500000002,51.3286868],[12.2864599,51.328661200000006],[12.286506900000001,51.3285551],[12.2881639,51.328841100000005],[12.288210600000001,51.3288492]]]}},{"type":"Feature","properties":{"id":"325548288","version":"1","building":"apartments","changeSetId":"0","timestamp":"1422656831000"},"geometry":{"type":"Polygon","coordinates":[[[12.2819303,51.3269401],[12.2818009,51.3268617],[12.281756900000001,51.326910100000006],[12.2819303,51.3269401]]]}},{"type":"Feature","properties":{"id":"325548289","version":"1","building":"apartments","changeSetId":"0","timestamp":"1422656832000"},"geometry":{"type":"Polygon","coordinates":[[[12.2817459,51.327356800000004],[12.281572500000001,51.3273268],[12.281572200000001,51.327381800000005],[12.2817459,51.327356800000004]]]}},{"type":"Feature","properties":{"id":"325548290","version":"1","building":"apartments","changeSetId":"0","timestamp":"1422656832000"},"geometry":{"type":"Polygon","coordinates":[[[12.281903900000001,51.3277857],[12.281730300000001,51.32781060000001],[12.2817751,51.3278571],[12.281903900000001,51.3277857]]]}},{"type":"Feature","properties":{"id":"325548291","version":"1","building":"apartments","changeSetId":"0","timestamp":"1422656832000"},"geometry":{"type":"Polygon","coordinates":[[[12.282417200000001,51.326626000000005],[12.2822878,51.326547700000006],[12.2823989,51.32647600000001],[12.282577000000002,51.3263611],[12.2827569,51.3262451],[12.282830500000001,51.3261977],[12.282959900000002,51.326276],[12.282417200000001,51.326626000000005]]]}},{"type":"Feature","properties":{"id":"325548292","version":"1","building":"apartments","changeSetId":"0","timestamp":"1422656832000"},"geometry":{"type":"Polygon","coordinates":[[[12.2839931,51.3263042],[12.284112100000002,51.3262274],[12.284223500000001,51.3262949],[12.2844137,51.32641],[12.2845674,51.326503],[12.2846352,51.32654410000001],[12.2845162,51.3266209],[12.2839931,51.3263042]]]}},{"type":"Feature","properties":{"id":"325548293","version":"1","building":"apartments","changeSetId":"0","timestamp":"1422656832000"},"geometry":{"type":"Polygon","coordinates":[[[12.2817751,51.3278571],[12.281873000000001,51.327926000000005],[12.282046300000001,51.328048],[12.282185400000001,51.328146000000004],[12.282253,51.328193600000006],[12.2823819,51.3281222],[12.281903900000001,51.3277857],[12.2817751,51.3278571]]]}},{"type":"Feature","properties":{"id":"325548294","version":"1","building":"apartments","changeSetId":"0","timestamp":"1422656832000"},"geometry":{"type":"Polygon","coordinates":[[[12.2817459,51.327356800000004],[12.2819303,51.3269401],[12.281756900000001,51.326910100000006],[12.2817317,51.326967],[12.2816848,51.327073000000006],[12.2816393,51.3271759],[12.2815904,51.327286300000004],[12.281572500000001,51.3273268],[12.2817459,51.327356800000004]]]}},{"type":"Feature","properties":{"id":"325548295","version":"1","building":"apartments","changeSetId":"0","timestamp":"1422656832000"},"geometry":{"type":"Polygon","coordinates":[[[12.283437600000001,51.3259679],[12.2834692,51.325947500000005],[12.2835566,51.3258911],[12.2836627,51.325955300000004],[12.283850600000001,51.326069100000005],[12.284039600000002,51.326183500000006],[12.284112100000002,51.3262274],[12.2839931,51.3263042],[12.283437600000001,51.3259679]]]}},{"type":"Feature","properties":{"id":"325548296","version":"1","building":"apartments","changeSetId":"0","timestamp":"1422656832000"},"geometry":{"type":"Polygon","coordinates":[[[12.281903900000001,51.3277857],[12.2817459,51.327356800000004],[12.281572200000001,51.327381800000005],[12.2815966,51.3274478],[12.281634100000002,51.327549600000005],[12.281674200000001,51.3276583],[12.2817143,51.327767300000005],[12.281730300000001,51.32781060000001],[12.281903900000001,51.3277857]]]}},{"type":"Feature","properties":{"id":"325548297","version":"1","building":"yes","changeSetId":"0","timestamp":"1422656832000"},"geometry":{"type":"Polygon","coordinates":[[[12.2833704,51.3267175],[12.2833278,51.326745200000005],[12.2833053,51.326759800000005],[12.283154900000001,51.326857700000005],[12.2829803,51.326971400000005],[12.2828637,51.3270472],[12.2827303,51.326967200000006],[12.283237000000002,51.326637500000004],[12.2833704,51.3267175]]]}},{"type":"Feature","properties":{"id":"325548298","version":"1","building":"apartments","changeSetId":"0","timestamp":"1422656832000"},"geometry":{"type":"Polygon","coordinates":[[[12.282830500000001,51.3261977],[12.282959900000002,51.326276],[12.283437600000001,51.3259679],[12.2834692,51.325947500000005],[12.283339900000001,51.325869100000006],[12.283262700000002,51.325918900000005],[12.283126000000001,51.326007100000005],[12.2829417,51.3261259],[12.282830500000001,51.3261977]]]}},{"type":"Feature","properties":{"id":"325548299","version":"1","building":"apartments","changeSetId":"0","timestamp":"1422656832000"},"geometry":{"type":"Polygon","coordinates":[[[12.2819303,51.3269401],[12.282417200000001,51.326626000000005],[12.2822878,51.326547700000006],[12.2822118,51.3265967],[12.2820906,51.3266749],[12.2819695,51.326753000000004],[12.2818471,51.3268319],[12.2818009,51.3268617],[12.2819303,51.3269401]]]}},{"type":"Feature","properties":{"id":"325550191","version":"1","building":"residential","changeSetId":"0","timestamp":"1422658018000"},"geometry":{"type":"Polygon","coordinates":[[[12.2822419,51.328879],[12.2823588,51.3289394],[12.2824775,51.3288498],[12.282360500000001,51.328789400000005],[12.2822419,51.328879]]]}},{"type":"Feature","properties":{"id":"325663884","version":"1","building":"commercial","changeSetId":"0","timestamp":"1422690252000"},"geometry":{"type":"Polygon","coordinates":[[[12.2809319,51.3275967],[12.280996,51.3275689],[12.2810945,51.3276575],[12.2810304,51.327685300000006],[12.2809319,51.3275967]]]}},{"type":"Feature","properties":{"id":"325663885","version":"1","building":"commercial","changeSetId":"0","timestamp":"1422690252000"},"geometry":{"type":"Polygon","coordinates":[[[12.280815800000001,51.327492400000004],[12.2809319,51.3275967],[12.280996,51.3275689],[12.281014800000001,51.32756070000001],[12.2809021,51.3274594],[12.280815800000001,51.327492400000004]]]}},{"type":"Feature","properties":{"id":"325711823","version":"1","building":"terrace","changeSetId":"0","timestamp":"1422708719000"},"geometry":{"type":"Polygon","coordinates":[[[12.279101200000001,51.327116600000004],[12.279026100000001,51.3270889],[12.279099700000002,51.3270112],[12.279174800000002,51.327039000000006],[12.279101200000001,51.327116600000004]]]}},{"type":"Feature","properties":{"id":"325711824","version":"1","building":"terrace","changeSetId":"0","timestamp":"1422708719000"},"geometry":{"type":"Polygon","coordinates":[[[12.279819000000002,51.3268226],[12.279749,51.3267966],[12.279821700000001,51.3267201],[12.2798917,51.3267461],[12.279819000000002,51.3268226]]]}},{"type":"Feature","properties":{"id":"325711825","version":"1","building":"terrace","changeSetId":"0","timestamp":"1422708719000"},"geometry":{"type":"Polygon","coordinates":[[[12.279868200000001,51.326480700000005],[12.2799396,51.326506900000005],[12.2800037,51.326438700000004],[12.2799323,51.3264125],[12.279868200000001,51.326480700000005]]]}},{"type":"Feature","properties":{"id":"325711826","version":"1","building":"terrace","changeSetId":"0","timestamp":"1422708719000"},"geometry":{"type":"Polygon","coordinates":[[[12.280773700000001,51.326905800000006],[12.280703200000001,51.3268792],[12.280772800000001,51.326807300000006],[12.2808433,51.326833900000004],[12.280773700000001,51.326905800000006]]]}},{"type":"Feature","properties":{"id":"325711827","version":"1","building":"terrace","changeSetId":"0","timestamp":"1422708719000"},"geometry":{"type":"Polygon","coordinates":[[[12.2791764,51.3271444],[12.279101200000001,51.327116600000004],[12.279174800000002,51.327039000000006],[12.2792499,51.327066800000004],[12.2791764,51.3271444]]]}},{"type":"Feature","properties":{"id":"325711828","version":"1","building":"terrace","changeSetId":"0","timestamp":"1422708719000"},"geometry":{"type":"Polygon","coordinates":[[[12.2795845,51.32721900000001],[12.279628,51.3271719],[12.2797543,51.3272174],[12.2797108,51.327264500000005],[12.2795845,51.32721900000001]]]}},{"type":"Feature","properties":{"id":"325711829","version":"1","building":"terrace","changeSetId":"0","timestamp":"1422708719000"},"geometry":{"type":"Polygon","coordinates":[[[12.279802100000001,51.3269833],[12.279845600000002,51.326936100000005],[12.279971900000001,51.3269816],[12.279928400000001,51.3270288],[12.279802100000001,51.3269833]]]}},{"type":"Feature","properties":{"id":"325711830","version":"1","building":"terrace","changeSetId":"0","timestamp":"1422708719000"},"geometry":{"type":"Polygon","coordinates":[[[12.279679000000002,51.3267706],[12.279609,51.326744600000005],[12.279681700000001,51.326668100000006],[12.2797517,51.326694100000005],[12.279679000000002,51.3267706]]]}},{"type":"Feature","properties":{"id":"325711831","version":"1","building":"terrace","changeSetId":"0","timestamp":"1422708719000"},"geometry":{"type":"Polygon","coordinates":[[[12.2801345,51.326850300000004],[12.280176500000001,51.326806100000006],[12.280298700000001,51.326851500000004],[12.2802567,51.3268957],[12.2801345,51.326850300000004]]]}},{"type":"Feature","properties":{"id":"325711832","version":"1","building":"terrace","changeSetId":"0","timestamp":"1422708719000"},"geometry":{"type":"Polygon","coordinates":[[[12.2795409,51.327266200000004],[12.2795845,51.32721900000001],[12.2797108,51.327264500000005],[12.2796672,51.3273117],[12.2795409,51.327266200000004]]]}},{"type":"Feature","properties":{"id":"325711833","version":"1","building":"terrace","changeSetId":"0","timestamp":"1422708719000"},"geometry":{"type":"Polygon","coordinates":[[[12.2805307,51.327024800000004],[12.280571100000001,51.3269809],[12.2806893,51.327023200000006],[12.280648900000001,51.3270672],[12.2805307,51.327024800000004]]]}},{"type":"Feature","properties":{"id":"325711834","version":"1","building":"terrace","changeSetId":"0","timestamp":"1422708719000"},"geometry":{"type":"Polygon","coordinates":[[[12.2806327,51.3268525],[12.2805622,51.3268259],[12.2806318,51.326754],[12.280702300000002,51.326780600000006],[12.2806327,51.3268525]]]}},{"type":"Feature","properties":{"id":"325711835","version":"1","building":"terrace","changeSetId":"0","timestamp":"1422708719000"},"geometry":{"type":"Polygon","coordinates":[[[12.279796800000002,51.326454500000004],[12.279868200000001,51.326480700000005],[12.2799323,51.3264125],[12.279860900000001,51.3263863],[12.279796800000002,51.326454500000004]]]}},{"type":"Feature","properties":{"id":"325711836","version":"1","building":"terrace","changeSetId":"0","timestamp":"1422708719000"},"geometry":{"type":"Polygon","coordinates":[[[12.279749,51.3267966],[12.279679000000002,51.3267706],[12.2797517,51.326694100000005],[12.279821700000001,51.3267201],[12.279749,51.3267966]]]}},{"type":"Feature","properties":{"id":"325711837","version":"1","building":"terrace","changeSetId":"0","timestamp":"1422708719000"},"geometry":{"type":"Polygon","coordinates":[[[12.2800925,51.3268945],[12.2801345,51.326850300000004],[12.2802567,51.3268957],[12.2802147,51.326939900000006],[12.2800925,51.3268945]]]}},{"type":"Feature","properties":{"id":"325711838","version":"1","building":"terrace","changeSetId":"0","timestamp":"1422708719000"},"geometry":{"type":"Polygon","coordinates":[[[12.279671500000001,51.327124700000006],[12.279715000000001,51.3270776],[12.279841300000001,51.3271231],[12.2797978,51.327170200000005],[12.279671500000001,51.327124700000006]]]}},{"type":"Feature","properties":{"id":"325711839","version":"1","building":"terrace","changeSetId":"0","timestamp":"1422708719000"},"geometry":{"type":"Polygon","coordinates":[[[12.280490400000001,51.327068700000005],[12.2805307,51.327024800000004],[12.280648900000001,51.3270672],[12.2806086,51.3271111],[12.280490400000001,51.327068700000005]]]}},{"type":"Feature","properties":{"id":"325711840","version":"1","building":"terrace","changeSetId":"0","timestamp":"1422708719000"},"geometry":{"type":"Polygon","coordinates":[[[12.2797254,51.3264283],[12.279796800000002,51.326454500000004],[12.279860900000001,51.3263863],[12.279789500000001,51.3263601],[12.2797254,51.3264283]]]}},{"type":"Feature","properties":{"id":"325711841","version":"1","building":"terrace","changeSetId":"0","timestamp":"1422708720000"},"geometry":{"type":"Polygon","coordinates":[[[12.280171200000002,51.326593],[12.2802454,51.3266192],[12.280310400000001,51.326547100000006],[12.280236200000001,51.32652100000001],[12.280171200000002,51.326593]]]}},{"type":"Feature","properties":{"id":"325711842","version":"1","building":"terrace","changeSetId":"0","timestamp":"1422708720000"},"geometry":{"type":"Polygon","coordinates":[[[12.279628,51.3271719],[12.279671500000001,51.327124700000006],[12.2797978,51.327170200000005],[12.2797543,51.3272174],[12.279628,51.3271719]]]}},{"type":"Feature","properties":{"id":"325711843","version":"1","building":"terrace","changeSetId":"0","timestamp":"1422708720000"},"geometry":{"type":"Polygon","coordinates":[[[12.2802889,51.326684500000006],[12.280217400000002,51.3266587],[12.2802846,51.326585900000005],[12.2803562,51.3266117],[12.2802889,51.326684500000006]]]}},{"type":"Feature","properties":{"id":"325711844","version":"1","building":"terrace","changeSetId":"0","timestamp":"1422708720000"},"geometry":{"type":"Polygon","coordinates":[[[12.2792515,51.3271722],[12.2791764,51.3271444],[12.2792499,51.327066800000004],[12.279325,51.3270946],[12.2792515,51.3271722]]]}},{"type":"Feature","properties":{"id":"325711845","version":"1","building":"terrace","changeSetId":"0","timestamp":"1422708720000"},"geometry":{"type":"Polygon","coordinates":[[[12.280176500000001,51.326806100000006],[12.280218600000001,51.326762],[12.280340800000001,51.3268074],[12.280298700000001,51.326851500000004],[12.280176500000001,51.326806100000006]]]}},{"type":"Feature","properties":{"id":"325711846","version":"1","building":"terrace","changeSetId":"0","timestamp":"1422708720000"},"geometry":{"type":"Polygon","coordinates":[[[12.280097000000001,51.3265669],[12.280171200000002,51.326593],[12.280236200000001,51.32652100000001],[12.280162,51.3264949],[12.280097000000001,51.3265669]]]}},{"type":"Feature","properties":{"id":"325711847","version":"1","building":"terrace","changeSetId":"0","timestamp":"1422708720000"},"geometry":{"type":"Polygon","coordinates":[[[12.279361000000002,51.326883],[12.279291,51.326957],[12.2793816,51.3269905],[12.279451700000001,51.326916600000004],[12.279361000000002,51.326883]]]}},{"type":"Feature","properties":{"id":"325711848","version":"1","building":"terrace","changeSetId":"0","timestamp":"1422708720000"},"geometry":{"type":"Polygon","coordinates":[[[12.279758600000001,51.327030400000005],[12.279802100000001,51.3269833],[12.279928400000001,51.3270288],[12.2798849,51.327075900000004],[12.279758600000001,51.327030400000005]]]}},{"type":"Feature","properties":{"id":"325711849","version":"1","building":"terrace","changeSetId":"0","timestamp":"1422708720000"},"geometry":{"type":"Polygon","coordinates":[[[12.2803605,51.3267103],[12.2802889,51.326684500000006],[12.2803562,51.3266117],[12.2804277,51.3266374],[12.2803605,51.3267103]]]}},{"type":"Feature","properties":{"id":"325711850","version":"1","building":"terrace","changeSetId":"0","timestamp":"1422708720000"},"geometry":{"type":"Polygon","coordinates":[[[12.280703200000001,51.3268792],[12.2806327,51.3268525],[12.280702300000002,51.326780600000006],[12.280772800000001,51.326807300000006],[12.280703200000001,51.3268792]]]}},{"type":"Feature","properties":{"id":"325711851","version":"1","building":"terrace","changeSetId":"0","timestamp":"1422708720000"},"geometry":{"type":"Polygon","coordinates":[[[12.279715000000001,51.3270776],[12.279758600000001,51.327030400000005],[12.2798849,51.327075900000004],[12.279841300000001,51.3271231],[12.279715000000001,51.3270776]]]}},{"type":"Feature","properties":{"roof:orientation":"across","roof:shape":"gabled","building:levels":"1","id":"325802704","version":"3","building":"terrace","changeSetId":"0","timestamp":"1444889914000"},"geometry":{"type":"Polygon","coordinates":[[[12.281433000000002,51.324293100000006],[12.2814758,51.324226100000004],[12.281376300000002,51.324201200000005],[12.281333400000001,51.324268200000006],[12.281433000000002,51.324293100000006]]]}},{"type":"Feature","properties":{"roof:orientation":"across","roof:shape":"gabled","building:levels":"1","id":"325802705","version":"3","building":"terrace","changeSetId":"0","timestamp":"1444889914000"},"geometry":{"type":"Polygon","coordinates":[[[12.281228700000002,51.324242600000005],[12.281333400000001,51.324268200000006],[12.281376300000002,51.324201200000005],[12.2812728,51.324181200000005],[12.281228700000002,51.324242600000005]]]}},{"type":"Feature","properties":{"roof:shape":"gabled","building:levels":"1","id":"325802706","version":"2","building":"terrace","changeSetId":"0","timestamp":"1444822519000"},"geometry":{"type":"Polygon","coordinates":[[[12.281529800000001,51.3243165],[12.2816448,51.324353],[12.2816936,51.324287500000004],[12.2815787,51.324251800000006],[12.281529800000001,51.3243165]]]}},{"type":"Feature","properties":{"roof:orientation":"across","roof:shape":"gabled","building:levels":"1","id":"325802707","version":"5","building":"terrace","changeSetId":"0","timestamp":"1467803959000"},"geometry":{"type":"Polygon","coordinates":[[[12.281433000000002,51.324293100000006],[12.281529800000001,51.3243165],[12.2815787,51.324251800000006],[12.2814758,51.324226100000004],[12.281433000000002,51.324293100000006]]]}},{"type":"Feature","properties":{"roof:shape":"gabled","building:levels":"1","id":"325802708","version":"2","building":"terrace","changeSetId":"0","timestamp":"1444822519000"},"geometry":{"type":"Polygon","coordinates":[[[12.281024400000002,51.3241828],[12.2811321,51.3242155],[12.2811762,51.3241541],[12.2810786,51.324122900000006],[12.281024400000002,51.3241828]]]}},{"type":"Feature","properties":{"roof:shape":"gabled","building:levels":"1","id":"325802709","version":"3","building":"terrace","changeSetId":"0","timestamp":"1467795722000"},"geometry":{"type":"Polygon","coordinates":[[[12.281024400000002,51.3241828],[12.2810786,51.324122900000006],[12.280969,51.3240841],[12.280914800000001,51.324144000000004],[12.2809515,51.32415700000001],[12.281024400000002,51.3241828]]]}},{"type":"Feature","properties":{"roof:orientation":"across","roof:shape":"gabled","building:levels":"1","id":"325802710","version":"4","building":"terrace","changeSetId":"0","timestamp":"1450107763000"},"geometry":{"type":"Polygon","coordinates":[[[12.281228700000002,51.324242600000005],[12.2812728,51.324181200000005],[12.2811762,51.3241541],[12.2811321,51.3242155],[12.281228700000002,51.324242600000005]]]}},{"type":"Feature","properties":{"amenity":"car_wash","id":"325810233","version":"1","building":"yes","changeSetId":"0","timestamp":"1422741552000"},"geometry":{"type":"Polygon","coordinates":[[[12.2770814,51.320718500000005],[12.2774894,51.3208251],[12.277531300000001,51.32076240000001],[12.277123300000001,51.320655800000004],[12.2770814,51.320718500000005]]]}},{"type":"Feature","properties":{"addr:housenumber":"6","roof:orientation":"across","roof:shape":"gabled","building:levels":"2","id":"325811096","addr:street":"Ilmenauer Weg","version":"2","addr:postcode":"04205","building":"terrace","changeSetId":"0","timestamp":"1467875759000","addr:city":"Leipzig"},"geometry":{"type":"Polygon","coordinates":[[[12.281345100000001,51.3232901],[12.281272300000001,51.323263000000004],[12.2813537,51.3231775],[12.281426600000001,51.3232045],[12.281345100000001,51.3232901]]]}},{"type":"Feature","properties":{"id":"325811097","version":"1","building":"terrace","changeSetId":"0","timestamp":"1422742126000"},"geometry":{"type":"Polygon","coordinates":[[[12.2808454,51.323238800000006],[12.280888500000001,51.3231941],[12.281027600000002,51.3232465],[12.2809845,51.3232912],[12.2808454,51.323238800000006]]]}},{"type":"Feature","properties":{"addr:housenumber":"4","roof:orientation":"across","roof:shape":"gabled","building:levels":"2","id":"325811098","addr:street":"Ilmenauer Weg","version":"2","addr:postcode":"04205","building":"terrace","changeSetId":"0","timestamp":"1467875759000","addr:city":"Leipzig"},"geometry":{"type":"Polygon","coordinates":[[[12.281418,51.323317200000005],[12.281345100000001,51.3232901],[12.281426600000001,51.3232045],[12.2814995,51.3232316],[12.281418,51.323317200000005]]]}},{"type":"Feature","properties":{"id":"325811099","version":"1","building":"terrace","changeSetId":"0","timestamp":"1422742127000"},"geometry":{"type":"Polygon","coordinates":[[[12.280802300000001,51.3232834],[12.2808454,51.323238800000006],[12.2809845,51.3232912],[12.280941400000001,51.3233358],[12.280802300000001,51.3232834]]]}},{"type":"Feature","properties":{"id":"325811100","version":"1","building":"terrace","changeSetId":"0","timestamp":"1422742127000"},"geometry":{"type":"Polygon","coordinates":[[[12.2809317,51.323149400000005],[12.280974800000001,51.3231047],[12.281113900000001,51.3231571],[12.2810708,51.3232018],[12.2809317,51.323149400000005]]]}},{"type":"Feature","properties":{"id":"325811101","version":"1","building":"terrace","changeSetId":"0","timestamp":"1422742127000"},"geometry":{"type":"Polygon","coordinates":[[[12.280888500000001,51.3231941],[12.2809317,51.323149400000005],[12.2810708,51.3232018],[12.281027600000002,51.3232465],[12.280888500000001,51.3231941]]]}},{"type":"Feature","properties":{"addr:housenumber":"10","roof:orientation":"across","roof:shape":"gabled","building:levels":"2","id":"325811102","addr:street":"Ilmenauer Weg","version":"2","addr:postcode":"04205","building":"terrace","changeSetId":"0","timestamp":"1467875759000","addr:city":"Leipzig"},"geometry":{"type":"Polygon","coordinates":[[[12.281165000000001,51.323495300000005],[12.2810804,51.323463600000004],[12.2811617,51.3233788],[12.2812462,51.3234104],[12.281165000000001,51.323495300000005]]]}},{"type":"Feature","properties":{"id":"325811103","version":"1","building":"terrace","changeSetId":"0","timestamp":"1422742127000"},"geometry":{"type":"Polygon","coordinates":[[[12.2810179,51.323060100000006],[12.281061000000001,51.3230154],[12.281200100000001,51.323067800000004],[12.281157,51.3231125],[12.2810179,51.323060100000006]]]}},{"type":"Feature","properties":{"id":"325811104","version":"1","building":"terrace","changeSetId":"0","timestamp":"1422742127000"},"geometry":{"type":"Polygon","coordinates":[[[12.280974800000001,51.3231047],[12.2810179,51.323060100000006],[12.281157,51.3231125],[12.281113900000001,51.3231571],[12.280974800000001,51.3231047]]]}},{"type":"Feature","properties":{"id":"325863217","version":"1","building":"garages","changeSetId":"0","timestamp":"1422784514000"},"geometry":{"type":"Polygon","coordinates":[[[12.2787491,51.3216089],[12.279176300000001,51.3211407],[12.279251400000001,51.3211675],[12.2788242,51.3216356],[12.2787491,51.3216089]]]}},{"type":"Feature","properties":{"id":"325863218","version":"1","building":"residential","changeSetId":"0","timestamp":"1422784514000"},"geometry":{"type":"Polygon","coordinates":[[[12.278753,51.3220819],[12.278836100000001,51.321993400000004],[12.278964100000001,51.322040400000006],[12.278881,51.3221288],[12.278753,51.3220819]]]}},{"type":"Feature","properties":{"id":"325863219","version":"1","building":"garages","changeSetId":"0","timestamp":"1422784514000"},"geometry":{"type":"Polygon","coordinates":[[[12.278881,51.321666500000006],[12.279308100000002,51.321198300000006],[12.279383200000002,51.32122510000001],[12.2789561,51.321693200000006],[12.278881,51.321666500000006]]]}},{"type":"Feature","properties":{"id":"325863221","version":"1","building":"residential","changeSetId":"0","timestamp":"1422784514000"},"geometry":{"type":"Polygon","coordinates":[[[12.2789166,51.3225646],[12.2790049,51.32246000000001],[12.2791422,51.3225052],[12.279065500000002,51.322596100000005],[12.279021100000001,51.322581500000005],[12.2790096,51.3225952],[12.2789166,51.3225646]]]}},{"type":"Feature","properties":{"id":"325905706","version":"1","building":"residential","changeSetId":"0","timestamp":"1422801352000"},"geometry":{"type":"Polygon","coordinates":[[[12.2805385,51.32119530000001],[12.280613800000001,51.3211207],[12.280734,51.3211681],[12.2806587,51.321242700000006],[12.2805385,51.32119530000001]]]}},{"type":"Feature","properties":{"ref":"4046","id":"363462977","power":"substation","version":"2","building":"yes","changeSetId":"0","timestamp":"1463059942000"},"geometry":{"type":"Polygon","coordinates":[[[12.2752507,51.3249301],[12.275327,51.324957600000005],[12.275354100000001,51.3249282],[12.275277800000001,51.3249007],[12.2752507,51.3249301]]]}},{"type":"Feature","properties":{"id":"365352448","version":"1","building":"construction","changeSetId":"0","timestamp":"1439394613000"},"geometry":{"type":"Polygon","coordinates":[[[12.299463800000002,51.335602],[12.2994044,51.3355423],[12.2993798,51.3355176],[12.299506000000001,51.335468500000005],[12.2995899,51.3355532],[12.299463800000002,51.335602]]]}},{"type":"Feature","properties":{"id":"365648281","power":"substation","version":"3","building":"yes","changeSetId":"0","timestamp":"1451315886000"},"geometry":{"type":"Polygon","coordinates":[[[12.297694300000002,51.3365439],[12.2978088,51.336457],[12.297742300000001,51.3364228],[12.2976278,51.3365097],[12.297694300000002,51.3365439]]]}},{"type":"Feature","properties":{"id":"365648282","version":"1","building":"garage","changeSetId":"0","timestamp":"1439541796000"},"geometry":{"type":"Polygon","coordinates":[[[12.3013914,51.333962],[12.3014905,51.333905400000006],[12.3016141,51.333989900000006],[12.3015149,51.33404650000001],[12.3013914,51.333962]]]}},{"type":"Feature","properties":{"id":"365648283","version":"1","building":"yes","changeSetId":"0","timestamp":"1439541796000"},"geometry":{"type":"Polygon","coordinates":[[[12.300082000000002,51.335011900000005],[12.3001146,51.334994800000004],[12.300090500000001,51.3349769],[12.3000579,51.334994],[12.300082000000002,51.335011900000005]]]}},{"type":"Feature","properties":{"id":"365648284","version":"1","building":"yes","changeSetId":"0","timestamp":"1439541796000"},"geometry":{"type":"Polygon","coordinates":[[[12.2995376,51.335419],[12.299600900000002,51.335382900000006],[12.2996288,51.335402],[12.299565600000001,51.335438100000005],[12.2995376,51.335419]]]}},{"type":"Feature","properties":{"id":"365648285","version":"1","building":"yes","changeSetId":"0","timestamp":"1439541796000"},"geometry":{"type":"Polygon","coordinates":[[[12.299623100000002,51.335374900000005],[12.2997227,51.3353192],[12.299743000000001,51.3353333],[12.2996434,51.335389000000006],[12.299623100000002,51.335374900000005]]]}},{"type":"Feature","properties":{"id":"374055319","version":"1","building":"house","changeSetId":"0","timestamp":"1444118303000"},"geometry":{"type":"Polygon","coordinates":[[[12.2811181,51.3247967],[12.281270300000001,51.32484710000001],[12.2813411,51.32476380000001],[12.2811889,51.324713300000006],[12.2811181,51.3247967]]]}},{"type":"Feature","properties":{"id":"374055320","version":"1","building":"house","changeSetId":"0","timestamp":"1444118303000"},"geometry":{"type":"Polygon","coordinates":[[[12.2809162,51.325037300000005],[12.2810375,51.3250833],[12.2811046,51.325014100000004],[12.2809833,51.32496810000001],[12.2809162,51.325037300000005]]]}},{"type":"Feature","properties":{"addr:housenumber":"7","id":"374055321","addr:street":"Weimarer Straße","version":"1","addr:postcode":"04205","building":"house","changeSetId":"0","timestamp":"1444118303000","addr:city":"Leipzig"},"geometry":{"type":"Polygon","coordinates":[[[12.2800349,51.326017500000006],[12.280151,51.3260645],[12.2800589,51.3261533],[12.2799428,51.326106300000006],[12.2800349,51.326017500000006]]]}},{"type":"Feature","properties":{"addr:housenumber":"9","id":"374055322","addr:street":"Weimarer Straße","version":"1","addr:postcode":"04205","building":"house","changeSetId":"0","timestamp":"1444118303000","addr:city":"Leipzig"},"geometry":{"type":"Polygon","coordinates":[[[12.2795763,51.3259619],[12.2797207,51.3260112],[12.2798029,51.325917000000004],[12.2796584,51.325867800000005],[12.2795763,51.3259619]]]}},{"type":"Feature","properties":{"id":"374055323","version":"1","building":"house","changeSetId":"0","timestamp":"1444118303000"},"geometry":{"type":"Polygon","coordinates":[[[12.280722800000001,51.325275100000006],[12.280857000000001,51.325319300000004],[12.280927,51.3252365],[12.2807928,51.325192200000004],[12.280722800000001,51.325275100000006]]]}},{"type":"Feature","properties":{"id":"379228805","version":"1","building":"yes","changeSetId":"0","timestamp":"1447022777000"},"geometry":{"type":"Polygon","coordinates":[[[12.3009912,51.330029],[12.3017888,51.3297925],[12.301742500000001,51.3297316],[12.300944900000001,51.329968],[12.3009912,51.330029]]]}},{"type":"Feature","properties":{"id":"379228806","version":"1","building":"yes","changeSetId":"0","timestamp":"1447022777000"},"geometry":{"type":"Polygon","coordinates":[[[12.3031757,51.3305124],[12.303556500000001,51.3304017],[12.303496,51.330320400000005],[12.303115100000001,51.330431100000006],[12.3031757,51.3305124]]]}},{"type":"Feature","properties":{"id":"412871584","version":"1","building":"yes","changeSetId":"0","timestamp":"1461380583000"},"geometry":{"type":"Polygon","coordinates":[[[12.293531100000001,51.3366807],[12.293522900000001,51.336654900000006],[12.293550000000002,51.3366515],[12.293537200000001,51.3366112],[12.2936042,51.3366029],[12.293625200000001,51.336669],[12.293531100000001,51.3366807]]]}},{"type":"Feature","properties":{"id":"412871585","version":"1","building":"yes","changeSetId":"0","timestamp":"1461380584000"},"geometry":{"type":"Polygon","coordinates":[[[12.29358,51.336558600000004],[12.293573400000001,51.3365358],[12.2936028,51.336532500000004],[12.2935897,51.33648710000001],[12.2936668,51.336478400000004],[12.293686500000002,51.336546600000005],[12.29358,51.336558600000004]]]}},{"type":"Feature","properties":{"id":"412871586","version":"1","building":"yes","changeSetId":"0","timestamp":"1461380584000"},"geometry":{"type":"Polygon","coordinates":[[[12.2936507,51.3364166],[12.2937189,51.336383700000006],[12.293648600000001,51.3363267],[12.2935803,51.3363596],[12.2936507,51.3364166]]]}},{"type":"Feature","properties":{"id":"412871588","version":"1","building":"yes","changeSetId":"0","timestamp":"1461380584000"},"geometry":{"type":"Polygon","coordinates":[[[12.293616,51.3362946],[12.2936869,51.3362617],[12.293617800000002,51.3362035],[12.2935469,51.336236400000004],[12.293616,51.3362946]]]}},{"type":"Feature","properties":{"id":"412871589","version":"1","building":"yes","changeSetId":"0","timestamp":"1461380584000"},"geometry":{"type":"Polygon","coordinates":[[[12.293587400000002,51.336168900000004],[12.293650600000001,51.336139100000004],[12.2935795,51.3360804],[12.2935163,51.3361102],[12.293587400000002,51.336168900000004]]]}},{"type":"Feature","properties":{"id":"412871622","version":"1","building":"yes","changeSetId":"0","timestamp":"1461380679000"},"geometry":{"type":"Polygon","coordinates":[[[12.2935581,51.3360411],[12.293614600000002,51.3360143],[12.2935487,51.3359601],[12.293492200000001,51.335987],[12.2935581,51.3360411]]]}},{"type":"Feature","properties":{"id":"412871623","version":"1","building":"yes","changeSetId":"0","timestamp":"1461380679000"},"geometry":{"type":"Polygon","coordinates":[[[12.293522800000002,51.335920300000005],[12.2935858,51.335891100000005],[12.293517900000001,51.3358338],[12.293454800000001,51.335863],[12.293522800000002,51.335920300000005]]]}},{"type":"Feature","properties":{"id":"412871624","version":"1","building":"yes","changeSetId":"0","timestamp":"1461380679000"},"geometry":{"type":"Polygon","coordinates":[[[12.293492700000002,51.335792600000005],[12.293553600000001,51.335762800000005],[12.2934861,51.335708800000006],[12.2934251,51.335738600000006],[12.293492700000002,51.335792600000005]]]}},{"type":"Feature","properties":{"id":"412871625","version":"1","building":"yes","changeSetId":"0","timestamp":"1461380679000"},"geometry":{"type":"Polygon","coordinates":[[[12.2934595,51.335657100000006],[12.2935072,51.3356301],[12.2934459,51.335587700000005],[12.2933982,51.3356147],[12.2934595,51.335657100000006]]]}},{"type":"Feature","properties":{"id":"412871626","version":"1","building":"yes","changeSetId":"0","timestamp":"1461380679000"},"geometry":{"type":"Polygon","coordinates":[[[12.2934637,51.335472300000006],[12.293504400000002,51.3355018],[12.293429900000001,51.3355419],[12.2933672,51.335496400000004],[12.293417000000002,51.3354696],[12.293439000000001,51.335485500000004],[12.2934637,51.335472300000006]]]}},{"type":"Feature","properties":{"id":"412872431","version":"1","building":"yes","changeSetId":"0","timestamp":"1461380969000"},"geometry":{"type":"Polygon","coordinates":[[[12.293048,51.336806900000006],[12.293058400000001,51.3367907],[12.293026300000001,51.3367827],[12.2930545,51.336738600000004],[12.2931629,51.3367656],[12.293134,51.3368107],[12.293102000000001,51.3368028],[12.293092300000001,51.336818],[12.293048,51.336806900000006]]]}},{"type":"Feature","properties":{"id":"412872432","version":"1","building":"yes","changeSetId":"0","timestamp":"1461380969000"},"geometry":{"type":"Polygon","coordinates":[[[12.2930121,51.336709400000004],[12.2930434,51.3366655],[12.2929688,51.3366447],[12.292925700000001,51.336648000000004],[12.292903500000001,51.336679200000006],[12.2930121,51.336709400000004]]]}},{"type":"Feature","properties":{"id":"412872433","version":"1","building":"yes","changeSetId":"0","timestamp":"1461380969000"},"geometry":{"type":"Polygon","coordinates":[[[12.2928837,51.3366124],[12.2929153,51.336570200000004],[12.292804400000001,51.3365379],[12.292772800000002,51.336580100000006],[12.2928837,51.3366124]]]}},{"type":"Feature","properties":{"id":"412872434","version":"1","building":"yes","changeSetId":"0","timestamp":"1461380969000"},"geometry":{"type":"Polygon","coordinates":[[[12.2927581,51.336517],[12.2928008,51.3364671],[12.292693000000002,51.3364312],[12.292650400000001,51.336481000000006],[12.2927581,51.336517]]]}},{"type":"Feature","properties":{"id":"412872435","version":"1","building":"yes","changeSetId":"0","timestamp":"1461380969000"},"geometry":{"type":"Polygon","coordinates":[[[12.2925523,51.336365300000004],[12.2926447,51.336397600000005],[12.292677800000002,51.336360500000005],[12.2925854,51.336328300000005],[12.2925523,51.336365300000004]]]}},{"type":"Feature","properties":{"id":"412872436","version":"1","building":"yes","changeSetId":"0","timestamp":"1461380969000"},"geometry":{"type":"Polygon","coordinates":[[[12.2925374,51.336297800000004],[12.2925839,51.33625910000001],[12.292511000000001,51.336224900000005],[12.292504300000001,51.336227900000004],[12.292499000000001,51.3362277],[12.292459000000001,51.336261],[12.2925374,51.336297800000004]]]}},{"type":"Feature","properties":{"id":"412872437","version":"1","building":"yes","changeSetId":"0","timestamp":"1461380969000"},"geometry":{"type":"Polygon","coordinates":[[[12.292366600000001,51.3361523],[12.2924164,51.3361092],[12.2924436,51.3361214],[12.2924518,51.3361205],[12.292485300000001,51.336135600000006],[12.2924319,51.336181800000006],[12.292366600000001,51.3361523]]]}},{"type":"Feature","properties":{"id":"412872438","version":"1","building":"yes","changeSetId":"0","timestamp":"1461380970000"},"geometry":{"type":"Polygon","coordinates":[[[12.2922413,51.336048000000005],[12.2922788,51.336021],[12.2923503,51.3360597],[12.2923129,51.3360867],[12.2922413,51.336048000000005]]]}},{"type":"Feature","properties":{"id":"412872439","version":"1","building":"yes","changeSetId":"0","timestamp":"1461380970000"},"geometry":{"type":"Polygon","coordinates":[[[12.292197000000002,51.3359527],[12.2922851,51.3359187],[12.2922417,51.335874800000006],[12.2921536,51.335908800000006],[12.292197000000002,51.3359527]]]}},{"type":"Feature","properties":{"building:levels":"1","id":"429436140","version":"3","building":"yes","changeSetId":"0","timestamp":"1467875758000"},"geometry":{"type":"Polygon","coordinates":[[[12.282104700000001,51.324909100000006],[12.2821662,51.3249318],[12.2823127,51.3247763],[12.282251200000001,51.3247537],[12.282104700000001,51.324909100000006]]]}},{"type":"Feature","properties":{"building:levels":"1","id":"429436141","version":"2","building":"yes","changeSetId":"0","timestamp":"1467804036000"},"geometry":{"type":"Polygon","coordinates":[[[12.2818997,51.3248383],[12.282022300000001,51.324882800000005],[12.2821689,51.3247252],[12.282046300000001,51.3246807],[12.2818997,51.3248383]]]}},{"type":"Feature","properties":{"building:levels":"6","id":"454770956","version":"1","building":"residential","changeSetId":"0","timestamp":"1479689773000"},"geometry":{"type":"Polygon","coordinates":[[[12.2855886,51.326533100000006],[12.285455,51.3266184],[12.2853723,51.32656780000001],[12.285227200000001,51.326479000000006],[12.2850389,51.3263637],[12.2849266,51.326295],[12.2849339,51.326290400000005],[12.284996000000001,51.3262507],[12.285060300000001,51.3262098],[12.2851698,51.3262768],[12.285354300000002,51.3263897],[12.285508700000001,51.3264842],[12.285547000000001,51.32650760000001],[12.2855886,51.326533100000006]]]}},{"type":"Feature","properties":{"website":"http://www.awo-leipzig-stadt.de/","addr:state":"SN","amenity":"nursing_home","addr:country":"DE","building:levels":"9","version":"1","addr:postcode":"04205","building":"residential","operator":"AWO Kreisverband Leipzig-Stadt e.V.","addr:city":"Leipzig","addr:housenumber":"2","phone":"+49 341 30848-0","name":"AWO Begegnungsstätte Grünau","id":"454770974","addr:street":"Dölziger Weg","fax":"+49 341 30848-288","email":"verwaltung@awo-leipzig-stadt.de","changeSetId":"0","timestamp":"1479689774000"},"geometry":{"type":"Polygon","coordinates":[[[12.2841392,51.325508400000004],[12.2841637,51.3255125],[12.284123500000002,51.3256067],[12.2840989,51.3256026],[12.284085200000002,51.325634900000004],[12.2839621,51.325614400000006],[12.2839554,51.325630100000005],[12.2838463,51.325611900000006],[12.283853,51.3255962],[12.283799400000001,51.3255873],[12.283827200000001,51.32552200000001],[12.283803200000001,51.325518],[12.2838323,51.3254498],[12.2838563,51.32545390000001],[12.2838691,51.325423900000004],[12.2839132,51.325431300000005],[12.2839191,51.3254175],[12.283925700000001,51.325402100000005],[12.2839004,51.325397900000006],[12.283940600000001,51.325303600000005],[12.2839659,51.325307800000004],[12.283979800000001,51.3252752],[12.2841035,51.325295800000006],[12.284110400000001,51.3252797],[12.284219400000001,51.3252978],[12.2842125,51.325314000000006],[12.284266700000002,51.325323000000004],[12.284239300000001,51.3253871],[12.2842637,51.325391200000006],[12.2842347,51.325459300000006],[12.284210300000002,51.3254553],[12.284203900000001,51.325470300000006],[12.284197800000001,51.3254845],[12.2841526,51.325476900000005],[12.2841392,51.325508400000004]]]}},{"type":"Feature","properties":{"addr:housenumber":"4","addr:state":"SN","addr:country":"DE","building:levels":"9","id":"454770975","addr:street":"Dölziger Weg","version":"1","addr:postcode":"04205","building":"residential","changeSetId":"0","timestamp":"1479689774000","addr:city":"Leipzig"},"geometry":{"type":"Polygon","coordinates":[[[12.284799600000001,51.3259467],[12.284824100000002,51.3259507],[12.2847839,51.326045],[12.2847594,51.3260409],[12.2847456,51.3260731],[12.284622500000001,51.326052600000004],[12.284615800000001,51.3260683],[12.284506700000001,51.3260501],[12.284513400000002,51.326034500000006],[12.2844598,51.3260255],[12.2844876,51.325960300000006],[12.2844636,51.3259563],[12.284492700000001,51.3258881],[12.284516700000001,51.325892100000004],[12.284521900000001,51.325880000000005],[12.284529500000001,51.3258622],[12.284573600000002,51.3258695],[12.2845861,51.325840400000004],[12.284560800000001,51.325836200000005],[12.284601,51.325741900000004],[12.284626300000001,51.3257461],[12.2846402,51.325713500000006],[12.284763900000002,51.325734100000005],[12.2847679,51.3257248],[12.2847708,51.325718],[12.2848798,51.3257361],[12.284873000000001,51.325752200000004],[12.2849271,51.3257613],[12.284899800000002,51.32582540000001],[12.2849242,51.325829500000005],[12.2848951,51.325897600000005],[12.2848707,51.32589350000001],[12.2848582,51.32592270000001],[12.284813000000002,51.325915200000004],[12.284805200000001,51.325933600000006],[12.284799600000001,51.3259467]]]}},{"type":"Feature","properties":{"id":"462607463","version":"1","building":"yes","changeSetId":"0","timestamp":"1483031086000"},"geometry":{"type":"Polygon","coordinates":[[[12.2840711,51.3238423],[12.2840957,51.32382500000001],[12.284029,51.323787900000006],[12.2840044,51.3238051],[12.2840266,51.3238174],[12.2840711,51.3238423]]]}}]}